<?xml version="1.0"?>
<gpx xmlns="http://www.topografix.com/GPX/1/1" xmlns:xsi="http://www.w3.org/2001/XMLSchema-instance" version="1.1" creator="AllTrails.com" xsi:schemaLocation="http://www.topografix.com/GPX/1/1 http://www.topografix.com/GPX/1/1/gpx.xsd">
  <metadata>
    <name><![CDATA[Afternoon hike at Hidden Valley]]></name>
    <desc><![CDATA[]]></desc>
    <link href="http://www.alltrails.com">
      <text>AllTrails, LLC</text>
    </link>
    <bounds minlat="34.0122" minlon="-116.17383" maxlat="34.01622" maxlon="-116.16789"/>
  </metadata>
  <trk>
    <name><![CDATA[Afternoon hike at Hidden Valley]]></name>
    <src>AllTrails</src>
    <trkseg>
      <trkpt lat="34.0128" lon="-116.169">
        <ele>1303.07</ele>
        <time>2025-02-16T01:02:59Z</time>
      </trkpt>
      <trkpt lat="34.01281" lon="-116.16897">
        <ele>1301.73</ele>
        <time>2025-02-16T01:03:02Z</time>
      </trkpt>
      <trkpt lat="34.01281" lon="-116.16893">
        <ele>1299.72</ele>
        <time>2025-02-16T01:03:06Z</time>
      </trkpt>
      <trkpt lat="34.0128" lon="-116.16889">
        <ele>1297.82</ele>
        <time>2025-02-16T01:03:09Z</time>
      </trkpt>
      <trkpt lat="34.0128" lon="-116.16886">
        <ele>1296.66</ele>
        <time>2025-02-16T01:03:12Z</time>
      </trkpt>
      <trkpt lat="34.01283" lon="-116.16884">
        <ele>1295.92</ele>
        <time>2025-02-16T01:03:18Z</time>
      </trkpt>
      <trkpt lat="34.01286" lon="-116.16883">
        <ele>1295.7</ele>
        <time>2025-02-16T01:03:22Z</time>
      </trkpt>
      <trkpt lat="34.01289" lon="-116.16883">
        <ele>1296.21</ele>
        <time>2025-02-16T01:03:25Z</time>
      </trkpt>
      <trkpt lat="34.01292" lon="-116.16884">
        <ele>1297.05</ele>
        <time>2025-02-16T01:03:28Z</time>
      </trkpt>
      <trkpt lat="34.01294" lon="-116.16885">
        <ele>1297.54</ele>
        <time>2025-02-16T01:03:30Z</time>
      </trkpt>
      <trkpt lat="34.01298" lon="-116.16886">
        <ele>1298.36</ele>
        <time>2025-02-16T01:03:33Z</time>
      </trkpt>
      <trkpt lat="34.01301" lon="-116.16888">
        <ele>1298.65</ele>
        <time>2025-02-16T01:03:36Z</time>
      </trkpt>
      <trkpt lat="34.01304" lon="-116.16891">
        <ele>1298.68</ele>
        <time>2025-02-16T01:03:39Z</time>
      </trkpt>
      <trkpt lat="34.01306" lon="-116.16894">
        <ele>1298.5</ele>
        <time>2025-02-16T01:03:42Z</time>
      </trkpt>
      <trkpt lat="34.01309" lon="-116.16897">
        <ele>1298.5</ele>
        <time>2025-02-16T01:03:45Z</time>
      </trkpt>
      <trkpt lat="34.01312" lon="-116.16896">
        <ele>1298.93</ele>
        <time>2025-02-16T01:03:49Z</time>
      </trkpt>
      <trkpt lat="34.01314" lon="-116.16894">
        <ele>1299.36</ele>
        <time>2025-02-16T01:03:52Z</time>
      </trkpt>
      <trkpt lat="34.01316" lon="-116.16891">
        <ele>1299.9</ele>
        <time>2025-02-16T01:03:55Z</time>
      </trkpt>
      <trkpt lat="34.01319" lon="-116.16887">
        <ele>1300.86</ele>
        <time>2025-02-16T01:03:58Z</time>
      </trkpt>
      <trkpt lat="34.01321" lon="-116.16884">
        <ele>1301.72</ele>
        <time>2025-02-16T01:04:01Z</time>
      </trkpt>
      <trkpt lat="34.01325" lon="-116.16882">
        <ele>1302.39</ele>
        <time>2025-02-16T01:04:04Z</time>
      </trkpt>
      <trkpt lat="34.01328" lon="-116.1688">
        <ele>1302.5</ele>
        <time>2025-02-16T01:04:07Z</time>
      </trkpt>
      <trkpt lat="34.0133" lon="-116.16877">
        <ele>1302.83</ele>
        <time>2025-02-16T01:04:10Z</time>
      </trkpt>
      <trkpt lat="34.01333" lon="-116.16875">
        <ele>1303.02</ele>
        <time>2025-02-16T01:04:13Z</time>
      </trkpt>
      <trkpt lat="34.01336" lon="-116.16872">
        <ele>1303.41</ele>
        <time>2025-02-16T01:04:16Z</time>
      </trkpt>
      <trkpt lat="34.01339" lon="-116.1687">
        <ele>1303.38</ele>
        <time>2025-02-16T01:04:19Z</time>
      </trkpt>
      <trkpt lat="34.01342" lon="-116.16869">
        <ele>1302.93</ele>
        <time>2025-02-16T01:04:22Z</time>
      </trkpt>
      <trkpt lat="34.01345" lon="-116.16867">
        <ele>1302.31</ele>
        <time>2025-02-16T01:04:25Z</time>
      </trkpt>
      <trkpt lat="34.01349" lon="-116.16865">
        <ele>1301.84</ele>
        <time>2025-02-16T01:04:28Z</time>
      </trkpt>
      <trkpt lat="34.01352" lon="-116.16864">
        <ele>1301.69</ele>
        <time>2025-02-16T01:04:31Z</time>
      </trkpt>
      <trkpt lat="34.01355" lon="-116.16862">
        <ele>1301.9</ele>
        <time>2025-02-16T01:04:34Z</time>
      </trkpt>
      <trkpt lat="34.01359" lon="-116.1686">
        <ele>1302.03</ele>
        <time>2025-02-16T01:04:37Z</time>
      </trkpt>
      <trkpt lat="34.01362" lon="-116.16858">
        <ele>1301.94</ele>
        <time>2025-02-16T01:04:40Z</time>
      </trkpt>
      <trkpt lat="34.01365" lon="-116.16856">
        <ele>1301.81</ele>
        <time>2025-02-16T01:04:43Z</time>
      </trkpt>
      <trkpt lat="34.01367" lon="-116.16853">
        <ele>1301.92</ele>
        <time>2025-02-16T01:04:46Z</time>
      </trkpt>
      <trkpt lat="34.0137" lon="-116.16854">
        <ele>1301.78</ele>
        <time>2025-02-16T01:04:50Z</time>
      </trkpt>
      <trkpt lat="34.01373" lon="-116.16856">
        <ele>1301.68</ele>
        <time>2025-02-16T01:04:54Z</time>
      </trkpt>
      <trkpt lat="34.01376" lon="-116.16856">
        <ele>1301.82</ele>
        <time>2025-02-16T01:04:57Z</time>
      </trkpt>
      <trkpt lat="34.01379" lon="-116.16857">
        <ele>1301.96</ele>
        <time>2025-02-16T01:05:00Z</time>
      </trkpt>
      <trkpt lat="34.01382" lon="-116.16858">
        <ele>1302.34</ele>
        <time>2025-02-16T01:05:03Z</time>
      </trkpt>
      <trkpt lat="34.01385" lon="-116.16857">
        <ele>1302.84</ele>
        <time>2025-02-16T01:05:06Z</time>
      </trkpt>
      <trkpt lat="34.01387" lon="-116.16856">
        <ele>1303.24</ele>
        <time>2025-02-16T01:05:09Z</time>
      </trkpt>
      <trkpt lat="34.01391" lon="-116.16857">
        <ele>1303.67</ele>
        <time>2025-02-16T01:05:13Z</time>
      </trkpt>
      <trkpt lat="34.01394" lon="-116.16857">
        <ele>1304.0</ele>
        <time>2025-02-16T01:05:17Z</time>
      </trkpt>
      <trkpt lat="34.01397" lon="-116.16857">
        <ele>1304.32</ele>
        <time>2025-02-16T01:05:20Z</time>
      </trkpt>
      <trkpt lat="34.01399" lon="-116.16858">
        <ele>1304.24</ele>
        <time>2025-02-16T01:05:26Z</time>
      </trkpt>
      <trkpt lat="34.01402" lon="-116.16859">
        <ele>1303.81</ele>
        <time>2025-02-16T01:05:32Z</time>
      </trkpt>
      <trkpt lat="34.01404" lon="-116.16862">
        <ele>1303.24</ele>
        <time>2025-02-16T01:05:36Z</time>
      </trkpt>
      <trkpt lat="34.01405" lon="-116.16866">
        <ele>1302.59</ele>
        <time>2025-02-16T01:05:41Z</time>
      </trkpt>
      <trkpt lat="34.01408" lon="-116.16866">
        <ele>1302.47</ele>
        <time>2025-02-16T01:05:45Z</time>
      </trkpt>
      <trkpt lat="34.01409" lon="-116.16863">
        <ele>1302.8</ele>
        <time>2025-02-16T01:05:49Z</time>
      </trkpt>
      <trkpt lat="34.0141" lon="-116.1686">
        <ele>1303.12</ele>
        <time>2025-02-16T01:05:53Z</time>
      </trkpt>
      <trkpt lat="34.01412" lon="-116.16856">
        <ele>1303.55</ele>
        <time>2025-02-16T01:05:57Z</time>
      </trkpt>
      <trkpt lat="34.01415" lon="-116.16855">
        <ele>1303.66</ele>
        <time>2025-02-16T01:06:00Z</time>
      </trkpt>
      <trkpt lat="34.01418" lon="-116.16855">
        <ele>1303.61</ele>
        <time>2025-02-16T01:06:03Z</time>
      </trkpt>
      <trkpt lat="34.01422" lon="-116.16855">
        <ele>1303.46</ele>
        <time>2025-02-16T01:06:06Z</time>
      </trkpt>
      <trkpt lat="34.01425" lon="-116.16854">
        <ele>1303.56</ele>
        <time>2025-02-16T01:06:09Z</time>
      </trkpt>
      <trkpt lat="34.01428" lon="-116.16856">
        <ele>1302.86</ele>
        <time>2025-02-16T01:06:12Z</time>
      </trkpt>
      <trkpt lat="34.01431" lon="-116.16858">
        <ele>1302.3</ele>
        <time>2025-02-16T01:06:15Z</time>
      </trkpt>
      <trkpt lat="34.01434" lon="-116.16858">
        <ele>1302.09</ele>
        <time>2025-02-16T01:06:18Z</time>
      </trkpt>
      <trkpt lat="34.01437" lon="-116.16858">
        <ele>1302.46</ele>
        <time>2025-02-16T01:06:21Z</time>
      </trkpt>
      <trkpt lat="34.01441" lon="-116.16857">
        <ele>1303.53</ele>
        <time>2025-02-16T01:06:25Z</time>
      </trkpt>
      <trkpt lat="34.01443" lon="-116.16856">
        <ele>1304.15</ele>
        <time>2025-02-16T01:06:28Z</time>
      </trkpt>
      <trkpt lat="34.01446" lon="-116.16858">
        <ele>1304.34</ele>
        <time>2025-02-16T01:06:32Z</time>
      </trkpt>
      <trkpt lat="34.01448" lon="-116.16861">
        <ele>1304.01</ele>
        <time>2025-02-16T01:06:35Z</time>
      </trkpt>
      <trkpt lat="34.01451" lon="-116.16864">
        <ele>1303.28</ele>
        <time>2025-02-16T01:06:39Z</time>
      </trkpt>
      <trkpt lat="34.01453" lon="-116.16866">
        <ele>1302.9</ele>
        <time>2025-02-16T01:06:42Z</time>
      </trkpt>
      <trkpt lat="34.01454" lon="-116.16869">
        <ele>1302.3</ele>
        <time>2025-02-16T01:06:45Z</time>
      </trkpt>
      <trkpt lat="34.01456" lon="-116.16872">
        <ele>1301.74</ele>
        <time>2025-02-16T01:06:48Z</time>
      </trkpt>
      <trkpt lat="34.01459" lon="-116.16875">
        <ele>1300.93</ele>
        <time>2025-02-16T01:06:52Z</time>
      </trkpt>
      <trkpt lat="34.0146" lon="-116.16879">
        <ele>1299.8</ele>
        <time>2025-02-16T01:06:56Z</time>
      </trkpt>
      <trkpt lat="34.01461" lon="-116.16882">
        <ele>1298.35</ele>
        <time>2025-02-16T01:07:00Z</time>
      </trkpt>
      <trkpt lat="34.01461" lon="-116.16886">
        <ele>1296.53</ele>
        <time>2025-02-16T01:07:04Z</time>
      </trkpt>
      <trkpt lat="34.0146" lon="-116.16889">
        <ele>1295.3</ele>
        <time>2025-02-16T01:07:12Z</time>
      </trkpt>
      <trkpt lat="34.01462" lon="-116.16892">
        <ele>1294.43</ele>
        <time>2025-02-16T01:07:30Z</time>
      </trkpt>
      <trkpt lat="34.01464" lon="-116.16894">
        <ele>1294.28</ele>
        <time>2025-02-16T01:07:34Z</time>
      </trkpt>
      <trkpt lat="34.01465" lon="-116.16897">
        <ele>1293.94</ele>
        <time>2025-02-16T01:07:38Z</time>
      </trkpt>
      <trkpt lat="34.01466" lon="-116.169">
        <ele>1293.65</ele>
        <time>2025-02-16T01:07:51Z</time>
      </trkpt>
      <trkpt lat="34.01468" lon="-116.16903">
        <ele>1293.54</ele>
        <time>2025-02-16T01:07:55Z</time>
      </trkpt>
      <trkpt lat="34.01467" lon="-116.16907">
        <ele>1292.52</ele>
        <time>2025-02-16T01:07:59Z</time>
      </trkpt>
      <trkpt lat="34.01467" lon="-116.1691">
        <ele>1292.47</ele>
        <time>2025-02-16T01:08:12Z</time>
      </trkpt>
      <trkpt lat="34.01469" lon="-116.16913">
        <ele>1292.47</ele>
        <time>2025-02-16T01:08:16Z</time>
      </trkpt>
      <trkpt lat="34.01471" lon="-116.16916">
        <ele>1292.18</ele>
        <time>2025-02-16T01:08:20Z</time>
      </trkpt>
      <trkpt lat="34.01473" lon="-116.16919">
        <ele>1292.06</ele>
        <time>2025-02-16T01:08:24Z</time>
      </trkpt>
      <trkpt lat="34.01475" lon="-116.16922">
        <ele>1292.13</ele>
        <time>2025-02-16T01:08:27Z</time>
      </trkpt>
      <trkpt lat="34.01476" lon="-116.16925">
        <ele>1292.04</ele>
        <time>2025-02-16T01:08:30Z</time>
      </trkpt>
      <trkpt lat="34.01479" lon="-116.16927">
        <ele>1291.88</ele>
        <time>2025-02-16T01:08:33Z</time>
      </trkpt>
      <trkpt lat="34.0148" lon="-116.1693">
        <ele>1291.56</ele>
        <time>2025-02-16T01:08:36Z</time>
      </trkpt>
      <trkpt lat="34.0148" lon="-116.16933">
        <ele>1291.24</ele>
        <time>2025-02-16T01:08:39Z</time>
      </trkpt>
      <trkpt lat="34.01479" lon="-116.16937">
        <ele>1290.86</ele>
        <time>2025-02-16T01:08:42Z</time>
      </trkpt>
      <trkpt lat="34.01481" lon="-116.16941">
        <ele>1290.4</ele>
        <time>2025-02-16T01:08:46Z</time>
      </trkpt>
      <trkpt lat="34.01483" lon="-116.16941">
        <ele>1290.7</ele>
        <time>2025-02-16T01:09:03Z</time>
      </trkpt>
      <trkpt lat="34.01485" lon="-116.16944">
        <ele>1290.81</ele>
        <time>2025-02-16T01:09:43Z</time>
      </trkpt>
      <trkpt lat="34.01487" lon="-116.16948">
        <ele>1290.96</ele>
        <time>2025-02-16T01:09:47Z</time>
      </trkpt>
      <trkpt lat="34.01488" lon="-116.16952">
        <ele>1290.83</ele>
        <time>2025-02-16T01:09:57Z</time>
      </trkpt>
      <trkpt lat="34.01491" lon="-116.16954">
        <ele>1290.97</ele>
        <time>2025-02-16T01:10:01Z</time>
      </trkpt>
      <trkpt lat="34.01494" lon="-116.16956">
        <ele>1290.66</ele>
        <time>2025-02-16T01:10:04Z</time>
      </trkpt>
      <trkpt lat="34.01495" lon="-116.1696">
        <ele>1290.01</ele>
        <time>2025-02-16T01:10:08Z</time>
      </trkpt>
      <trkpt lat="34.01496" lon="-116.16963">
        <ele>1289.42</ele>
        <time>2025-02-16T01:10:11Z</time>
      </trkpt>
      <trkpt lat="34.01499" lon="-116.16964">
        <ele>1288.88</ele>
        <time>2025-02-16T01:10:16Z</time>
      </trkpt>
      <trkpt lat="34.01502" lon="-116.16965">
        <ele>1288.78</ele>
        <time>2025-02-16T01:10:19Z</time>
      </trkpt>
      <trkpt lat="34.01505" lon="-116.16967">
        <ele>1288.67</ele>
        <time>2025-02-16T01:10:23Z</time>
      </trkpt>
      <trkpt lat="34.01508" lon="-116.16969">
        <ele>1288.56</ele>
        <time>2025-02-16T01:10:26Z</time>
      </trkpt>
      <trkpt lat="34.0151" lon="-116.16972">
        <ele>1288.05</ele>
        <time>2025-02-16T01:10:29Z</time>
      </trkpt>
      <trkpt lat="34.01511" lon="-116.16975">
        <ele>1287.46</ele>
        <time>2025-02-16T01:10:32Z</time>
      </trkpt>
      <trkpt lat="34.01512" lon="-116.16978">
        <ele>1286.94</ele>
        <time>2025-02-16T01:10:42Z</time>
      </trkpt>
      <trkpt lat="34.01513" lon="-116.16982">
        <ele>1286.33</ele>
        <time>2025-02-16T01:10:46Z</time>
      </trkpt>
      <trkpt lat="34.01516" lon="-116.16985">
        <ele>1286.07</ele>
        <time>2025-02-16T01:10:50Z</time>
      </trkpt>
      <trkpt lat="34.01518" lon="-116.16988">
        <ele>1285.58</ele>
        <time>2025-02-16T01:10:53Z</time>
      </trkpt>
      <trkpt lat="34.01521" lon="-116.1699">
        <ele>1285.16</ele>
        <time>2025-02-16T01:10:56Z</time>
      </trkpt>
      <trkpt lat="34.01524" lon="-116.16993">
        <ele>1284.37</ele>
        <time>2025-02-16T01:10:59Z</time>
      </trkpt>
      <trkpt lat="34.01526" lon="-116.16996">
        <ele>1283.41</ele>
        <time>2025-02-16T01:11:02Z</time>
      </trkpt>
      <trkpt lat="34.01528" lon="-116.16999">
        <ele>1282.35</ele>
        <time>2025-02-16T01:11:05Z</time>
      </trkpt>
      <trkpt lat="34.0153" lon="-116.17002">
        <ele>1281.97</ele>
        <time>2025-02-16T01:11:08Z</time>
      </trkpt>
      <trkpt lat="34.01531" lon="-116.17006">
        <ele>1281.47</ele>
        <time>2025-02-16T01:11:11Z</time>
      </trkpt>
      <trkpt lat="34.01532" lon="-116.17011">
        <ele>1281.0</ele>
        <time>2025-02-16T01:11:14Z</time>
      </trkpt>
      <trkpt lat="34.01532" lon="-116.17015">
        <ele>1281.0</ele>
        <time>2025-02-16T01:11:17Z</time>
      </trkpt>
      <trkpt lat="34.01533" lon="-116.17019">
        <ele>1281.0</ele>
        <time>2025-02-16T01:11:20Z</time>
      </trkpt>
      <trkpt lat="34.01535" lon="-116.17023">
        <ele>1281.0</ele>
        <time>2025-02-16T01:11:23Z</time>
      </trkpt>
      <trkpt lat="34.01536" lon="-116.17026">
        <ele>1281.0</ele>
        <time>2025-02-16T01:11:26Z</time>
      </trkpt>
      <trkpt lat="34.01538" lon="-116.17029">
        <ele>1281.19</ele>
        <time>2025-02-16T01:11:29Z</time>
      </trkpt>
      <trkpt lat="34.01539" lon="-116.17032">
        <ele>1281.33</ele>
        <time>2025-02-16T01:11:32Z</time>
      </trkpt>
      <trkpt lat="34.01539" lon="-116.17036">
        <ele>1281.24</ele>
        <time>2025-02-16T01:11:35Z</time>
      </trkpt>
      <trkpt lat="34.01539" lon="-116.1704">
        <ele>1280.89</ele>
        <time>2025-02-16T01:11:47Z</time>
      </trkpt>
      <trkpt lat="34.0154" lon="-116.17044">
        <ele>1280.57</ele>
        <time>2025-02-16T01:11:50Z</time>
      </trkpt>
      <trkpt lat="34.01541" lon="-116.17048">
        <ele>1280.35</ele>
        <time>2025-02-16T01:11:53Z</time>
      </trkpt>
      <trkpt lat="34.01543" lon="-116.17051">
        <ele>1280.32</ele>
        <time>2025-02-16T01:11:56Z</time>
      </trkpt>
      <trkpt lat="34.01546" lon="-116.17055">
        <ele>1280.06</ele>
        <time>2025-02-16T01:11:59Z</time>
      </trkpt>
      <trkpt lat="34.01547" lon="-116.17059">
        <ele>1279.63</ele>
        <time>2025-02-16T01:12:02Z</time>
      </trkpt>
      <trkpt lat="34.01548" lon="-116.17063">
        <ele>1279.2</ele>
        <time>2025-02-16T01:12:05Z</time>
      </trkpt>
      <trkpt lat="34.01547" lon="-116.17066">
        <ele>1278.99</ele>
        <time>2025-02-16T01:12:08Z</time>
      </trkpt>
      <trkpt lat="34.01547" lon="-116.1707">
        <ele>1278.96</ele>
        <time>2025-02-16T01:12:18Z</time>
      </trkpt>
      <trkpt lat="34.01546" lon="-116.17075">
        <ele>1279.0</ele>
        <time>2025-02-16T01:12:21Z</time>
      </trkpt>
      <trkpt lat="34.01545" lon="-116.17078">
        <ele>1278.94</ele>
        <time>2025-02-16T01:12:24Z</time>
      </trkpt>
      <trkpt lat="34.01545" lon="-116.17082">
        <ele>1278.88</ele>
        <time>2025-02-16T01:12:27Z</time>
      </trkpt>
      <trkpt lat="34.01545" lon="-116.17086">
        <ele>1278.61</ele>
        <time>2025-02-16T01:12:30Z</time>
      </trkpt>
      <trkpt lat="34.01546" lon="-116.1709">
        <ele>1278.27</ele>
        <time>2025-02-16T01:12:33Z</time>
      </trkpt>
      <trkpt lat="34.01547" lon="-116.17094">
        <ele>1277.92</ele>
        <time>2025-02-16T01:12:36Z</time>
      </trkpt>
      <trkpt lat="34.01547" lon="-116.17097">
        <ele>1277.92</ele>
        <time>2025-02-16T01:12:59Z</time>
      </trkpt>
      <trkpt lat="34.01547" lon="-116.17101">
        <ele>1277.92</ele>
        <time>2025-02-16T01:13:02Z</time>
      </trkpt>
      <trkpt lat="34.01547" lon="-116.17105">
        <ele>1277.92</ele>
        <time>2025-02-16T01:13:05Z</time>
      </trkpt>
      <trkpt lat="34.01548" lon="-116.17109">
        <ele>1277.82</ele>
        <time>2025-02-16T01:13:08Z</time>
      </trkpt>
      <trkpt lat="34.01549" lon="-116.17112">
        <ele>1277.71</ele>
        <time>2025-02-16T01:13:11Z</time>
      </trkpt>
      <trkpt lat="34.01551" lon="-116.17115">
        <ele>1277.49</ele>
        <time>2025-02-16T01:13:14Z</time>
      </trkpt>
      <trkpt lat="34.01553" lon="-116.17118">
        <ele>1277.28</ele>
        <time>2025-02-16T01:13:17Z</time>
      </trkpt>
      <trkpt lat="34.01555" lon="-116.17121">
        <ele>1277.06</ele>
        <time>2025-02-16T01:13:20Z</time>
      </trkpt>
      <trkpt lat="34.01556" lon="-116.17125">
        <ele>1276.95</ele>
        <time>2025-02-16T01:13:23Z</time>
      </trkpt>
      <trkpt lat="34.01558" lon="-116.17129">
        <ele>1276.74</ele>
        <time>2025-02-16T01:13:26Z</time>
      </trkpt>
      <trkpt lat="34.01559" lon="-116.17133">
        <ele>1276.63</ele>
        <time>2025-02-16T01:13:29Z</time>
      </trkpt>
      <trkpt lat="34.01561" lon="-116.17137">
        <ele>1276.41</ele>
        <time>2025-02-16T01:13:32Z</time>
      </trkpt>
      <trkpt lat="34.01562" lon="-116.17141">
        <ele>1276.46</ele>
        <time>2025-02-16T01:13:35Z</time>
      </trkpt>
      <trkpt lat="34.01563" lon="-116.17145">
        <ele>1276.73</ele>
        <time>2025-02-16T01:13:38Z</time>
      </trkpt>
      <trkpt lat="34.01565" lon="-116.17148">
        <ele>1276.96</ele>
        <time>2025-02-16T01:13:41Z</time>
      </trkpt>
      <trkpt lat="34.01567" lon="-116.17151">
        <ele>1276.76</ele>
        <time>2025-02-16T01:13:44Z</time>
      </trkpt>
      <trkpt lat="34.01569" lon="-116.17153">
        <ele>1276.55</ele>
        <time>2025-02-16T01:13:52Z</time>
      </trkpt>
      <trkpt lat="34.01571" lon="-116.17156">
        <ele>1276.33</ele>
        <time>2025-02-16T01:13:56Z</time>
      </trkpt>
      <trkpt lat="34.01572" lon="-116.1716">
        <ele>1276.22</ele>
        <time>2025-02-16T01:13:59Z</time>
      </trkpt>
      <trkpt lat="34.01574" lon="-116.17163">
        <ele>1276.01</ele>
        <time>2025-02-16T01:14:02Z</time>
      </trkpt>
      <trkpt lat="34.01576" lon="-116.17167">
        <ele>1276.0</ele>
        <time>2025-02-16T01:14:05Z</time>
      </trkpt>
      <trkpt lat="34.01578" lon="-116.17171">
        <ele>1276.0</ele>
        <time>2025-02-16T01:14:08Z</time>
      </trkpt>
      <trkpt lat="34.01579" lon="-116.17175">
        <ele>1276.0</ele>
        <time>2025-02-16T01:14:11Z</time>
      </trkpt>
      <trkpt lat="34.01582" lon="-116.17178">
        <ele>1276.0</ele>
        <time>2025-02-16T01:14:14Z</time>
      </trkpt>
      <trkpt lat="34.01584" lon="-116.1718">
        <ele>1276.0</ele>
        <time>2025-02-16T01:14:16Z</time>
      </trkpt>
      <trkpt lat="34.01587" lon="-116.17183">
        <ele>1276.0</ele>
        <time>2025-02-16T01:14:19Z</time>
      </trkpt>
      <trkpt lat="34.0159" lon="-116.17185">
        <ele>1276.0</ele>
        <time>2025-02-16T01:14:21Z</time>
      </trkpt>
      <trkpt lat="34.01592" lon="-116.17189">
        <ele>1276.0</ele>
        <time>2025-02-16T01:14:24Z</time>
      </trkpt>
      <trkpt lat="34.01595" lon="-116.17192">
        <ele>1276.0</ele>
        <time>2025-02-16T01:14:27Z</time>
      </trkpt>
      <trkpt lat="34.01596" lon="-116.17195">
        <ele>1276.0</ele>
        <time>2025-02-16T01:14:29Z</time>
      </trkpt>
      <trkpt lat="34.01599" lon="-116.17197">
        <ele>1276.0</ele>
        <time>2025-02-16T01:14:31Z</time>
      </trkpt>
      <trkpt lat="34.01601" lon="-116.17201">
        <ele>1276.0</ele>
        <time>2025-02-16T01:14:34Z</time>
      </trkpt>
      <trkpt lat="34.01603" lon="-116.17204">
        <ele>1276.12</ele>
        <time>2025-02-16T01:14:37Z</time>
      </trkpt>
      <trkpt lat="34.01605" lon="-116.17207">
        <ele>1276.22</ele>
        <time>2025-02-16T01:14:39Z</time>
      </trkpt>
      <trkpt lat="34.01607" lon="-116.17209">
        <ele>1276.24</ele>
        <time>2025-02-16T01:14:41Z</time>
      </trkpt>
      <trkpt lat="34.01609" lon="-116.17212">
        <ele>1276.08</ele>
        <time>2025-02-16T01:14:44Z</time>
      </trkpt>
      <trkpt lat="34.01611" lon="-116.17215">
        <ele>1276.0</ele>
        <time>2025-02-16T01:14:47Z</time>
      </trkpt>
      <trkpt lat="34.01614" lon="-116.17218">
        <ele>1276.14</ele>
        <time>2025-02-16T01:14:50Z</time>
      </trkpt>
      <trkpt lat="34.01616" lon="-116.17221">
        <ele>1276.07</ele>
        <time>2025-02-16T01:14:53Z</time>
      </trkpt>
      <trkpt lat="34.01618" lon="-116.17226">
        <ele>1276.0</ele>
        <time>2025-02-16T01:14:56Z</time>
      </trkpt>
      <trkpt lat="34.01619" lon="-116.17229">
        <ele>1276.0</ele>
        <time>2025-02-16T01:14:59Z</time>
      </trkpt>
      <trkpt lat="34.01622" lon="-116.17233">
        <ele>1276.49</ele>
        <time>2025-02-16T01:15:02Z</time>
      </trkpt>
      <trkpt lat="34.01622" lon="-116.17237">
        <ele>1276.84</ele>
        <time>2025-02-16T01:15:05Z</time>
      </trkpt>
      <trkpt lat="34.01621" lon="-116.17241">
        <ele>1277.04</ele>
        <time>2025-02-16T01:15:08Z</time>
      </trkpt>
      <trkpt lat="34.0162" lon="-116.17244">
        <ele>1276.62</ele>
        <time>2025-02-16T01:15:11Z</time>
      </trkpt>
      <trkpt lat="34.01617" lon="-116.17246">
        <ele>1276.27</ele>
        <time>2025-02-16T01:15:14Z</time>
      </trkpt>
      <trkpt lat="34.01614" lon="-116.17246">
        <ele>1276.13</ele>
        <time>2025-02-16T01:15:17Z</time>
      </trkpt>
      <trkpt lat="34.0161" lon="-116.17244">
        <ele>1276.0</ele>
        <time>2025-02-16T01:15:20Z</time>
      </trkpt>
      <trkpt lat="34.01607" lon="-116.17243">
        <ele>1276.0</ele>
        <time>2025-02-16T01:15:22Z</time>
      </trkpt>
      <trkpt lat="34.01605" lon="-116.17242">
        <ele>1276.0</ele>
        <time>2025-02-16T01:15:24Z</time>
      </trkpt>
      <trkpt lat="34.01601" lon="-116.17241">
        <ele>1276.0</ele>
        <time>2025-02-16T01:15:27Z</time>
      </trkpt>
      <trkpt lat="34.01597" lon="-116.1724">
        <ele>1276.0</ele>
        <time>2025-02-16T01:15:30Z</time>
      </trkpt>
      <trkpt lat="34.01594" lon="-116.17239">
        <ele>1276.0</ele>
        <time>2025-02-16T01:15:33Z</time>
      </trkpt>
      <trkpt lat="34.01592" lon="-116.17236">
        <ele>1276.0</ele>
        <time>2025-02-16T01:15:36Z</time>
      </trkpt>
      <trkpt lat="34.01589" lon="-116.17235">
        <ele>1276.0</ele>
        <time>2025-02-16T01:15:39Z</time>
      </trkpt>
      <trkpt lat="34.01586" lon="-116.17234">
        <ele>1276.0</ele>
        <time>2025-02-16T01:15:42Z</time>
      </trkpt>
      <trkpt lat="34.01582" lon="-116.17236">
        <ele>1276.0</ele>
        <time>2025-02-16T01:15:46Z</time>
      </trkpt>
      <trkpt lat="34.0158" lon="-116.17238">
        <ele>1276.0</ele>
        <time>2025-02-16T01:15:49Z</time>
      </trkpt>
      <trkpt lat="34.01577" lon="-116.1724">
        <ele>1276.0</ele>
        <time>2025-02-16T01:15:53Z</time>
      </trkpt>
      <trkpt lat="34.01575" lon="-116.17243">
        <ele>1276.24</ele>
        <time>2025-02-16T01:15:56Z</time>
      </trkpt>
      <trkpt lat="34.01572" lon="-116.17245">
        <ele>1276.36</ele>
        <time>2025-02-16T01:15:59Z</time>
      </trkpt>
      <trkpt lat="34.01569" lon="-116.17247">
        <ele>1276.31</ele>
        <time>2025-02-16T01:16:02Z</time>
      </trkpt>
      <trkpt lat="34.01566" lon="-116.17249">
        <ele>1276.11</ele>
        <time>2025-02-16T01:16:05Z</time>
      </trkpt>
      <trkpt lat="34.01563" lon="-116.17252">
        <ele>1276.0</ele>
        <time>2025-02-16T01:16:08Z</time>
      </trkpt>
      <trkpt lat="34.01561" lon="-116.17255">
        <ele>1276.0</ele>
        <time>2025-02-16T01:16:11Z</time>
      </trkpt>
      <trkpt lat="34.01559" lon="-116.17258">
        <ele>1276.0</ele>
        <time>2025-02-16T01:16:14Z</time>
      </trkpt>
      <trkpt lat="34.01556" lon="-116.1726">
        <ele>1276.08</ele>
        <time>2025-02-16T01:16:17Z</time>
      </trkpt>
      <trkpt lat="34.01553" lon="-116.17262">
        <ele>1276.49</ele>
        <time>2025-02-16T01:16:20Z</time>
      </trkpt>
      <trkpt lat="34.0155" lon="-116.17261">
        <ele>1276.68</ele>
        <time>2025-02-16T01:16:24Z</time>
      </trkpt>
      <trkpt lat="34.01547" lon="-116.17261">
        <ele>1276.94</ele>
        <time>2025-02-16T01:16:28Z</time>
      </trkpt>
      <trkpt lat="34.01548" lon="-116.17264">
        <ele>1276.91</ele>
        <time>2025-02-16T01:16:39Z</time>
      </trkpt>
      <trkpt lat="34.01549" lon="-116.17269">
        <ele>1277.07</ele>
        <time>2025-02-16T01:16:42Z</time>
      </trkpt>
      <trkpt lat="34.01548" lon="-116.17272">
        <ele>1277.61</ele>
        <time>2025-02-16T01:16:45Z</time>
      </trkpt>
      <trkpt lat="34.01548" lon="-116.17276">
        <ele>1278.32</ele>
        <time>2025-02-16T01:16:48Z</time>
      </trkpt>
      <trkpt lat="34.01547" lon="-116.17281">
        <ele>1278.87</ele>
        <time>2025-02-16T01:16:51Z</time>
      </trkpt>
      <trkpt lat="34.01547" lon="-116.17285">
        <ele>1278.91</ele>
        <time>2025-02-16T01:16:53Z</time>
      </trkpt>
      <trkpt lat="34.01545" lon="-116.17289">
        <ele>1278.86</ele>
        <time>2025-02-16T01:16:56Z</time>
      </trkpt>
      <trkpt lat="34.01544" lon="-116.17293">
        <ele>1278.75</ele>
        <time>2025-02-16T01:16:59Z</time>
      </trkpt>
      <trkpt lat="34.01541" lon="-116.17296">
        <ele>1278.43</ele>
        <time>2025-02-16T01:17:02Z</time>
      </trkpt>
      <trkpt lat="34.01539" lon="-116.17299">
        <ele>1278.15</ele>
        <time>2025-02-16T01:17:05Z</time>
      </trkpt>
      <trkpt lat="34.01536" lon="-116.17303">
        <ele>1278.11</ele>
        <time>2025-02-16T01:17:08Z</time>
      </trkpt>
      <trkpt lat="34.01535" lon="-116.17306">
        <ele>1278.25</ele>
        <time>2025-02-16T01:17:10Z</time>
      </trkpt>
      <trkpt lat="34.01534" lon="-116.1731">
        <ele>1278.49</ele>
        <time>2025-02-16T01:17:13Z</time>
      </trkpt>
      <trkpt lat="34.01532" lon="-116.17314">
        <ele>1278.46</ele>
        <time>2025-02-16T01:17:16Z</time>
      </trkpt>
      <trkpt lat="34.01531" lon="-116.17318">
        <ele>1278.23</ele>
        <time>2025-02-16T01:17:19Z</time>
      </trkpt>
      <trkpt lat="34.01529" lon="-116.17322">
        <ele>1278.03</ele>
        <time>2025-02-16T01:17:22Z</time>
      </trkpt>
      <trkpt lat="34.01527" lon="-116.17325">
        <ele>1278.18</ele>
        <time>2025-02-16T01:17:25Z</time>
      </trkpt>
      <trkpt lat="34.01525" lon="-116.17328">
        <ele>1278.72</ele>
        <time>2025-02-16T01:17:39Z</time>
      </trkpt>
      <trkpt lat="34.01524" lon="-116.17332">
        <ele>1279.26</ele>
        <time>2025-02-16T01:17:43Z</time>
      </trkpt>
      <trkpt lat="34.01523" lon="-116.17337">
        <ele>1279.52</ele>
        <time>2025-02-16T01:17:46Z</time>
      </trkpt>
      <trkpt lat="34.01523" lon="-116.17341">
        <ele>1279.52</ele>
        <time>2025-02-16T01:17:49Z</time>
      </trkpt>
      <trkpt lat="34.01522" lon="-116.17345">
        <ele>1279.62</ele>
        <time>2025-02-16T01:17:52Z</time>
      </trkpt>
      <trkpt lat="34.01521" lon="-116.17349">
        <ele>1279.73</ele>
        <time>2025-02-16T01:17:55Z</time>
      </trkpt>
      <trkpt lat="34.0152" lon="-116.17353">
        <ele>1279.86</ele>
        <time>2025-02-16T01:17:58Z</time>
      </trkpt>
      <trkpt lat="34.01518" lon="-116.17357">
        <ele>1280.06</ele>
        <time>2025-02-16T01:18:01Z</time>
      </trkpt>
      <trkpt lat="34.01515" lon="-116.1736">
        <ele>1280.38</ele>
        <time>2025-02-16T01:18:04Z</time>
      </trkpt>
      <trkpt lat="34.01512" lon="-116.17363">
        <ele>1280.7</ele>
        <time>2025-02-16T01:18:07Z</time>
      </trkpt>
      <trkpt lat="34.01509" lon="-116.17365">
        <ele>1281.0</ele>
        <time>2025-02-16T01:18:10Z</time>
      </trkpt>
      <trkpt lat="34.01506" lon="-116.17369">
        <ele>1281.0</ele>
        <time>2025-02-16T01:18:13Z</time>
      </trkpt>
      <trkpt lat="34.01504" lon="-116.17371">
        <ele>1281.0</ele>
        <time>2025-02-16T01:18:16Z</time>
      </trkpt>
      <trkpt lat="34.015" lon="-116.17372">
        <ele>1281.0</ele>
        <time>2025-02-16T01:18:19Z</time>
      </trkpt>
      <trkpt lat="34.01498" lon="-116.17371">
        <ele>1281.0</ele>
        <time>2025-02-16T01:18:22Z</time>
      </trkpt>
      <trkpt lat="34.01495" lon="-116.17369">
        <ele>1281.0</ele>
        <time>2025-02-16T01:18:26Z</time>
      </trkpt>
      <trkpt lat="34.01492" lon="-116.17369">
        <ele>1281.0</ele>
        <time>2025-02-16T01:18:29Z</time>
      </trkpt>
      <trkpt lat="34.01489" lon="-116.1737">
        <ele>1281.01</ele>
        <time>2025-02-16T01:18:32Z</time>
      </trkpt>
      <trkpt lat="34.01486" lon="-116.17369">
        <ele>1281.08</ele>
        <time>2025-02-16T01:18:36Z</time>
      </trkpt>
      <trkpt lat="34.01483" lon="-116.17369">
        <ele>1281.12</ele>
        <time>2025-02-16T01:18:40Z</time>
      </trkpt>
      <trkpt lat="34.01481" lon="-116.17372">
        <ele>1281.05</ele>
        <time>2025-02-16T01:18:43Z</time>
      </trkpt>
      <trkpt lat="34.01478" lon="-116.17374">
        <ele>1281.38</ele>
        <time>2025-02-16T01:18:46Z</time>
      </trkpt>
      <trkpt lat="34.01475" lon="-116.17377">
        <ele>1281.7</ele>
        <time>2025-02-16T01:18:49Z</time>
      </trkpt>
      <trkpt lat="34.01472" lon="-116.17378">
        <ele>1282.05</ele>
        <time>2025-02-16T01:18:52Z</time>
      </trkpt>
      <trkpt lat="34.01469" lon="-116.17379">
        <ele>1282.7</ele>
        <time>2025-02-16T01:18:55Z</time>
      </trkpt>
      <trkpt lat="34.01466" lon="-116.17381">
        <ele>1283.39</ele>
        <time>2025-02-16T01:19:00Z</time>
      </trkpt>
      <trkpt lat="34.01464" lon="-116.17379">
        <ele>1283.78</ele>
        <time>2025-02-16T01:19:22Z</time>
      </trkpt>
      <trkpt lat="34.01464" lon="-116.17376">
        <ele>1283.78</ele>
        <time>2025-02-16T01:19:51Z</time>
      </trkpt>
      <trkpt lat="34.01464" lon="-116.17381">
        <ele>1283.79</ele>
        <time>2025-02-16T01:20:28Z</time>
      </trkpt>
      <trkpt lat="34.01466" lon="-116.17377">
        <ele>1283.34</ele>
        <time>2025-02-16T01:30:53Z</time>
      </trkpt>
      <trkpt lat="34.01466" lon="-116.17383">
        <ele>1283.46</ele>
        <time>2025-02-16T01:38:42Z</time>
      </trkpt>
      <trkpt lat="34.01464" lon="-116.1738">
        <ele>1283.78</ele>
        <time>2025-02-16T01:39:23Z</time>
      </trkpt>
      <trkpt lat="34.01462" lon="-116.17376">
        <ele>1284.25</ele>
        <time>2025-02-16T01:39:27Z</time>
      </trkpt>
      <trkpt lat="34.0146" lon="-116.17373">
        <ele>1284.87</ele>
        <time>2025-02-16T01:39:30Z</time>
      </trkpt>
      <trkpt lat="34.01457" lon="-116.17371">
        <ele>1285.89</ele>
        <time>2025-02-16T01:39:33Z</time>
      </trkpt>
      <trkpt lat="34.01455" lon="-116.17368">
        <ele>1286.62</ele>
        <time>2025-02-16T01:39:36Z</time>
      </trkpt>
      <trkpt lat="34.01454" lon="-116.17364">
        <ele>1286.93</ele>
        <time>2025-02-16T01:39:39Z</time>
      </trkpt>
      <trkpt lat="34.01455" lon="-116.1736">
        <ele>1286.72</ele>
        <time>2025-02-16T01:39:41Z</time>
      </trkpt>
      <trkpt lat="34.01455" lon="-116.17357">
        <ele>1286.72</ele>
        <time>2025-02-16T01:39:45Z</time>
      </trkpt>
      <trkpt lat="34.01455" lon="-116.17353">
        <ele>1286.72</ele>
        <time>2025-02-16T01:40:20Z</time>
      </trkpt>
      <trkpt lat="34.01453" lon="-116.17349">
        <ele>1287.23</ele>
        <time>2025-02-16T01:40:23Z</time>
      </trkpt>
      <trkpt lat="34.01453" lon="-116.17344">
        <ele>1287.23</ele>
        <time>2025-02-16T01:40:26Z</time>
      </trkpt>
      <trkpt lat="34.01452" lon="-116.17341">
        <ele>1287.55</ele>
        <time>2025-02-16T01:40:28Z</time>
      </trkpt>
      <trkpt lat="34.01451" lon="-116.17337">
        <ele>1287.88</ele>
        <time>2025-02-16T01:40:31Z</time>
      </trkpt>
      <trkpt lat="34.01448" lon="-116.17335">
        <ele>1288.85</ele>
        <time>2025-02-16T01:40:39Z</time>
      </trkpt>
      <trkpt lat="34.01445" lon="-116.17332">
        <ele>1289.69</ele>
        <time>2025-02-16T01:40:42Z</time>
      </trkpt>
      <trkpt lat="34.01442" lon="-116.1733">
        <ele>1290.17</ele>
        <time>2025-02-16T01:40:45Z</time>
      </trkpt>
      <trkpt lat="34.0144" lon="-116.17327">
        <ele>1290.28</ele>
        <time>2025-02-16T01:40:48Z</time>
      </trkpt>
      <trkpt lat="34.01438" lon="-116.17323">
        <ele>1290.31</ele>
        <time>2025-02-16T01:40:51Z</time>
      </trkpt>
      <trkpt lat="34.01436" lon="-116.1732">
        <ele>1290.42</ele>
        <time>2025-02-16T01:40:54Z</time>
      </trkpt>
      <trkpt lat="34.01434" lon="-116.17318">
        <ele>1290.47</ele>
        <time>2025-02-16T01:40:57Z</time>
      </trkpt>
      <trkpt lat="34.01431" lon="-116.17314">
        <ele>1290.59</ele>
        <time>2025-02-16T01:41:00Z</time>
      </trkpt>
      <trkpt lat="34.01429" lon="-116.17311">
        <ele>1291.22</ele>
        <time>2025-02-16T01:41:02Z</time>
      </trkpt>
      <trkpt lat="34.01427" lon="-116.17308">
        <ele>1291.71</ele>
        <time>2025-02-16T01:41:05Z</time>
      </trkpt>
      <trkpt lat="34.01424" lon="-116.17305">
        <ele>1291.99</ele>
        <time>2025-02-16T01:41:08Z</time>
      </trkpt>
      <trkpt lat="34.01421" lon="-116.17303">
        <ele>1291.85</ele>
        <time>2025-02-16T01:41:11Z</time>
      </trkpt>
      <trkpt lat="34.01417" lon="-116.17302">
        <ele>1291.63</ele>
        <time>2025-02-16T01:41:15Z</time>
      </trkpt>
      <trkpt lat="34.01415" lon="-116.173">
        <ele>1291.29</ele>
        <time>2025-02-16T01:41:18Z</time>
      </trkpt>
      <trkpt lat="34.01415" lon="-116.17295">
        <ele>1290.85</ele>
        <time>2025-02-16T01:41:21Z</time>
      </trkpt>
      <trkpt lat="34.01416" lon="-116.17291">
        <ele>1290.97</ele>
        <time>2025-02-16T01:41:24Z</time>
      </trkpt>
      <trkpt lat="34.01416" lon="-116.17287">
        <ele>1291.0</ele>
        <time>2025-02-16T01:41:27Z</time>
      </trkpt>
      <trkpt lat="34.01416" lon="-116.17284">
        <ele>1291.35</ele>
        <time>2025-02-16T01:41:29Z</time>
      </trkpt>
      <trkpt lat="34.01417" lon="-116.1728">
        <ele>1291.8</ele>
        <time>2025-02-16T01:41:32Z</time>
      </trkpt>
      <trkpt lat="34.01419" lon="-116.17277">
        <ele>1292.31</ele>
        <time>2025-02-16T01:41:36Z</time>
      </trkpt>
      <trkpt lat="34.01423" lon="-116.17275">
        <ele>1292.78</ele>
        <time>2025-02-16T01:41:39Z</time>
      </trkpt>
      <trkpt lat="34.01426" lon="-116.17273">
        <ele>1293.0</ele>
        <time>2025-02-16T01:41:41Z</time>
      </trkpt>
      <trkpt lat="34.01427" lon="-116.1727">
        <ele>1293.02</ele>
        <time>2025-02-16T01:41:43Z</time>
      </trkpt>
      <trkpt lat="34.01427" lon="-116.17266">
        <ele>1293.0</ele>
        <time>2025-02-16T01:41:46Z</time>
      </trkpt>
      <trkpt lat="34.01426" lon="-116.17262">
        <ele>1293.0</ele>
        <time>2025-02-16T01:41:49Z</time>
      </trkpt>
      <trkpt lat="34.01425" lon="-116.17258">
        <ele>1292.89</ele>
        <time>2025-02-16T01:41:52Z</time>
      </trkpt>
      <trkpt lat="34.01423" lon="-116.17255">
        <ele>1292.54</ele>
        <time>2025-02-16T01:41:55Z</time>
      </trkpt>
      <trkpt lat="34.0142" lon="-116.17252">
        <ele>1291.86</ele>
        <time>2025-02-16T01:41:58Z</time>
      </trkpt>
      <trkpt lat="34.01418" lon="-116.17249">
        <ele>1291.24</ele>
        <time>2025-02-16T01:42:00Z</time>
      </trkpt>
      <trkpt lat="34.01416" lon="-116.17246">
        <ele>1291.04</ele>
        <time>2025-02-16T01:42:02Z</time>
      </trkpt>
      <trkpt lat="34.01415" lon="-116.17243">
        <ele>1291.04</ele>
        <time>2025-02-16T01:42:04Z</time>
      </trkpt>
      <trkpt lat="34.01413" lon="-116.17239">
        <ele>1290.81</ele>
        <time>2025-02-16T01:42:07Z</time>
      </trkpt>
      <trkpt lat="34.01411" lon="-116.17237">
        <ele>1290.6</ele>
        <time>2025-02-16T01:42:09Z</time>
      </trkpt>
      <trkpt lat="34.0141" lon="-116.17233">
        <ele>1290.16</ele>
        <time>2025-02-16T01:42:11Z</time>
      </trkpt>
      <trkpt lat="34.01408" lon="-116.1723">
        <ele>1289.84</ele>
        <time>2025-02-16T01:42:13Z</time>
      </trkpt>
      <trkpt lat="34.01407" lon="-116.17226">
        <ele>1289.42</ele>
        <time>2025-02-16T01:42:16Z</time>
      </trkpt>
      <trkpt lat="34.01406" lon="-116.17222">
        <ele>1289.17</ele>
        <time>2025-02-16T01:42:19Z</time>
      </trkpt>
      <trkpt lat="34.01405" lon="-116.17218">
        <ele>1289.6</ele>
        <time>2025-02-16T01:42:22Z</time>
      </trkpt>
      <trkpt lat="34.01403" lon="-116.17214">
        <ele>1289.94</ele>
        <time>2025-02-16T01:42:25Z</time>
      </trkpt>
      <trkpt lat="34.01402" lon="-116.17211">
        <ele>1290.12</ele>
        <time>2025-02-16T01:42:27Z</time>
      </trkpt>
      <trkpt lat="34.014" lon="-116.17208">
        <ele>1290.43</ele>
        <time>2025-02-16T01:42:30Z</time>
      </trkpt>
      <trkpt lat="34.01398" lon="-116.17204">
        <ele>1290.98</ele>
        <time>2025-02-16T01:42:33Z</time>
      </trkpt>
      <trkpt lat="34.01397" lon="-116.172">
        <ele>1291.12</ele>
        <time>2025-02-16T01:42:36Z</time>
      </trkpt>
      <trkpt lat="34.01396" lon="-116.17196">
        <ele>1291.23</ele>
        <time>2025-02-16T01:42:39Z</time>
      </trkpt>
      <trkpt lat="34.01395" lon="-116.17192">
        <ele>1291.43</ele>
        <time>2025-02-16T01:42:41Z</time>
      </trkpt>
      <trkpt lat="34.01395" lon="-116.17189">
        <ele>1291.54</ele>
        <time>2025-02-16T01:42:43Z</time>
      </trkpt>
      <trkpt lat="34.01395" lon="-116.17185">
        <ele>1291.67</ele>
        <time>2025-02-16T01:42:48Z</time>
      </trkpt>
      <trkpt lat="34.01396" lon="-116.17182">
        <ele>1291.38</ele>
        <time>2025-02-16T01:42:52Z</time>
      </trkpt>
      <trkpt lat="34.01396" lon="-116.17178">
        <ele>1291.28</ele>
        <time>2025-02-16T01:42:55Z</time>
      </trkpt>
      <trkpt lat="34.01396" lon="-116.17174">
        <ele>1291.23</ele>
        <time>2025-02-16T01:42:57Z</time>
      </trkpt>
      <trkpt lat="34.01395" lon="-116.1717">
        <ele>1291.34</ele>
        <time>2025-02-16T01:43:00Z</time>
      </trkpt>
      <trkpt lat="34.01394" lon="-116.17166">
        <ele>1291.38</ele>
        <time>2025-02-16T01:43:03Z</time>
      </trkpt>
      <trkpt lat="34.01393" lon="-116.17161">
        <ele>1290.94</ele>
        <time>2025-02-16T01:43:06Z</time>
      </trkpt>
      <trkpt lat="34.01391" lon="-116.17157">
        <ele>1290.77</ele>
        <time>2025-02-16T01:43:09Z</time>
      </trkpt>
      <trkpt lat="34.0139" lon="-116.17154">
        <ele>1290.88</ele>
        <time>2025-02-16T01:43:12Z</time>
      </trkpt>
      <trkpt lat="34.01387" lon="-116.17151">
        <ele>1291.2</ele>
        <time>2025-02-16T01:43:15Z</time>
      </trkpt>
      <trkpt lat="34.01385" lon="-116.17148">
        <ele>1291.4</ele>
        <time>2025-02-16T01:43:18Z</time>
      </trkpt>
      <trkpt lat="34.01383" lon="-116.17144">
        <ele>1291.19</ele>
        <time>2025-02-16T01:43:21Z</time>
      </trkpt>
      <trkpt lat="34.01381" lon="-116.1714">
        <ele>1290.97</ele>
        <time>2025-02-16T01:43:24Z</time>
      </trkpt>
      <trkpt lat="34.01379" lon="-116.17137">
        <ele>1290.99</ele>
        <time>2025-02-16T01:43:27Z</time>
      </trkpt>
      <trkpt lat="34.01378" lon="-116.17133">
        <ele>1290.89</ele>
        <time>2025-02-16T01:43:30Z</time>
      </trkpt>
      <trkpt lat="34.01377" lon="-116.1713">
        <ele>1290.73</ele>
        <time>2025-02-16T01:43:32Z</time>
      </trkpt>
      <trkpt lat="34.01375" lon="-116.17126">
        <ele>1290.89</ele>
        <time>2025-02-16T01:43:35Z</time>
      </trkpt>
      <trkpt lat="34.01374" lon="-116.17122">
        <ele>1291.39</ele>
        <time>2025-02-16T01:43:38Z</time>
      </trkpt>
      <trkpt lat="34.01373" lon="-116.17119">
        <ele>1291.72</ele>
        <time>2025-02-16T01:43:40Z</time>
      </trkpt>
      <trkpt lat="34.01372" lon="-116.17114">
        <ele>1291.82</ele>
        <time>2025-02-16T01:43:43Z</time>
      </trkpt>
      <trkpt lat="34.01371" lon="-116.17111">
        <ele>1291.93</ele>
        <time>2025-02-16T01:43:45Z</time>
      </trkpt>
      <trkpt lat="34.0137" lon="-116.17108">
        <ele>1292.07</ele>
        <time>2025-02-16T01:43:47Z</time>
      </trkpt>
      <trkpt lat="34.01369" lon="-116.17103">
        <ele>1292.17</ele>
        <time>2025-02-16T01:43:50Z</time>
      </trkpt>
      <trkpt lat="34.01367" lon="-116.17099">
        <ele>1292.25</ele>
        <time>2025-02-16T01:43:53Z</time>
      </trkpt>
      <trkpt lat="34.01367" lon="-116.17095">
        <ele>1292.09</ele>
        <time>2025-02-16T01:43:56Z</time>
      </trkpt>
      <trkpt lat="34.01367" lon="-116.17092">
        <ele>1292.0</ele>
        <time>2025-02-16T01:43:58Z</time>
      </trkpt>
      <trkpt lat="34.01367" lon="-116.17089">
        <ele>1292.0</ele>
        <time>2025-02-16T01:44:00Z</time>
      </trkpt>
      <trkpt lat="34.01367" lon="-116.17085">
        <ele>1292.0</ele>
        <time>2025-02-16T01:44:02Z</time>
      </trkpt>
      <trkpt lat="34.01367" lon="-116.17082">
        <ele>1291.91</ele>
        <time>2025-02-16T01:44:04Z</time>
      </trkpt>
      <trkpt lat="34.01367" lon="-116.17078">
        <ele>1291.63</ele>
        <time>2025-02-16T01:44:06Z</time>
      </trkpt>
      <trkpt lat="34.01367" lon="-116.17075">
        <ele>1291.43</ele>
        <time>2025-02-16T01:44:08Z</time>
      </trkpt>
      <trkpt lat="34.01366" lon="-116.17072">
        <ele>1291.37</ele>
        <time>2025-02-16T01:44:10Z</time>
      </trkpt>
      <trkpt lat="34.01366" lon="-116.17067">
        <ele>1291.11</ele>
        <time>2025-02-16T01:44:13Z</time>
      </trkpt>
      <trkpt lat="34.01367" lon="-116.17063">
        <ele>1290.88</ele>
        <time>2025-02-16T01:44:16Z</time>
      </trkpt>
      <trkpt lat="34.01368" lon="-116.17058">
        <ele>1290.45</ele>
        <time>2025-02-16T01:44:19Z</time>
      </trkpt>
      <trkpt lat="34.01368" lon="-116.17054">
        <ele>1290.21</ele>
        <time>2025-02-16T01:44:22Z</time>
      </trkpt>
      <trkpt lat="34.01368" lon="-116.17049">
        <ele>1290.07</ele>
        <time>2025-02-16T01:44:25Z</time>
      </trkpt>
      <trkpt lat="34.01367" lon="-116.17046">
        <ele>1290.0</ele>
        <time>2025-02-16T01:44:27Z</time>
      </trkpt>
      <trkpt lat="34.01367" lon="-116.17043">
        <ele>1290.0</ele>
        <time>2025-02-16T01:44:29Z</time>
      </trkpt>
      <trkpt lat="34.01366" lon="-116.1704">
        <ele>1290.0</ele>
        <time>2025-02-16T01:44:31Z</time>
      </trkpt>
      <trkpt lat="34.01365" lon="-116.17035">
        <ele>1290.0</ele>
        <time>2025-02-16T01:44:34Z</time>
      </trkpt>
      <trkpt lat="34.01365" lon="-116.1703">
        <ele>1290.0</ele>
        <time>2025-02-16T01:44:37Z</time>
      </trkpt>
      <trkpt lat="34.01364" lon="-116.17026">
        <ele>1290.0</ele>
        <time>2025-02-16T01:44:39Z</time>
      </trkpt>
      <trkpt lat="34.01364" lon="-116.17021">
        <ele>1290.0</ele>
        <time>2025-02-16T01:44:42Z</time>
      </trkpt>
      <trkpt lat="34.01362" lon="-116.17017">
        <ele>1290.0</ele>
        <time>2025-02-16T01:44:45Z</time>
      </trkpt>
      <trkpt lat="34.01359" lon="-116.17014">
        <ele>1290.0</ele>
        <time>2025-02-16T01:44:48Z</time>
      </trkpt>
      <trkpt lat="34.01356" lon="-116.17011">
        <ele>1290.0</ele>
        <time>2025-02-16T01:44:51Z</time>
      </trkpt>
      <trkpt lat="34.01353" lon="-116.17009">
        <ele>1290.0</ele>
        <time>2025-02-16T01:44:54Z</time>
      </trkpt>
      <trkpt lat="34.0135" lon="-116.17005">
        <ele>1290.2</ele>
        <time>2025-02-16T01:44:57Z</time>
      </trkpt>
      <trkpt lat="34.01348" lon="-116.17003">
        <ele>1290.42</ele>
        <time>2025-02-16T01:44:59Z</time>
      </trkpt>
      <trkpt lat="34.01346" lon="-116.16999">
        <ele>1290.74</ele>
        <time>2025-02-16T01:45:02Z</time>
      </trkpt>
      <trkpt lat="34.01343" lon="-116.16996">
        <ele>1291.39</ele>
        <time>2025-02-16T01:45:05Z</time>
      </trkpt>
      <trkpt lat="34.0134" lon="-116.16992">
        <ele>1292.14</ele>
        <time>2025-02-16T01:45:08Z</time>
      </trkpt>
      <trkpt lat="34.01338" lon="-116.1699">
        <ele>1292.54</ele>
        <time>2025-02-16T01:45:10Z</time>
      </trkpt>
      <trkpt lat="34.01336" lon="-116.16988">
        <ele>1292.92</ele>
        <time>2025-02-16T01:45:12Z</time>
      </trkpt>
      <trkpt lat="34.01334" lon="-116.16985">
        <ele>1293.5</ele>
        <time>2025-02-16T01:45:14Z</time>
      </trkpt>
      <trkpt lat="34.01332" lon="-116.16982">
        <ele>1293.94</ele>
        <time>2025-02-16T01:45:17Z</time>
      </trkpt>
      <trkpt lat="34.01329" lon="-116.16978">
        <ele>1294.18</ele>
        <time>2025-02-16T01:45:20Z</time>
      </trkpt>
      <trkpt lat="34.01327" lon="-116.16974">
        <ele>1294.55</ele>
        <time>2025-02-16T01:45:23Z</time>
      </trkpt>
      <trkpt lat="34.01324" lon="-116.16971">
        <ele>1295.01</ele>
        <time>2025-02-16T01:45:26Z</time>
      </trkpt>
      <trkpt lat="34.01322" lon="-116.16968">
        <ele>1295.22</ele>
        <time>2025-02-16T01:45:29Z</time>
      </trkpt>
      <trkpt lat="34.01319" lon="-116.16965">
        <ele>1295.55</ele>
        <time>2025-02-16T01:45:32Z</time>
      </trkpt>
      <trkpt lat="34.01316" lon="-116.16963">
        <ele>1295.87</ele>
        <time>2025-02-16T01:45:35Z</time>
      </trkpt>
      <trkpt lat="34.01313" lon="-116.1696">
        <ele>1296.65</ele>
        <time>2025-02-16T01:45:38Z</time>
      </trkpt>
      <trkpt lat="34.01311" lon="-116.16957">
        <ele>1297.2</ele>
        <time>2025-02-16T01:45:41Z</time>
      </trkpt>
      <trkpt lat="34.01309" lon="-116.16953">
        <ele>1297.68</ele>
        <time>2025-02-16T01:45:44Z</time>
      </trkpt>
      <trkpt lat="34.01307" lon="-116.16948">
        <ele>1298.36</ele>
        <time>2025-02-16T01:45:47Z</time>
      </trkpt>
      <trkpt lat="34.01306" lon="-116.16945">
        <ele>1298.85</ele>
        <time>2025-02-16T01:45:49Z</time>
      </trkpt>
      <trkpt lat="34.01306" lon="-116.16941">
        <ele>1298.9</ele>
        <time>2025-02-16T01:45:52Z</time>
      </trkpt>
      <trkpt lat="34.01306" lon="-116.16937">
        <ele>1298.9</ele>
        <time>2025-02-16T01:45:55Z</time>
      </trkpt>
      <trkpt lat="34.01306" lon="-116.16933">
        <ele>1298.9</ele>
        <time>2025-02-16T01:45:58Z</time>
      </trkpt>
      <trkpt lat="34.01306" lon="-116.16929">
        <ele>1298.9</ele>
        <time>2025-02-16T01:46:00Z</time>
      </trkpt>
      <trkpt lat="34.01306" lon="-116.16925">
        <ele>1299.0</ele>
        <time>2025-02-16T01:46:03Z</time>
      </trkpt>
      <trkpt lat="34.01307" lon="-116.16921">
        <ele>1299.22</ele>
        <time>2025-02-16T01:46:06Z</time>
      </trkpt>
      <trkpt lat="34.01309" lon="-116.16918">
        <ele>1299.11</ele>
        <time>2025-02-16T01:46:09Z</time>
      </trkpt>
      <trkpt lat="34.01311" lon="-116.16915">
        <ele>1298.93</ele>
        <time>2025-02-16T01:46:19Z</time>
      </trkpt>
      <trkpt lat="34.01312" lon="-116.1691">
        <ele>1299.11</ele>
        <time>2025-02-16T01:46:22Z</time>
      </trkpt>
      <trkpt lat="34.01312" lon="-116.16906">
        <ele>1299.21</ele>
        <time>2025-02-16T01:46:25Z</time>
      </trkpt>
      <trkpt lat="34.01312" lon="-116.16901">
        <ele>1298.88</ele>
        <time>2025-02-16T01:46:28Z</time>
      </trkpt>
      <trkpt lat="34.0131" lon="-116.16898">
        <ele>1298.5</ele>
        <time>2025-02-16T01:46:30Z</time>
      </trkpt>
      <trkpt lat="34.01308" lon="-116.16896">
        <ele>1298.5</ele>
        <time>2025-02-16T01:46:32Z</time>
      </trkpt>
      <trkpt lat="34.01305" lon="-116.16894">
        <ele>1298.45</ele>
        <time>2025-02-16T01:46:34Z</time>
      </trkpt>
      <trkpt lat="34.01303" lon="-116.16892">
        <ele>1298.57</ele>
        <time>2025-02-16T01:46:36Z</time>
      </trkpt>
      <trkpt lat="34.01301" lon="-116.16889">
        <ele>1298.51</ele>
        <time>2025-02-16T01:46:38Z</time>
      </trkpt>
      <trkpt lat="34.01299" lon="-116.16887">
        <ele>1298.47</ele>
        <time>2025-02-16T01:46:40Z</time>
      </trkpt>
      <trkpt lat="34.01296" lon="-116.16885">
        <ele>1297.94</ele>
        <time>2025-02-16T01:46:43Z</time>
      </trkpt>
      <trkpt lat="34.01292" lon="-116.16884">
        <ele>1297.05</ele>
        <time>2025-02-16T01:46:46Z</time>
      </trkpt>
      <trkpt lat="34.01289" lon="-116.16883">
        <ele>1296.21</ele>
        <time>2025-02-16T01:46:50Z</time>
      </trkpt>
      <trkpt lat="34.01286" lon="-116.16883">
        <ele>1295.7</ele>
        <time>2025-02-16T01:46:53Z</time>
      </trkpt>
      <trkpt lat="34.01283" lon="-116.16884">
        <ele>1295.92</ele>
        <time>2025-02-16T01:46:56Z</time>
      </trkpt>
      <trkpt lat="34.0128" lon="-116.16885">
        <ele>1296.28</ele>
        <time>2025-02-16T01:46:58Z</time>
      </trkpt>
      <trkpt lat="34.01277" lon="-116.16884">
        <ele>1296.01</ele>
        <time>2025-02-16T01:47:00Z</time>
      </trkpt>
      <trkpt lat="34.01273" lon="-116.16882">
        <ele>1295.67</ele>
        <time>2025-02-16T01:47:03Z</time>
      </trkpt>
      <trkpt lat="34.01271" lon="-116.1688">
        <ele>1294.92</ele>
        <time>2025-02-16T01:47:06Z</time>
      </trkpt>
      <trkpt lat="34.01267" lon="-116.16881">
        <ele>1295.93</ele>
        <time>2025-02-16T01:47:09Z</time>
      </trkpt>
      <trkpt lat="34.01264" lon="-116.16881">
        <ele>1296.3</ele>
        <time>2025-02-16T01:47:12Z</time>
      </trkpt>
      <trkpt lat="34.01264" lon="-116.16876">
        <ele>1294.12</ele>
        <time>2025-02-16T01:47:16Z</time>
      </trkpt>
      <trkpt lat="34.01265" lon="-116.16872">
        <ele>1292.59</ele>
        <time>2025-02-16T01:47:19Z</time>
      </trkpt>
      <trkpt lat="34.01265" lon="-116.16869">
        <ele>1291.85</ele>
        <time>2025-02-16T01:47:23Z</time>
      </trkpt>
      <trkpt lat="34.01262" lon="-116.16867">
        <ele>1291.64</ele>
        <time>2025-02-16T01:47:27Z</time>
      </trkpt>
      <trkpt lat="34.01259" lon="-116.16866">
        <ele>1291.57</ele>
        <time>2025-02-16T01:47:30Z</time>
      </trkpt>
      <trkpt lat="34.01257" lon="-116.16863">
        <ele>1291.5</ele>
        <time>2025-02-16T01:47:33Z</time>
      </trkpt>
      <trkpt lat="34.01256" lon="-116.1686">
        <ele>1291.35</ele>
        <time>2025-02-16T01:47:37Z</time>
      </trkpt>
      <trkpt lat="34.01253" lon="-116.16859">
        <ele>1291.68</ele>
        <time>2025-02-16T01:47:40Z</time>
      </trkpt>
      <trkpt lat="34.01252" lon="-116.16855">
        <ele>1291.78</ele>
        <time>2025-02-16T01:47:43Z</time>
      </trkpt>
      <trkpt lat="34.01252" lon="-116.16851">
        <ele>1291.73</ele>
        <time>2025-02-16T01:47:47Z</time>
      </trkpt>
      <trkpt lat="34.01252" lon="-116.16847">
        <ele>1291.49</ele>
        <time>2025-02-16T01:47:50Z</time>
      </trkpt>
      <trkpt lat="34.01252" lon="-116.16843">
        <ele>1291.24</ele>
        <time>2025-02-16T01:47:53Z</time>
      </trkpt>
      <trkpt lat="34.01251" lon="-116.16839">
        <ele>1291.07</ele>
        <time>2025-02-16T01:47:56Z</time>
      </trkpt>
      <trkpt lat="34.01251" lon="-116.16835">
        <ele>1291.02</ele>
        <time>2025-02-16T01:47:59Z</time>
      </trkpt>
      <trkpt lat="34.0125" lon="-116.16831">
        <ele>1291.0</ele>
        <time>2025-02-16T01:48:02Z</time>
      </trkpt>
      <trkpt lat="34.01249" lon="-116.16826">
        <ele>1290.91</ele>
        <time>2025-02-16T01:48:05Z</time>
      </trkpt>
      <trkpt lat="34.01248" lon="-116.16823">
        <ele>1290.69</ele>
        <time>2025-02-16T01:48:08Z</time>
      </trkpt>
      <trkpt lat="34.01247" lon="-116.16819">
        <ele>1290.31</ele>
        <time>2025-02-16T01:48:11Z</time>
      </trkpt>
      <trkpt lat="34.01245" lon="-116.16815">
        <ele>1290.01</ele>
        <time>2025-02-16T01:48:14Z</time>
      </trkpt>
      <trkpt lat="34.01244" lon="-116.16811">
        <ele>1289.73</ele>
        <time>2025-02-16T01:48:17Z</time>
      </trkpt>
      <trkpt lat="34.01242" lon="-116.16808">
        <ele>1289.36</ele>
        <time>2025-02-16T01:48:20Z</time>
      </trkpt>
      <trkpt lat="34.01241" lon="-116.16804">
        <ele>1289.03</ele>
        <time>2025-02-16T01:48:23Z</time>
      </trkpt>
      <trkpt lat="34.01244" lon="-116.16802">
        <ele>1289.35</ele>
        <time>2025-02-16T01:48:31Z</time>
      </trkpt>
      <trkpt lat="34.01246" lon="-116.16799">
        <ele>1289.57</ele>
        <time>2025-02-16T01:48:34Z</time>
      </trkpt>
      <trkpt lat="34.01249" lon="-116.16796">
        <ele>1289.86</ele>
        <time>2025-02-16T01:48:36Z</time>
      </trkpt>
      <trkpt lat="34.01251" lon="-116.16794">
        <ele>1289.86</ele>
        <time>2025-02-16T01:48:38Z</time>
      </trkpt>
      <trkpt lat="34.01254" lon="-116.16792">
        <ele>1289.97</ele>
        <time>2025-02-16T01:48:42Z</time>
      </trkpt>
      <trkpt lat="34.01255" lon="-116.16789">
        <ele>1289.75</ele>
        <time>2025-02-16T01:48:53Z</time>
      </trkpt>
      <trkpt lat="34.01253" lon="-116.16793">
        <ele>1289.97</ele>
        <time>2025-02-16T01:49:27Z</time>
      </trkpt>
      <trkpt lat="34.0125" lon="-116.16795">
        <ele>1289.86</ele>
        <time>2025-02-16T01:49:30Z</time>
      </trkpt>
      <trkpt lat="34.01248" lon="-116.16799">
        <ele>1289.78</ele>
        <time>2025-02-16T01:49:33Z</time>
      </trkpt>
      <trkpt lat="34.01245" lon="-116.16802">
        <ele>1289.46</ele>
        <time>2025-02-16T01:49:36Z</time>
      </trkpt>
      <trkpt lat="34.01242" lon="-116.16804">
        <ele>1289.14</ele>
        <time>2025-02-16T01:49:39Z</time>
      </trkpt>
      <trkpt lat="34.0124" lon="-116.16806">
        <ele>1289.04</ele>
        <time>2025-02-16T01:49:42Z</time>
      </trkpt>
      <trkpt lat="34.01238" lon="-116.16808">
        <ele>1289.19</ele>
        <time>2025-02-16T01:49:53Z</time>
      </trkpt>
      <trkpt lat="34.01235" lon="-116.1681">
        <ele>1289.18</ele>
        <time>2025-02-16T01:49:56Z</time>
      </trkpt>
      <trkpt lat="34.01232" lon="-116.16812">
        <ele>1289.04</ele>
        <time>2025-02-16T01:49:59Z</time>
      </trkpt>
      <trkpt lat="34.01228" lon="-116.16814">
        <ele>1288.97</ele>
        <time>2025-02-16T01:50:02Z</time>
      </trkpt>
      <trkpt lat="34.01225" lon="-116.16814">
        <ele>1288.94</ele>
        <time>2025-02-16T01:50:05Z</time>
      </trkpt>
      <trkpt lat="34.01223" lon="-116.16811">
        <ele>1288.62</ele>
        <time>2025-02-16T01:50:09Z</time>
      </trkpt>
      <trkpt lat="34.01221" lon="-116.16813">
        <ele>1288.67</ele>
        <time>2025-02-16T01:51:24Z</time>
      </trkpt>
      <trkpt lat="34.0122" lon="-116.1681">
        <ele>1288.24</ele>
        <time>2025-02-16T01:53:34Z</time>
      </trkpt>
    </trkseg>
  </trk>
</gpx>
