<gpx xmlns:onx="https://wwww.onxmaps.com/" xmlns="http://www.topografix.com/GPX/1/1" xmlns:xsi="http://www.w3.org/2001/XMLSchema-instance" xsi:schemaLocation="http://www.topografix.com/GPX/1/1 http://www.topografix.com/GPX/1/1/gpx.xsd" version="1.1" creator="onXmaps backcountry web"><metadata/><trk><name>Williwaw Creek Trail</name><desc>name=Williwaw Creek Trail
notes=
id=9f7e438d-aa84-44db-9d6e-e5f5433fc41a
color=rgba(0,255,255,1)
style=dash
weight=4.0</desc><extensions><onx:color>rgba(0,255,255,1)</onx:color><onx:style>dash</onx:style><onx:weight>4.0</onx:weight></extensions><trkseg><trkpt lat="60.787525" lon="-148.878723"><ele>29.683947</ele><time>2026-06-16T23:29:51.041Z</time></trkpt><trkpt lat="60.787537" lon="-148.878784"><ele>28.084787</ele><time>2026-06-16T23:30:04.026Z</time></trkpt><trkpt lat="60.787571" lon="-148.878769"><ele>28.163605</ele><time>2026-06-16T23:30:08.043Z</time></trkpt><trkpt lat="60.787823" lon="-148.878448"><ele>26.516314</ele><time>2026-06-16T23:30:11.043Z</time></trkpt><trkpt lat="60.787853" lon="-148.878281"><ele>25.339827</ele><time>2026-06-16T23:30:11.043Z</time></trkpt><trkpt lat="60.78793" lon="-148.878326"><ele>25.221222</ele><time>2026-06-16T23:30:14.045Z</time></trkpt><trkpt lat="60.787968" lon="-148.878326"><ele>27.268394</ele><time>2026-06-16T23:30:17.050Z</time></trkpt><trkpt lat="60.787987" lon="-148.878372"><ele>27.930922</ele><time>2026-06-16T23:30:19.029Z</time></trkpt><trkpt lat="60.788025" lon="-148.878372"><ele>30.453983</ele><time>2026-06-16T23:30:22.053Z</time></trkpt><trkpt lat="60.787994" lon="-148.878357"><ele>29.969866</ele><time>2026-06-16T23:30:25.027Z</time></trkpt><trkpt lat="60.787998" lon="-148.878296"><ele>32.163151</ele><time>2026-06-16T23:30:27.030Z</time></trkpt><trkpt lat="60.787968" lon="-148.878281"><ele>28.48967</ele><time>2026-06-16T23:30:29.026Z</time></trkpt><trkpt lat="60.78796" lon="-148.878235"><ele>26.286295</ele><time>2026-06-16T23:30:31.052Z</time></trkpt><trkpt lat="60.78796" lon="-148.878189"><ele>25.815233</ele><time>2026-06-16T23:30:31.052Z</time></trkpt><trkpt lat="60.787987" lon="-148.878189"><ele>23.806465</ele><time>2026-06-16T23:30:33.045Z</time></trkpt><trkpt lat="60.788002" lon="-148.878159"><ele>25.803915</ele><time>2026-06-16T23:30:36.023Z</time></trkpt><trkpt lat="60.788036" lon="-148.878143"><ele>24.467451</ele><time>2026-06-16T23:30:46.021Z</time></trkpt><trkpt lat="60.788006" lon="-148.878174"><ele>24.702063</ele><time>2026-06-16T23:30:48.023Z</time></trkpt><trkpt lat="60.787979" lon="-148.878174"><ele>24.059372</ele><time>2026-06-16T23:31:02.023Z</time></trkpt><trkpt lat="60.787964" lon="-148.878128"><ele>24.740881</ele><time>2026-06-16T23:31:02.023Z</time></trkpt><trkpt lat="60.787979" lon="-148.87796"><ele>26.275421</ele><time>2026-06-16T23:31:31.027Z</time></trkpt><trkpt lat="60.787979" lon="-148.878021"><ele>26.827435</ele><time>2026-06-16T23:31:31.027Z</time></trkpt><trkpt lat="60.78796" lon="-148.877686"><ele>26.783453</ele><time>2026-06-16T23:31:44.026Z</time></trkpt><trkpt lat="60.787991" lon="-148.877396"><ele>26.132797</ele><time>2026-06-16T23:31:54.024Z</time></trkpt><trkpt lat="60.788044" lon="-148.877304"><ele>27.342543</ele><time>2026-06-16T23:31:54.024Z</time></trkpt><trkpt lat="60.788082" lon="-148.877289"><ele>28.446871</ele><time>2026-06-16T23:32:00.024Z</time></trkpt><trkpt lat="60.78812" lon="-148.877335"><ele>26.578403</ele><time>2026-06-16T23:32:03.026Z</time></trkpt><trkpt lat="60.788189" lon="-148.877274"><ele>27.729654</ele><time>2026-06-16T23:32:08.024Z</time></trkpt><trkpt lat="60.788254" lon="-148.877304"><ele>27.184784</ele><time>2026-06-16T23:32:10.023Z</time></trkpt><trkpt lat="60.788345" lon="-148.877213"><ele>27.249474</ele><time>2026-06-16T23:32:12.026Z</time></trkpt><trkpt lat="60.788395" lon="-148.877045"><ele>28.562977</ele><time>2026-06-16T23:32:20.028Z</time></trkpt><trkpt lat="60.788429" lon="-148.877106"><ele>25.866777</ele><time>2026-06-16T23:32:20.028Z</time></trkpt><trkpt lat="60.788467" lon="-148.877106"><ele>25.744795</ele><time>2026-06-16T23:32:26.024Z</time></trkpt><trkpt lat="60.788513" lon="-148.877045"><ele>25.625021</ele><time>2026-06-16T23:32:38.028Z</time></trkpt><trkpt lat="60.788441" lon="-148.87709"><ele>27.361637</ele><time>2026-06-16T23:32:42.026Z</time></trkpt><trkpt lat="60.788418" lon="-148.876923"><ele>27.90951</ele><time>2026-06-16T23:32:42.026Z</time></trkpt><trkpt lat="60.788418" lon="-148.876556"><ele>28.327442</ele><time>2026-06-16T23:32:47.028Z</time></trkpt><trkpt lat="60.788483" lon="-148.876328"><ele>30.398237</ele><time>2026-06-16T23:32:53.027Z</time></trkpt><trkpt lat="60.788578" lon="-148.876175"><ele>31.026453</ele><time>2026-06-16T23:32:56.027Z</time></trkpt><trkpt lat="60.788612" lon="-148.876083"><ele>29.96983</ele><time>2026-06-16T23:33:05.027Z</time></trkpt><trkpt lat="60.788658" lon="-148.876053"><ele>27.623386</ele><time>2026-06-16T23:33:05.027Z</time></trkpt><trkpt lat="60.7887" lon="-148.875992"><ele>25.167231</ele><time>2026-06-16T23:33:11.030Z</time></trkpt><trkpt lat="60.788731" lon="-148.8759"><ele>24.964754</ele><time>2026-06-16T23:33:14.024Z</time></trkpt><trkpt lat="60.788754" lon="-148.875732"><ele>25.698429</ele><time>2026-06-16T23:33:18.023Z</time></trkpt><trkpt lat="60.78883" lon="-148.87561"><ele>25.440302</ele><time>2026-06-16T23:33:20.023Z</time></trkpt><trkpt lat="60.788879" lon="-148.875626"><ele>28.265671</ele><time>2026-06-16T23:33:23.026Z</time></trkpt><trkpt lat="60.78883" lon="-148.875641"><ele>27.392216</ele><time>2026-06-16T23:33:26.024Z</time></trkpt><trkpt lat="60.788872" lon="-148.87558"><ele>27.063047</ele><time>2026-06-16T23:33:26.024Z</time></trkpt><trkpt lat="60.788822" lon="-148.875534"><ele>26.911831</ele><time>2026-06-16T23:33:28.023Z</time></trkpt><trkpt lat="60.788788" lon="-148.875244"><ele>27.294102</ele><time>2026-06-16T23:33:31.026Z</time></trkpt><trkpt lat="60.788754" lon="-148.875168"><ele>26.746508</ele><time>2026-06-16T23:33:35.030Z</time></trkpt><trkpt lat="60.788692" lon="-148.874924"><ele>28.37475</ele><time>2026-06-16T23:33:37.026Z</time></trkpt><trkpt lat="60.788666" lon="-148.874664"><ele>29.839594</ele><time>2026-06-16T23:33:40.023Z</time></trkpt><trkpt lat="60.788685" lon="-148.874329"><ele>28.398836</ele><time>2026-06-16T23:33:43.027Z</time></trkpt><trkpt lat="60.78867" lon="-148.874084"><ele>29.162973</ele><time>2026-06-16T23:33:47.026Z</time></trkpt><trkpt lat="60.788635" lon="-148.874039"><ele>28.962334</ele><time>2026-06-16T23:33:47.026Z</time></trkpt><trkpt lat="60.788601" lon="-148.873947"><ele>29.077106</ele><time>2026-06-16T23:33:50.023Z</time></trkpt><trkpt lat="60.788582" lon="-148.873856"><ele>28.938805</ele><time>2026-06-16T23:33:55.029Z</time></trkpt><trkpt lat="60.788582" lon="-148.873718"><ele>30.014006</ele><time>2026-06-16T23:34:04.033Z</time></trkpt><trkpt lat="60.78854" lon="-148.873489"><ele>29.484243</ele><time>2026-06-16T23:34:09.025Z</time></trkpt><trkpt lat="60.78857" lon="-148.873444"><ele>29.869722</ele><time>2026-06-16T23:34:09.025Z</time></trkpt><trkpt lat="60.788548" lon="-148.873291"><ele>29.257395</ele><time>2026-06-16T23:34:13.021Z</time></trkpt><trkpt lat="60.788555" lon="-148.873154"><ele>28.580223</ele><time>2026-06-16T23:34:18.033Z</time></trkpt><trkpt lat="60.788582" lon="-148.873001"><ele>28.95372</ele><time>2026-06-16T23:34:22.030Z</time></trkpt><trkpt lat="60.788612" lon="-148.872955"><ele>29.88397</ele><time>2026-06-16T23:34:32.026Z</time></trkpt><trkpt lat="60.788696" lon="-148.872238"><ele>27.807249</ele><time>2026-06-16T23:34:32.026Z</time></trkpt><trkpt lat="60.788708" lon="-148.872299"><ele>27.898548</ele><time>2026-06-16T23:34:45.033Z</time></trkpt><trkpt lat="60.78867" lon="-148.872192"><ele>27.252577</ele><time>2026-06-16T23:34:53.026Z</time></trkpt><trkpt lat="60.788616" lon="-148.872101"><ele>28.141214</ele><time>2026-06-16T23:34:53.026Z</time></trkpt><trkpt lat="60.788612" lon="-148.871948"><ele>28.876696</ele><time>2026-06-16T23:35:32.025Z</time></trkpt><trkpt lat="60.788643" lon="-148.871979"><ele>28.851217</ele><time>2026-06-16T23:35:32.025Z</time></trkpt><trkpt lat="60.788616" lon="-148.872025"><ele>28.844437</ele><time>2026-06-16T23:35:54.025Z</time></trkpt><trkpt lat="60.788536" lon="-148.871979"><ele>28.465084</ele><time>2026-06-16T23:36:02.021Z</time></trkpt><trkpt lat="60.788479" lon="-148.871918"><ele>27.836185</ele><time>2026-06-16T23:36:02.021Z</time></trkpt><trkpt lat="60.788387" lon="-148.87175"><ele>27.985331</ele><time>2026-06-16T23:36:11.027Z</time></trkpt><trkpt lat="60.788357" lon="-148.871323"><ele>29.517294</ele><time>2026-06-16T23:36:17.021Z</time></trkpt><trkpt lat="60.788334" lon="-148.871185"><ele>29.867638</ele><time>2026-06-16T23:36:22.025Z</time></trkpt><trkpt lat="60.788319" lon="-148.870743"><ele>30.343552</ele><time>2026-06-16T23:36:22.025Z</time></trkpt><trkpt lat="60.788326" lon="-148.870453"><ele>30.785282</ele><time>2026-06-16T23:36:27.026Z</time></trkpt><trkpt lat="60.788364" lon="-148.870224"><ele>29.504997</ele><time>2026-06-16T23:36:34.021Z</time></trkpt><trkpt lat="60.78841" lon="-148.870224"><ele>31.121262</ele><time>2026-06-16T23:36:38.023Z</time></trkpt><trkpt lat="60.788475" lon="-148.870148"><ele>29.873428</ele><time>2026-06-16T23:36:41.024Z</time></trkpt><trkpt lat="60.788517" lon="-148.870255"><ele>28.932983</ele><time>2026-06-16T23:36:41.024Z</time></trkpt><trkpt lat="60.788544" lon="-148.870285"><ele>30.092579</ele><time>2026-06-16T23:36:46.025Z</time></trkpt><trkpt lat="60.788601" lon="-148.870255"><ele>28.648083</ele><time>2026-06-16T23:36:50.025Z</time></trkpt><trkpt lat="60.788631" lon="-148.870163"><ele>28.950064</ele><time>2026-06-16T23:36:55.023Z</time></trkpt><trkpt lat="60.78867" lon="-148.870102"><ele>29.327353</ele><time>2026-06-16T23:36:59.026Z</time></trkpt><trkpt lat="60.788746" lon="-148.870026"><ele>29.251999</ele><time>2026-06-16T23:37:03.026Z</time></trkpt><trkpt lat="60.788868" lon="-148.869843"><ele>29.144936</ele><time>2026-06-16T23:37:03.026Z</time></trkpt><trkpt lat="60.788898" lon="-148.869843"><ele>28.167219</ele><time>2026-06-16T23:37:08.024Z</time></trkpt><trkpt lat="60.788982" lon="-148.869583"><ele>28.485054</ele><time>2026-06-16T23:37:25.025Z</time></trkpt><trkpt lat="60.789013" lon="-148.869553"><ele>28.635864</ele><time>2026-06-16T23:37:25.025Z</time></trkpt><trkpt lat="60.789185" lon="-148.869141"><ele>29.798136</ele><time>2026-06-16T23:38:06.026Z</time></trkpt><trkpt lat="60.789192" lon="-148.869064"><ele>30.632473</ele><time>2026-06-16T23:38:06.026Z</time></trkpt><trkpt lat="60.789219" lon="-148.869019"><ele>30.655586</ele><time>2026-06-16T23:38:18.026Z</time></trkpt><trkpt lat="60.789288" lon="-148.868759"><ele>30.049574</ele><time>2026-06-16T23:38:29.023Z</time></trkpt><trkpt lat="60.78931" lon="-148.868515"><ele>29.173925</ele><time>2026-06-16T23:38:29.023Z</time></trkpt><trkpt lat="60.789356" lon="-148.868393"><ele>29.259783</ele><time>2026-06-16T23:38:36.024Z</time></trkpt><trkpt lat="60.789368" lon="-148.868256"><ele>29.109959</ele><time>2026-06-16T23:38:41.023Z</time></trkpt><trkpt lat="60.789425" lon="-148.867996"><ele>28.727917</ele><time>2026-06-16T23:38:45.027Z</time></trkpt><trkpt lat="60.789455" lon="-148.867722"><ele>28.623814</ele><time>2026-06-16T23:38:49.024Z</time></trkpt><trkpt lat="60.789436" lon="-148.867264"><ele>30.055233</ele><time>2026-06-16T23:38:49.024Z</time></trkpt><trkpt lat="60.789536" lon="-148.866577"><ele>29.12471</ele><time>2026-06-16T23:38:53.027Z</time></trkpt><trkpt lat="60.789547" lon="-148.866333"><ele>30.132011</ele><time>2026-06-16T23:38:57.025Z</time></trkpt><trkpt lat="60.789574" lon="-148.866348"><ele>30.086035</ele><time>2026-06-16T23:39:01.023Z</time></trkpt><trkpt lat="60.789593" lon="-148.866287"><ele>30.148262</ele><time>2026-06-16T23:39:05.026Z</time></trkpt><trkpt lat="60.789623" lon="-148.865997"><ele>30.679544</ele><time>2026-06-16T23:39:08.024Z</time></trkpt><trkpt lat="60.789577" lon="-148.865723"><ele>30.360495</ele><time>2026-06-16T23:39:08.024Z</time></trkpt><trkpt lat="60.789574" lon="-148.865601"><ele>30.277853</ele><time>2026-06-16T23:39:12.025Z</time></trkpt><trkpt lat="60.789501" lon="-148.865051"><ele>30.808039</ele><time>2026-06-16T23:39:16.025Z</time></trkpt><trkpt lat="60.789486" lon="-148.864792"><ele>30.325689</ele><time>2026-06-16T23:39:20.026Z</time></trkpt><trkpt lat="60.789383" lon="-148.864136"><ele>32.357189</ele><time>2026-06-16T23:39:23.026Z</time></trkpt><trkpt lat="60.789387" lon="-148.864044"><ele>32.657234</ele><time>2026-06-16T23:39:26.027Z</time></trkpt><trkpt lat="60.78933" lon="-148.86348"><ele>31.613363</ele><time>2026-06-16T23:39:30.027Z</time></trkpt><trkpt lat="60.78933" lon="-148.863327"><ele>32.908524</ele><time>2026-06-16T23:39:30.027Z</time></trkpt><trkpt lat="60.789295" lon="-148.863129"><ele>31.75355</ele><time>2026-06-16T23:39:34.025Z</time></trkpt><trkpt lat="60.789246" lon="-148.86264"><ele>32.609653</ele><time>2026-06-16T23:39:38.051Z</time></trkpt><trkpt lat="60.78931" lon="-148.862747"><ele>33.536175</ele><time>2026-06-16T23:39:43.026Z</time></trkpt><trkpt lat="60.789333" lon="-148.862946"><ele>32.872341</ele><time>2026-06-16T23:39:46.025Z</time></trkpt><trkpt lat="60.789307" lon="-148.862915"><ele>32.789814</ele><time>2026-06-16T23:39:50.025Z</time></trkpt><trkpt lat="60.789337" lon="-148.862885"><ele>33.132576</ele><time>2026-06-16T23:39:50.025Z</time></trkpt><trkpt lat="60.78936" lon="-148.862762"><ele>34.492432</ele><time>2026-06-16T23:39:57.026Z</time></trkpt><trkpt lat="60.789387" lon="-148.862732"><ele>34.802109</ele><time>2026-06-16T23:40:01.025Z</time></trkpt><trkpt lat="60.789463" lon="-148.862732"><ele>34.726814</ele><time>2026-06-16T23:40:04.025Z</time></trkpt><trkpt lat="60.789509" lon="-148.862762"><ele>32.527172</ele><time>2026-06-16T23:40:08.021Z</time></trkpt><trkpt lat="60.789528" lon="-148.862839"><ele>32.474972</ele><time>2026-06-16T23:40:14.024Z</time></trkpt><trkpt lat="60.789467" lon="-148.862885"><ele>32.837475</ele><time>2026-06-16T23:40:14.024Z</time></trkpt><trkpt lat="60.789532" lon="-148.862808"><ele>36.153408</ele><time>2026-06-16T23:40:20.024Z</time></trkpt><trkpt lat="60.789478" lon="-148.862793"><ele>35.111942</ele><time>2026-06-16T23:40:24.026Z</time></trkpt><trkpt lat="60.789429" lon="-148.8629"><ele>33.974167</ele><time>2026-06-16T23:40:27.027Z</time></trkpt><trkpt lat="60.789379" lon="-148.862885"><ele>32.766491</ele><time>2026-06-16T23:40:30.026Z</time></trkpt><trkpt lat="60.789314" lon="-148.863022"><ele>33.565018</ele><time>2026-06-16T23:40:33.025Z</time></trkpt><trkpt lat="60.789299" lon="-148.862854"><ele>31.815727</ele><time>2026-06-16T23:40:33.025Z</time></trkpt><trkpt lat="60.789223" lon="-148.862595"><ele>33.096748</ele><time>2026-06-16T23:40:36.024Z</time></trkpt><trkpt lat="60.789165" lon="-148.862198"><ele>32.280071</ele><time>2026-06-16T23:40:43.028Z</time></trkpt><trkpt lat="60.789055" lon="-148.861618"><ele>32.971958</ele><time>2026-06-16T23:40:47.028Z</time></trkpt><trkpt lat="60.788963" lon="-148.861343"><ele>32.340363</ele><time>2026-06-16T23:40:51.028Z</time></trkpt><trkpt lat="60.788921" lon="-148.861237"><ele>31.666927</ele><time>2026-06-16T23:40:55.027Z</time></trkpt><trkpt lat="60.788891" lon="-148.861206"><ele>32.136768</ele><time>2026-06-16T23:40:55.027Z</time></trkpt><trkpt lat="60.788795" lon="-148.860947"><ele>31.609591</ele><time>2026-06-16T23:40:59.027Z</time></trkpt><trkpt lat="60.788719" lon="-148.860519"><ele>32.745502</ele><time>2026-06-16T23:41:05.026Z</time></trkpt><trkpt lat="60.788589" lon="-148.859985"><ele>32.521877</ele><time>2026-06-16T23:41:10.027Z</time></trkpt><trkpt lat="60.788551" lon="-148.859894"><ele>33.184437</ele><time>2026-06-16T23:41:14.024Z</time></trkpt><trkpt lat="60.788536" lon="-148.859756"><ele>34.623363</ele><time>2026-06-16T23:41:14.024Z</time></trkpt><trkpt lat="60.788506" lon="-148.859726"><ele>33.224857</ele><time>2026-06-16T23:41:18.021Z</time></trkpt><trkpt lat="60.788441" lon="-148.859573"><ele>33.259289</ele><time>2026-06-16T23:41:22.026Z</time></trkpt><trkpt lat="60.788342" lon="-148.859222"><ele>32.465069</ele><time>2026-06-16T23:41:36.032Z</time></trkpt><trkpt lat="60.78828" lon="-148.85907"><ele>32.647614</ele><time>2026-06-16T23:41:36.032Z</time></trkpt><trkpt lat="60.788181" lon="-148.858719"><ele>33.589241</ele><time>2026-06-16T23:41:46.028Z</time></trkpt><trkpt lat="60.788048" lon="-148.858337"><ele>33.724361</ele><time>2026-06-16T23:41:52.031Z</time></trkpt><trkpt lat="60.787983" lon="-148.858185"><ele>33.291782</ele><time>2026-06-16T23:41:55.034Z</time></trkpt><trkpt lat="60.78793" lon="-148.858139"><ele>32.592705</ele><time>2026-06-16T23:41:59.034Z</time></trkpt><trkpt lat="60.7878" lon="-148.858231"><ele>34.7188</ele><time>2026-06-16T23:41:59.034Z</time></trkpt><trkpt lat="60.787701" lon="-148.858353"><ele>35.044971</ele><time>2026-06-16T23:42:02.028Z</time></trkpt><trkpt lat="60.78759" lon="-148.858398"><ele>33.702644</ele><time>2026-06-16T23:42:06.024Z</time></trkpt><trkpt lat="60.787556" lon="-148.858429"><ele>33.892101</ele><time>2026-06-16T23:42:16.027Z</time></trkpt><trkpt lat="60.787514" lon="-148.858414"><ele>33.429523</ele><time>2026-06-16T23:42:27.027Z</time></trkpt><trkpt lat="60.787426" lon="-148.858429"><ele>32.574181</ele><time>2026-06-16T23:42:27.027Z</time></trkpt><trkpt lat="60.787346" lon="-148.858521"><ele>32.030045</ele><time>2026-06-16T23:42:33.026Z</time></trkpt><trkpt lat="60.78727" lon="-148.858536"><ele>32.201221</ele><time>2026-06-16T23:42:36.029Z</time></trkpt><trkpt lat="60.787235" lon="-148.858582"><ele>32.028214</ele><time>2026-06-16T23:42:40.027Z</time></trkpt><trkpt lat="60.787182" lon="-148.858459"><ele>30.914049</ele><time>2026-06-16T23:42:43.031Z</time></trkpt><trkpt lat="60.787132" lon="-148.858444"><ele>30.724939</ele><time>2026-06-16T23:42:47.032Z</time></trkpt><trkpt lat="60.787094" lon="-148.858475"><ele>29.783724</ele><time>2026-06-16T23:42:47.032Z</time></trkpt><trkpt lat="60.787056" lon="-148.858475"><ele>30.849119</ele><time>2026-06-16T23:42:49.028Z</time></trkpt><trkpt lat="60.786995" lon="-148.858551"><ele>30.972931</ele><time>2026-06-16T23:42:52.026Z</time></trkpt><trkpt lat="60.786961" lon="-148.858551"><ele>29.871019</ele><time>2026-06-16T23:42:56.024Z</time></trkpt><trkpt lat="60.78685" lon="-148.858643"><ele>31.568008</ele><time>2026-06-16T23:42:59.028Z</time></trkpt><trkpt lat="60.786819" lon="-148.858643"><ele>30.996262</ele><time>2026-06-16T23:43:02.027Z</time></trkpt><trkpt lat="60.786785" lon="-148.858582"><ele>29.732283</ele><time>2026-06-16T23:43:05.029Z</time></trkpt><trkpt lat="60.786755" lon="-148.858566"><ele>29.278872</ele><time>2026-06-16T23:43:11.029Z</time></trkpt><trkpt lat="60.786747" lon="-148.858505"><ele>28.72551</ele><time>2026-06-16T23:43:11.029Z</time></trkpt><trkpt lat="60.786533" lon="-148.858612"><ele>29.818579</ele><time>2026-06-16T23:43:17.027Z</time></trkpt><trkpt lat="60.7864" lon="-148.858627"><ele>30.849588</ele><time>2026-06-16T23:43:20.025Z</time></trkpt><trkpt lat="60.786327" lon="-148.858704"><ele>31.035873</ele><time>2026-06-16T23:43:23.028Z</time></trkpt><trkpt lat="60.786289" lon="-148.858795"><ele>31.623569</ele><time>2026-06-16T23:43:27.029Z</time></trkpt><trkpt lat="60.786232" lon="-148.858871"><ele>32.43811</ele><time>2026-06-16T23:43:31.025Z</time></trkpt><trkpt lat="60.786182" lon="-148.859009"><ele>33.411499</ele><time>2026-06-16T23:43:31.025Z</time></trkpt><trkpt lat="60.786091" lon="-148.859131"><ele>32.865898</ele><time>2026-06-16T23:43:35.031Z</time></trkpt><trkpt lat="60.78603" lon="-148.859329"><ele>33.887802</ele><time>2026-06-16T23:43:39.028Z</time></trkpt><trkpt lat="60.785912" lon="-148.859528"><ele>34.714348</ele><time>2026-06-16T23:43:42.026Z</time></trkpt><trkpt lat="60.785744" lon="-148.859695"><ele>33.891167</ele><time>2026-06-16T23:43:47.028Z</time></trkpt><trkpt lat="60.785618" lon="-148.859863"><ele>35.291248</ele><time>2026-06-16T23:43:50.026Z</time></trkpt><trkpt lat="60.785583" lon="-148.85994"><ele>35.610729</ele><time>2026-06-16T23:43:50.026Z</time></trkpt><trkpt lat="60.785511" lon="-148.860016"><ele>34.81805</ele><time>2026-06-16T23:43:54.024Z</time></trkpt><trkpt lat="60.785454" lon="-148.860123"><ele>36.375206</ele><time>2026-06-16T23:43:57.025Z</time></trkpt><trkpt lat="60.785416" lon="-148.860138"><ele>35.230999</ele><time>2026-06-16T23:44:00.026Z</time></trkpt><trkpt lat="60.785343" lon="-148.860214"><ele>34.877235</ele><time>2026-06-16T23:44:03.029Z</time></trkpt><trkpt lat="60.785305" lon="-148.860214"><ele>35.250168</ele><time>2026-06-16T23:44:20.027Z</time></trkpt><trkpt lat="60.785263" lon="-148.860184"><ele>34.90213</ele><time>2026-06-16T23:44:20.027Z</time></trkpt><trkpt lat="60.78524" lon="-148.860107"><ele>34.874947</ele><time>2026-06-16T23:44:34.027Z</time></trkpt><trkpt lat="60.78524" lon="-148.85994"><ele>35.439243</ele><time>2026-06-16T23:44:40.026Z</time></trkpt><trkpt lat="60.785255" lon="-148.859879"><ele>36.429176</ele><time>2026-06-16T23:44:40.026Z</time></trkpt><trkpt lat="60.785294" lon="-148.859848"><ele>37.396595</ele><time>2026-06-16T23:44:44.025Z</time></trkpt><trkpt lat="60.785309" lon="-148.859787"><ele>34.384117</ele><time>2026-06-16T23:44:48.054Z</time></trkpt><trkpt lat="60.785294" lon="-148.859711"><ele>36.452271</ele><time>2026-06-16T23:44:52.030Z</time></trkpt><trkpt lat="60.785309" lon="-148.859833"><ele>33.339439</ele><time>2026-06-16T23:44:56.027Z</time></trkpt><trkpt lat="60.785267" lon="-148.859863"><ele>32.968117</ele><time>2026-06-16T23:45:00.027Z</time></trkpt><trkpt lat="60.785294" lon="-148.859833"><ele>32.965603</ele><time>2026-06-16T23:45:00.027Z</time></trkpt><trkpt lat="60.785286" lon="-148.859909"><ele>31.915073</ele><time>2026-06-16T23:45:12.021Z</time></trkpt><trkpt lat="60.785313" lon="-148.860123"><ele>32.675865</ele><time>2026-06-16T23:45:42.023Z</time></trkpt><trkpt lat="60.785294" lon="-148.860062"><ele>32.920601</ele><time>2026-06-16T23:45:42.023Z</time></trkpt><trkpt lat="60.785301" lon="-148.859924"><ele>31.689861</ele><time>2026-06-16T23:45:49.024Z</time></trkpt><trkpt lat="60.785278" lon="-148.859863"><ele>32.263935</ele><time>2026-06-16T23:45:54.023Z</time></trkpt><trkpt lat="60.785313" lon="-148.859848"><ele>32.300465</ele><time>2026-06-16T23:45:58.023Z</time></trkpt><trkpt lat="60.785316" lon="-148.860123"><ele>32.341972</ele><time>2026-06-16T23:46:02.024Z</time></trkpt><trkpt lat="60.785278" lon="-148.860199"><ele>32.141727</ele><time>2026-06-16T23:46:02.024Z</time></trkpt><trkpt lat="60.785145" lon="-148.860229"><ele>33.154274</ele><time>2026-06-16T23:46:06.025Z</time></trkpt><trkpt lat="60.785065" lon="-148.860336"><ele>34.26725</ele><time>2026-06-16T23:46:11.029Z</time></trkpt><trkpt lat="60.785046" lon="-148.860291"><ele>34.283009</ele><time>2026-06-16T23:46:15.028Z</time></trkpt><trkpt lat="60.784966" lon="-148.860275"><ele>33.576283</ele><time>2026-06-16T23:46:19.027Z</time></trkpt><trkpt lat="60.784927" lon="-148.860291"><ele>33.690777</ele><time>2026-06-16T23:46:26.091Z</time></trkpt><trkpt lat="60.784702" lon="-148.860275"><ele>34.219933</ele><time>2026-06-16T23:46:26.091Z</time></trkpt><trkpt lat="60.784595" lon="-148.860123"><ele>34.353302</ele><time>2026-06-16T23:46:37.029Z</time></trkpt><trkpt lat="60.784561" lon="-148.860153"><ele>34.564068</ele><time>2026-06-16T23:46:42.026Z</time></trkpt><trkpt lat="60.78447" lon="-148.860153"><ele>34.503975</ele><time>2026-06-16T23:46:46.021Z</time></trkpt><trkpt lat="60.784393" lon="-148.860107"><ele>35.29454</ele><time>2026-06-16T23:46:46.021Z</time></trkpt><trkpt lat="60.784351" lon="-148.860138"><ele>35.604195</ele><time>2026-06-16T23:46:51.026Z</time></trkpt><trkpt lat="60.784302" lon="-148.860291"><ele>34.616245</ele><time>2026-06-16T23:47:11.025Z</time></trkpt><trkpt lat="60.784229" lon="-148.860367"><ele>34.351643</ele><time>2026-06-16T23:47:11.025Z</time></trkpt><trkpt lat="60.784191" lon="-148.860535"><ele>31.971487</ele><time>2026-06-16T23:47:33.024Z</time></trkpt><trkpt lat="60.784176" lon="-148.860855"><ele>32.697422</ele><time>2026-06-16T23:47:55.025Z</time></trkpt><trkpt lat="60.784134" lon="-148.860855"><ele>33.257957</ele><time>2026-06-16T23:47:55.025Z</time></trkpt><trkpt lat="60.7841" lon="-148.860886"><ele>32.833023</ele><time>2026-06-16T23:47:58.023Z</time></trkpt><trkpt lat="60.784061" lon="-148.860886"><ele>33.181152</ele><time>2026-06-16T23:48:02.023Z</time></trkpt><trkpt lat="60.784027" lon="-148.860916"><ele>33.492298</ele><time>2026-06-16T23:48:06.025Z</time></trkpt><trkpt lat="60.783989" lon="-148.860901"><ele>33.323902</ele><time>2026-06-16T23:48:09.024Z</time></trkpt><trkpt lat="60.783978" lon="-148.860977"><ele>34.017441</ele><time>2026-06-16T23:48:15.027Z</time></trkpt><trkpt lat="60.783867" lon="-148.861008"><ele>32.727924</ele><time>2026-06-16T23:48:15.027Z</time></trkpt><trkpt lat="60.783848" lon="-148.861069"><ele>32.868801</ele><time>2026-06-16T23:48:18.024Z</time></trkpt><trkpt lat="60.783829" lon="-148.860992"><ele>35.855289</ele><time>2026-06-16T23:48:21.023Z</time></trkpt><trkpt lat="60.783913" lon="-148.860855"><ele>32.747105</ele><time>2026-06-16T23:48:24.024Z</time></trkpt><trkpt lat="60.783936" lon="-148.860901"><ele>32.526955</ele><time>2026-06-16T23:48:27.023Z</time></trkpt><trkpt lat="60.783985" lon="-148.860825"><ele>32.357311</ele><time>2026-06-16T23:48:30.025Z</time></trkpt><trkpt lat="60.783913" lon="-148.860886"><ele>31.40984</ele><time>2026-06-16T23:48:33.025Z</time></trkpt><trkpt lat="60.783939" lon="-148.860855"><ele>32.671738</ele><time>2026-06-16T23:48:36.025Z</time></trkpt><trkpt lat="60.78392" lon="-148.860901"><ele>32.164051</ele><time>2026-06-16T23:48:36.025Z</time></trkpt><trkpt lat="60.783913" lon="-148.861008"><ele>32.421482</ele><time>2026-06-16T23:48:40.028Z</time></trkpt><trkpt lat="60.783932" lon="-148.861237"><ele>33.659122</ele><time>2026-06-16T23:48:44.027Z</time></trkpt><trkpt lat="60.783924" lon="-148.861374"><ele>34.609615</ele><time>2026-06-16T23:48:51.029Z</time></trkpt><trkpt lat="60.783897" lon="-148.861435"><ele>34.284122</ele><time>2026-06-16T23:48:56.023Z</time></trkpt><trkpt lat="60.783924" lon="-148.861496"><ele>33.844017</ele><time>2026-06-16T23:48:56.023Z</time></trkpt><trkpt lat="60.783909" lon="-148.861572"><ele>33.647739</ele><time>2026-06-16T23:49:00.024Z</time></trkpt><trkpt lat="60.783909" lon="-148.86174"><ele>34.233906</ele><time>2026-06-16T23:49:04.024Z</time></trkpt><trkpt lat="60.783886" lon="-148.861801"><ele>33.190929</ele><time>2026-06-16T23:49:08.026Z</time></trkpt><trkpt lat="60.783871" lon="-148.861938"><ele>32.348125</ele><time>2026-06-16T23:49:11.027Z</time></trkpt><trkpt lat="60.783901" lon="-148.861969"><ele>33.983849</ele><time>2026-06-16T23:49:14.040Z</time></trkpt><trkpt lat="60.783863" lon="-148.862274"><ele>34.431461</ele><time>2026-06-16T23:49:18.053Z</time></trkpt><trkpt lat="60.783768" lon="-148.862427"><ele>33.657421</ele><time>2026-06-16T23:49:18.053Z</time></trkpt><trkpt lat="60.78373" lon="-148.862442"><ele>34.355995</ele><time>2026-06-16T23:49:22.038Z</time></trkpt><trkpt lat="60.783672" lon="-148.862518"><ele>32.704189</ele><time>2026-06-16T23:49:25.038Z</time></trkpt><trkpt lat="60.783619" lon="-148.862442"><ele>32.506218</ele><time>2026-06-16T23:49:29.029Z</time></trkpt><trkpt lat="60.783672" lon="-148.862549"><ele>32.688953</ele><time>2026-06-16T23:49:32.021Z</time></trkpt><trkpt lat="60.783699" lon="-148.862808"><ele>32.077934</ele><time>2026-06-16T23:49:35.028Z</time></trkpt><trkpt lat="60.783699" lon="-148.863022"><ele>32.283131</ele><time>2026-06-16T23:49:38.025Z</time></trkpt><trkpt lat="60.78368" lon="-148.863144"><ele>31.895678</ele><time>2026-06-16T23:49:38.025Z</time></trkpt><trkpt lat="60.783695" lon="-148.863266"><ele>33.177048</ele><time>2026-06-16T23:49:41.025Z</time></trkpt><trkpt lat="60.783691" lon="-148.863464"><ele>33.566341</ele><time>2026-06-16T23:49:44.023Z</time></trkpt><trkpt lat="60.783657" lon="-148.86351"><ele>34.452881</ele><time>2026-06-16T23:49:47.026Z</time></trkpt><trkpt lat="60.783569" lon="-148.86351"><ele>32.311008</ele><time>2026-06-16T23:49:50.026Z</time></trkpt><trkpt lat="60.783531" lon="-148.863525"><ele>32.307446</ele><time>2026-06-16T23:49:54.025Z</time></trkpt><trkpt lat="60.783436" lon="-148.863602"><ele>32.517361</ele><time>2026-06-16T23:49:59.027Z</time></trkpt><trkpt lat="60.783405" lon="-148.863663"><ele>32.757374</ele><time>2026-06-16T23:49:59.027Z</time></trkpt><trkpt lat="60.783306" lon="-148.863693"><ele>32.305717</ele><time>2026-06-16T23:50:05.021Z</time></trkpt><trkpt lat="60.783207" lon="-148.8638"><ele>33.754818</ele><time>2026-06-16T23:50:10.020Z</time></trkpt><trkpt lat="60.783176" lon="-148.863815"><ele>34.03896</ele><time>2026-06-16T23:50:14.021Z</time></trkpt><trkpt lat="60.783146" lon="-148.863861"><ele>34.823051</ele><time>2026-06-16T23:50:17.023Z</time></trkpt><trkpt lat="60.783039" lon="-148.863892"><ele>35.369911</ele><time>2026-06-16T23:50:20.025Z</time></trkpt><trkpt lat="60.783009" lon="-148.863937"><ele>35.804604</ele><time>2026-06-16T23:50:20.025Z</time></trkpt><trkpt lat="60.782967" lon="-148.863937"><ele>35.344513</ele><time>2026-06-16T23:50:23.026Z</time></trkpt><trkpt lat="60.782864" lon="-148.863998"><ele>35.389088</ele><time>2026-06-16T23:50:26.025Z</time></trkpt><trkpt lat="60.782642" lon="-148.864059"><ele>35.995998</ele><time>2026-06-16T23:50:29.025Z</time></trkpt><trkpt lat="60.782562" lon="-148.864136"><ele>35.741238</ele><time>2026-06-16T23:50:32.025Z</time></trkpt><trkpt lat="60.782524" lon="-148.864136"><ele>35.430294</ele><time>2026-06-16T23:50:34.024Z</time></trkpt><trkpt lat="60.782494" lon="-148.864166"><ele>35.825275</ele><time>2026-06-16T23:50:37.025Z</time></trkpt><trkpt lat="60.782421" lon="-148.864166"><ele>32.630623</ele><time>2026-06-16T23:50:39.029Z</time></trkpt><trkpt lat="60.782337" lon="-148.864197"><ele>31.663481</ele><time>2026-06-16T23:50:39.029Z</time></trkpt><trkpt lat="60.782349" lon="-148.864334"><ele>32.231594</ele><time>2026-06-16T23:50:42.024Z</time></trkpt><trkpt lat="60.782383" lon="-148.86438"><ele>33.403576</ele><time>2026-06-16T23:50:46.027Z</time></trkpt><trkpt lat="60.782402" lon="-148.864441"><ele>32.891438</ele><time>2026-06-16T23:50:54.054Z</time></trkpt><trkpt lat="60.782429" lon="-148.864639"><ele>33.120266</ele><time>2026-06-16T23:51:02.025Z</time></trkpt><trkpt lat="60.782398" lon="-148.865204"><ele>34.337242</ele><time>2026-06-16T23:51:02.025Z</time></trkpt><trkpt lat="60.782417" lon="-148.865265"><ele>33.381378</ele><time>2026-06-16T23:51:05.025Z</time></trkpt><trkpt lat="60.78241" lon="-148.865524"><ele>33.029667</ele><time>2026-06-16T23:51:09.030Z</time></trkpt><trkpt lat="60.782425" lon="-148.865585"><ele>32.740181</ele><time>2026-06-16T23:51:12.041Z</time></trkpt><trkpt lat="60.782433" lon="-148.865906"><ele>34.345947</ele><time>2026-06-16T23:51:16.025Z</time></trkpt><trkpt lat="60.782497" lon="-148.866257"><ele>34.45715</ele><time>2026-06-16T23:51:19.025Z</time></trkpt><trkpt lat="60.782528" lon="-148.866379"><ele>35.609589</ele><time>2026-06-16T23:51:23.028Z</time></trkpt><trkpt lat="60.782555" lon="-148.866425"><ele>35.512562</ele><time>2026-06-16T23:51:23.028Z</time></trkpt><trkpt lat="60.782528" lon="-148.866364"><ele>35.65049</ele><time>2026-06-16T23:51:26.025Z</time></trkpt><trkpt lat="60.782574" lon="-148.866379"><ele>35.412022</ele><time>2026-06-16T23:51:29.026Z</time></trkpt><trkpt lat="60.782589" lon="-148.86647"><ele>35.641693</ele><time>2026-06-16T23:51:32.025Z</time></trkpt><trkpt lat="60.782581" lon="-148.866592"><ele>36.077339</ele><time>2026-06-16T23:51:35.029Z</time></trkpt><trkpt lat="60.782658" lon="-148.86673"><ele>36.731754</ele><time>2026-06-16T23:51:38.025Z</time></trkpt><trkpt lat="60.782715" lon="-148.866898"><ele>35.619202</ele><time>2026-06-16T23:51:41.025Z</time></trkpt><trkpt lat="60.782761" lon="-148.866913"><ele>35.670372</ele><time>2026-06-16T23:51:43.028Z</time></trkpt><trkpt lat="60.782803" lon="-148.866959"><ele>35.311142</ele><time>2026-06-16T23:51:43.028Z</time></trkpt><trkpt lat="60.78297" lon="-148.867416"><ele>35.946114</ele><time>2026-06-16T23:51:46.024Z</time></trkpt><trkpt lat="60.783005" lon="-148.867462"><ele>36.759335</ele><time>2026-06-16T23:51:49.025Z</time></trkpt><trkpt lat="60.783012" lon="-148.867554"><ele>36.634083</ele><time>2026-06-16T23:51:52.026Z</time></trkpt><trkpt lat="60.783066" lon="-148.867584"><ele>37.150494</ele><time>2026-06-16T23:51:55.027Z</time></trkpt><trkpt lat="60.783123" lon="-148.867905"><ele>37.109421</ele><time>2026-06-16T23:51:58.021Z</time></trkpt><trkpt lat="60.78318" lon="-148.868515"><ele>35.727737</ele><time>2026-06-16T23:52:02.021Z</time></trkpt><trkpt lat="60.783218" lon="-148.868591"><ele>35.444492</ele><time>2026-06-16T23:52:02.021Z</time></trkpt><trkpt lat="60.783237" lon="-148.868698"><ele>35.66803</ele><time>2026-06-16T23:52:05.025Z</time></trkpt><trkpt lat="60.783276" lon="-148.868774"><ele>35.963654</ele><time>2026-06-16T23:52:08.029Z</time></trkpt><trkpt lat="60.783291" lon="-148.869034"><ele>37.075832</ele><time>2026-06-16T23:52:11.030Z</time></trkpt><trkpt lat="60.783249" lon="-148.869141"><ele>36.844879</ele><time>2026-06-16T23:52:14.026Z</time></trkpt><trkpt lat="60.783161" lon="-148.869553"><ele>35.560471</ele><time>2026-06-16T23:52:18.024Z</time></trkpt><trkpt lat="60.783249" lon="-148.869858"><ele>35.058929</ele><time>2026-06-16T23:52:21.025Z</time></trkpt><trkpt lat="60.783264" lon="-148.870102"><ele>34.300774</ele><time>2026-06-16T23:52:21.025Z</time></trkpt><trkpt lat="60.783302" lon="-148.870193"><ele>35.352024</ele><time>2026-06-16T23:52:24.024Z</time></trkpt><trkpt lat="60.783306" lon="-148.8703"><ele>35.597332</ele><time>2026-06-16T23:52:27.029Z</time></trkpt><trkpt lat="60.783218" lon="-148.870636"><ele>34.169079</ele><time>2026-06-16T23:52:34.026Z</time></trkpt><trkpt lat="60.783176" lon="-148.870697"><ele>34.211514</ele><time>2026-06-16T23:52:37.024Z</time></trkpt><trkpt lat="60.783081" lon="-148.871048"><ele>34.332253</ele><time>2026-06-16T23:52:40.025Z</time></trkpt><trkpt lat="60.783039" lon="-148.871094"><ele>32.631737</ele><time>2026-06-16T23:52:40.025Z</time></trkpt><trkpt lat="60.78297" lon="-148.871338"><ele>33.886246</ele><time>2026-06-16T23:52:42.025Z</time></trkpt><trkpt lat="60.782917" lon="-148.871368"><ele>33.036167</ele><time>2026-06-16T23:52:46.025Z</time></trkpt><trkpt lat="60.782928" lon="-148.87146"><ele>33.770084</ele><time>2026-06-16T23:52:49.026Z</time></trkpt><trkpt lat="60.782837" lon="-148.871826"><ele>36.264866</ele><time>2026-06-16T23:52:52.025Z</time></trkpt><trkpt lat="60.782814" lon="-148.872116"><ele>36.624336</ele><time>2026-06-16T23:52:55.028Z</time></trkpt><trkpt lat="60.782841" lon="-148.872299"><ele>37.549797</ele><time>2026-06-16T23:52:58.024Z</time></trkpt><trkpt lat="60.782822" lon="-148.872406"><ele>37.228058</ele><time>2026-06-16T23:53:01.024Z</time></trkpt><trkpt lat="60.782902" lon="-148.872955"><ele>36.131847</ele><time>2026-06-16T23:53:01.024Z</time></trkpt><trkpt lat="60.782951" lon="-148.873108"><ele>36.498394</ele><time>2026-06-16T23:53:08.025Z</time></trkpt><trkpt lat="60.782997" lon="-148.873154"><ele>37.780647</ele><time>2026-06-16T23:53:11.028Z</time></trkpt><trkpt lat="60.783039" lon="-148.873337"><ele>36.913933</ele><time>2026-06-16T23:53:14.026Z</time></trkpt><trkpt lat="60.783073" lon="-148.873398"><ele>37.187992</ele><time>2026-06-16T23:53:20.026Z</time></trkpt><trkpt lat="60.783131" lon="-148.873672"><ele>35.467739</ele><time>2026-06-16T23:53:20.026Z</time></trkpt><trkpt lat="60.783169" lon="-148.873749"><ele>35.362823</ele><time>2026-06-16T23:53:23.028Z</time></trkpt><trkpt lat="60.78318" lon="-148.87384"><ele>35.962643</ele><time>2026-06-16T23:53:27.027Z</time></trkpt><trkpt lat="60.783257" lon="-148.873962"><ele>35.8839</ele><time>2026-06-16T23:53:31.025Z</time></trkpt><trkpt lat="60.783276" lon="-148.874161"><ele>36.271515</ele><time>2026-06-16T23:53:35.026Z</time></trkpt><trkpt lat="60.783352" lon="-148.874298"><ele>37.390442</ele><time>2026-06-16T23:53:39.027Z</time></trkpt><trkpt lat="60.783398" lon="-148.874344"><ele>37.19595</ele><time>2026-06-16T23:53:39.027Z</time></trkpt><trkpt lat="60.783463" lon="-148.874802"><ele>34.630131</ele><time>2026-06-16T23:53:43.027Z</time></trkpt><trkpt lat="60.783539" lon="-148.875"><ele>32.460701</ele><time>2026-06-16T23:53:46.027Z</time></trkpt><trkpt lat="60.783749" lon="-148.875336"><ele>32.374496</ele><time>2026-06-16T23:53:48.024Z</time></trkpt><trkpt lat="60.783958" lon="-148.875793"><ele>29.946928</ele><time>2026-06-16T23:53:52.025Z</time></trkpt><trkpt lat="60.783989" lon="-148.875839"><ele>30.479914</ele><time>2026-06-16T23:53:55.028Z</time></trkpt><trkpt lat="60.784023" lon="-148.875854"><ele>30.70738</ele><time>2026-06-16T23:53:59.027Z</time></trkpt><trkpt lat="60.78405" lon="-148.875931"><ele>31.141697</ele><time>2026-06-16T23:53:59.027Z</time></trkpt><trkpt lat="60.784119" lon="-148.876007"><ele>30.435883</ele><time>2026-06-16T23:54:03.029Z</time></trkpt><trkpt lat="60.784283" lon="-148.876251"><ele>32.535019</ele><time>2026-06-16T23:54:06.024Z</time></trkpt><trkpt lat="60.784466" lon="-148.876648"><ele>33.915894</ele><time>2026-06-16T23:54:09.025Z</time></trkpt><trkpt lat="60.7845" lon="-148.876694"><ele>34.252625</ele><time>2026-06-16T23:54:13.023Z</time></trkpt><trkpt lat="60.784645" lon="-148.87706"><ele>31.671703</ele><time>2026-06-16T23:54:20.025Z</time></trkpt><trkpt lat="60.78492" lon="-148.877304"><ele>31.327705</ele><time>2026-06-16T23:54:20.025Z</time></trkpt><trkpt lat="60.785" lon="-148.877426"><ele>32.035362</ele><time>2026-06-16T23:54:29.028Z</time></trkpt><trkpt lat="60.78508" lon="-148.87767"><ele>31.615307</ele><time>2026-06-16T23:54:35.025Z</time></trkpt><trkpt lat="60.785118" lon="-148.877716"><ele>31.787796</ele><time>2026-06-16T23:54:38.028Z</time></trkpt><trkpt lat="60.785152" lon="-148.877884"><ele>31.143091</ele><time>2026-06-16T23:54:43.028Z</time></trkpt><trkpt lat="60.785149" lon="-148.878143"><ele>30.777662</ele><time>2026-06-16T23:54:43.028Z</time></trkpt><trkpt lat="60.785172" lon="-148.878296"><ele>32.0937</ele><time>2026-06-16T23:54:49.024Z</time></trkpt><trkpt lat="60.785233" lon="-148.878403"><ele>34.202705</ele><time>2026-06-16T23:54:58.023Z</time></trkpt><trkpt lat="60.785297" lon="-148.878632"><ele>34.124474</ele><time>2026-06-16T23:55:16.024Z</time></trkpt><trkpt lat="60.785358" lon="-148.878784"><ele>34.547241</ele><time>2026-06-16T23:55:16.024Z</time></trkpt><trkpt lat="60.7854" lon="-148.878845"><ele>35.218719</ele><time>2026-06-16T23:55:43.024Z</time></trkpt><trkpt lat="60.78548" lon="-148.878937"><ele>34.390003</ele><time>2026-06-16T23:55:43.024Z</time></trkpt><trkpt lat="60.78553" lon="-148.878937"><ele>34.654427</ele><time>2026-06-16T23:56:23.028Z</time></trkpt><trkpt lat="60.785614" lon="-148.879166"><ele>31.373039</ele><time>2026-06-16T23:56:23.028Z</time></trkpt><trkpt lat="60.785648" lon="-148.879227"><ele>31.734299</ele><time>2026-06-16T23:56:48.023Z</time></trkpt><trkpt lat="60.785694" lon="-148.879257"><ele>32.507401</ele><time>2026-06-16T23:57:11.029Z</time></trkpt><trkpt lat="60.785732" lon="-148.879318"><ele>32.786663</ele><time>2026-06-16T23:57:11.029Z</time></trkpt><trkpt lat="60.785778" lon="-148.879333"><ele>32.983952</ele><time>2026-06-16T23:57:38.023Z</time></trkpt><trkpt lat="60.785828" lon="-148.879379"><ele>32.681339</ele><time>2026-06-16T23:57:38.023Z</time></trkpt><trkpt lat="60.785881" lon="-148.879364"><ele>33.461681</ele><time>2026-06-16T23:57:47.024Z</time></trkpt><trkpt lat="60.786076" lon="-148.879181"><ele>31.164013</ele><time>2026-06-16T23:57:56.025Z</time></trkpt><trkpt lat="60.786083" lon="-148.879105"><ele>30.614742</ele><time>2026-06-16T23:58:02.025Z</time></trkpt><trkpt lat="60.786152" lon="-148.878998"><ele>30.479202</ele><time>2026-06-16T23:58:02.025Z</time></trkpt><trkpt lat="60.786201" lon="-148.878998"><ele>30.147663</ele><time>2026-06-16T23:58:10.021Z</time></trkpt><trkpt lat="60.786243" lon="-148.878952"><ele>29.750349</ele><time>2026-06-16T23:58:14.021Z</time></trkpt><trkpt lat="60.786285" lon="-148.878952"><ele>30.005772</ele><time>2026-06-16T23:58:18.024Z</time></trkpt><trkpt lat="60.786339" lon="-148.878922"><ele>29.850319</ele><time>2026-06-16T23:58:22.024Z</time></trkpt><trkpt lat="60.786427" lon="-148.87883"><ele>30.421341</ele><time>2026-06-16T23:58:22.024Z</time></trkpt><trkpt lat="60.786461" lon="-148.878769"><ele>31.856468</ele><time>2026-06-16T23:58:26.021Z</time></trkpt><trkpt lat="60.786545" lon="-148.878723"><ele>31.059887</ele><time>2026-06-16T23:58:29.024Z</time></trkpt><trkpt lat="60.786579" lon="-148.878662"><ele>31.640257</ele><time>2026-06-16T23:58:33.024Z</time></trkpt><trkpt lat="60.786633" lon="-148.878647"><ele>31.046947</ele><time>2026-06-16T23:58:36.025Z</time></trkpt><trkpt lat="60.786667" lon="-148.878723"><ele>30.595398</ele><time>2026-06-16T23:58:39.027Z</time></trkpt><trkpt lat="60.786705" lon="-148.878738"><ele>29.884272</ele><time>2026-06-16T23:58:42.024Z</time></trkpt><trkpt lat="60.786747" lon="-148.878677"><ele>29.490978</ele><time>2026-06-16T23:58:42.024Z</time></trkpt><trkpt lat="60.786705" lon="-148.878784"><ele>30.334393</ele><time>2026-06-16T23:58:46.025Z</time></trkpt><trkpt lat="60.786713" lon="-148.878876"><ele>29.981441</ele><time>2026-06-16T23:58:49.025Z</time></trkpt><trkpt lat="60.786751" lon="-148.878922"><ele>30.133795</ele><time>2026-06-16T23:58:52.025Z</time></trkpt><trkpt lat="60.786732" lon="-148.879044"><ele>29.555326</ele><time>2026-06-16T23:58:58.026Z</time></trkpt><trkpt lat="60.786736" lon="-148.878922"><ele>30.287903</ele><time>2026-06-16T23:59:01.025Z</time></trkpt><trkpt lat="60.786842" lon="-148.878906"><ele>30.439436</ele><time>2026-06-16T23:59:01.025Z</time></trkpt><trkpt lat="60.786892" lon="-148.878876"><ele>30.313511</ele><time>2026-06-16T23:59:04.026Z</time></trkpt><trkpt lat="60.786869" lon="-148.878693"><ele>29.712</ele><time>2026-06-16T23:59:07.025Z</time></trkpt><trkpt lat="60.786869" lon="-148.878494"><ele>29.978931</ele><time>2026-06-16T23:59:10.026Z</time></trkpt><trkpt lat="60.786892" lon="-148.878387"><ele>30.963039</ele><time>2026-06-16T23:59:16.024Z</time></trkpt><trkpt lat="60.78693" lon="-148.878342"><ele>31.542339</ele><time>2026-06-16T23:59:19.027Z</time></trkpt><trkpt lat="60.787071" lon="-148.878357"><ele>31.250757</ele><time>2026-06-16T23:59:22.025Z</time></trkpt><trkpt lat="60.787113" lon="-148.878387"><ele>30.790398</ele><time>2026-06-16T23:59:22.025Z</time></trkpt><trkpt lat="60.787197" lon="-148.878357"><ele>30.623449</ele><time>2026-06-16T23:59:25.025Z</time></trkpt><trkpt lat="60.787277" lon="-148.878296"><ele>31.455608</ele><time>2026-06-16T23:59:30.024Z</time></trkpt><trkpt lat="60.787369" lon="-148.878281"><ele>30.572847</ele><time>2026-06-16T23:59:34.025Z</time></trkpt><trkpt lat="60.787354" lon="-148.878189"><ele>31.093096</ele><time>2026-06-16T23:59:38.025Z</time></trkpt><trkpt lat="60.787319" lon="-148.878235"><ele>29.183277</ele><time>2026-06-16T23:59:51.025Z</time></trkpt></trkseg></trk></gpx>