<?xml version="1.0"?>
<gpx xmlns="http://www.topografix.com/GPX/1/1" xmlns:xsi="http://www.w3.org/2001/XMLSchema-instance" version="1.1" creator="AllTrails.com" xsi:schemaLocation="http://www.topografix.com/GPX/1/1 http://www.topografix.com/GPX/1/1/gpx.xsd">
  <metadata>
    <name><![CDATA[Morning hike at Zumwalt Meadow and Roaring River Falls]]></name>
    <desc><![CDATA[]]></desc>
    <link href="http://www.alltrails.com">
      <text>AllTrails, LLC</text>
    </link>
    <bounds minlat="36.7901" minlon="-118.60046" maxlat="36.79385" maxlon="-118.59581"/>
  </metadata>
  <trk>
    <name><![CDATA[Morning hike at Zumwalt Meadow and Roaring River Falls]]></name>
    <src>AllTrails</src>
    <trkseg>
      <trkpt lat="36.79035" lon="-118.59865">
        <ele>1525.93</ele>
        <time>2024-08-17T16:30:26Z</time>
      </trkpt>
      <trkpt lat="36.79029" lon="-118.59862">
        <ele>1525.28</ele>
        <time>2024-08-17T16:30:27Z</time>
      </trkpt>
      <trkpt lat="36.79026" lon="-118.5986">
        <ele>1525.05</ele>
        <time>2024-08-17T16:30:31Z</time>
      </trkpt>
      <trkpt lat="36.79024" lon="-118.59862">
        <ele>1525.7</ele>
        <time>2024-08-17T16:30:32Z</time>
      </trkpt>
      <trkpt lat="36.79024" lon="-118.59868">
        <ele>1527.64</ele>
        <time>2024-08-17T16:30:34Z</time>
      </trkpt>
      <trkpt lat="36.79026" lon="-118.5987">
        <ele>1528.07</ele>
        <time>2024-08-17T16:30:37Z</time>
      </trkpt>
      <trkpt lat="36.79024" lon="-118.59872">
        <ele>1528.76</ele>
        <time>2024-08-17T16:30:43Z</time>
      </trkpt>
      <trkpt lat="36.7902" lon="-118.59873">
        <ele>1529.41</ele>
        <time>2024-08-17T16:30:47Z</time>
      </trkpt>
      <trkpt lat="36.79018" lon="-118.59872">
        <ele>1529.42</ele>
        <time>2024-08-17T16:30:51Z</time>
      </trkpt>
      <trkpt lat="36.79017" lon="-118.59867">
        <ele>1528.07</ele>
        <time>2024-08-17T16:30:55Z</time>
      </trkpt>
      <trkpt lat="36.79015" lon="-118.59863">
        <ele>1526.99</ele>
        <time>2024-08-17T16:30:57Z</time>
      </trkpt>
      <trkpt lat="36.79014" lon="-118.59859">
        <ele>1526.14</ele>
        <time>2024-08-17T16:30:59Z</time>
      </trkpt>
      <trkpt lat="36.79012" lon="-118.59855">
        <ele>1525.85</ele>
        <time>2024-08-17T16:31:02Z</time>
      </trkpt>
      <trkpt lat="36.79012" lon="-118.5985">
        <ele>1525.35</ele>
        <time>2024-08-17T16:31:05Z</time>
      </trkpt>
      <trkpt lat="36.79013" lon="-118.59847">
        <ele>1524.98</ele>
        <time>2024-08-17T16:31:07Z</time>
      </trkpt>
      <trkpt lat="36.79014" lon="-118.59844">
        <ele>1524.54</ele>
        <time>2024-08-17T16:31:09Z</time>
      </trkpt>
      <trkpt lat="36.79014" lon="-118.5984">
        <ele>1524.74</ele>
        <time>2024-08-17T16:31:13Z</time>
      </trkpt>
      <trkpt lat="36.79013" lon="-118.59837">
        <ele>1525.39</ele>
        <time>2024-08-17T16:31:16Z</time>
      </trkpt>
      <trkpt lat="36.79012" lon="-118.59833">
        <ele>1526.2</ele>
        <time>2024-08-17T16:31:19Z</time>
      </trkpt>
      <trkpt lat="36.79011" lon="-118.59829">
        <ele>1527.66</ele>
        <time>2024-08-17T16:31:22Z</time>
      </trkpt>
      <trkpt lat="36.7901" lon="-118.59825">
        <ele>1529.32</ele>
        <time>2024-08-17T16:31:25Z</time>
      </trkpt>
      <trkpt lat="36.7901" lon="-118.5982">
        <ele>1530.48</ele>
        <time>2024-08-17T16:31:28Z</time>
      </trkpt>
      <trkpt lat="36.7901" lon="-118.59816">
        <ele>1531.34</ele>
        <time>2024-08-17T16:31:32Z</time>
      </trkpt>
      <trkpt lat="36.7901" lon="-118.59813">
        <ele>1532.01</ele>
        <time>2024-08-17T16:31:36Z</time>
      </trkpt>
      <trkpt lat="36.79011" lon="-118.59809">
        <ele>1532.43</ele>
        <time>2024-08-17T16:31:41Z</time>
      </trkpt>
      <trkpt lat="36.79012" lon="-118.59805">
        <ele>1532.88</ele>
        <time>2024-08-17T16:31:44Z</time>
      </trkpt>
      <trkpt lat="36.79014" lon="-118.59803">
        <ele>1532.23</ele>
        <time>2024-08-17T16:31:47Z</time>
      </trkpt>
      <trkpt lat="36.79016" lon="-118.598">
        <ele>1531.69</ele>
        <time>2024-08-17T16:31:51Z</time>
      </trkpt>
      <trkpt lat="36.79016" lon="-118.59796">
        <ele>1532.15</ele>
        <time>2024-08-17T16:31:55Z</time>
      </trkpt>
      <trkpt lat="36.79015" lon="-118.59792">
        <ele>1533.45</ele>
        <time>2024-08-17T16:31:58Z</time>
      </trkpt>
      <trkpt lat="36.79012" lon="-118.59788">
        <ele>1535.61</ele>
        <time>2024-08-17T16:32:01Z</time>
      </trkpt>
      <trkpt lat="36.79011" lon="-118.59784">
        <ele>1536.58</ele>
        <time>2024-08-17T16:32:04Z</time>
      </trkpt>
      <trkpt lat="36.79012" lon="-118.59779">
        <ele>1536.68</ele>
        <time>2024-08-17T16:32:07Z</time>
      </trkpt>
      <trkpt lat="36.79013" lon="-118.59776">
        <ele>1536.58</ele>
        <time>2024-08-17T16:32:10Z</time>
      </trkpt>
      <trkpt lat="36.79012" lon="-118.59773">
        <ele>1537.33</ele>
        <time>2024-08-17T16:32:14Z</time>
      </trkpt>
      <trkpt lat="36.7901" lon="-118.59769">
        <ele>1538.63</ele>
        <time>2024-08-17T16:32:17Z</time>
      </trkpt>
      <trkpt lat="36.7901" lon="-118.59766">
        <ele>1538.95</ele>
        <time>2024-08-17T16:32:19Z</time>
      </trkpt>
      <trkpt lat="36.79011" lon="-118.59761">
        <ele>1539.06</ele>
        <time>2024-08-17T16:32:22Z</time>
      </trkpt>
      <trkpt lat="36.79011" lon="-118.59757">
        <ele>1539.49</ele>
        <time>2024-08-17T16:32:25Z</time>
      </trkpt>
      <trkpt lat="36.79012" lon="-118.59752">
        <ele>1539.6</ele>
        <time>2024-08-17T16:32:29Z</time>
      </trkpt>
      <trkpt lat="36.79012" lon="-118.59748">
        <ele>1540.03</ele>
        <time>2024-08-17T16:32:32Z</time>
      </trkpt>
      <trkpt lat="36.79012" lon="-118.59744">
        <ele>1540.46</ele>
        <time>2024-08-17T16:32:35Z</time>
      </trkpt>
      <trkpt lat="36.79013" lon="-118.5974">
        <ele>1540.46</ele>
        <time>2024-08-17T16:32:38Z</time>
      </trkpt>
      <trkpt lat="36.79014" lon="-118.59735">
        <ele>1540.57</ele>
        <time>2024-08-17T16:32:41Z</time>
      </trkpt>
      <trkpt lat="36.79015" lon="-118.59731">
        <ele>1540.57</ele>
        <time>2024-08-17T16:32:44Z</time>
      </trkpt>
      <trkpt lat="36.79016" lon="-118.59727">
        <ele>1540.57</ele>
        <time>2024-08-17T16:32:47Z</time>
      </trkpt>
      <trkpt lat="36.79017" lon="-118.59724">
        <ele>1540.46</ele>
        <time>2024-08-17T16:32:50Z</time>
      </trkpt>
      <trkpt lat="36.79019" lon="-118.59721">
        <ele>1539.92</ele>
        <time>2024-08-17T16:32:54Z</time>
      </trkpt>
      <trkpt lat="36.7902" lon="-118.59717">
        <ele>1539.92</ele>
        <time>2024-08-17T16:32:57Z</time>
      </trkpt>
      <trkpt lat="36.7902" lon="-118.59713">
        <ele>1540.36</ele>
        <time>2024-08-17T16:33:00Z</time>
      </trkpt>
      <trkpt lat="36.79021" lon="-118.5971">
        <ele>1540.25</ele>
        <time>2024-08-17T16:33:03Z</time>
      </trkpt>
      <trkpt lat="36.79022" lon="-118.59707">
        <ele>1540.14</ele>
        <time>2024-08-17T16:33:06Z</time>
      </trkpt>
      <trkpt lat="36.79024" lon="-118.59704">
        <ele>1539.6</ele>
        <time>2024-08-17T16:33:09Z</time>
      </trkpt>
      <trkpt lat="36.79026" lon="-118.597">
        <ele>1538.84</ele>
        <time>2024-08-17T16:33:12Z</time>
      </trkpt>
      <trkpt lat="36.79028" lon="-118.59697">
        <ele>1537.93</ele>
        <time>2024-08-17T16:33:15Z</time>
      </trkpt>
      <trkpt lat="36.79029" lon="-118.59693">
        <ele>1537.76</ele>
        <time>2024-08-17T16:33:18Z</time>
      </trkpt>
      <trkpt lat="36.79031" lon="-118.5969">
        <ele>1537.44</ele>
        <time>2024-08-17T16:33:21Z</time>
      </trkpt>
      <trkpt lat="36.79034" lon="-118.59688">
        <ele>1536.68</ele>
        <time>2024-08-17T16:33:24Z</time>
      </trkpt>
      <trkpt lat="36.79035" lon="-118.59685">
        <ele>1536.66</ele>
        <time>2024-08-17T16:33:27Z</time>
      </trkpt>
      <trkpt lat="36.79036" lon="-118.59682">
        <ele>1536.37</ele>
        <time>2024-08-17T16:33:30Z</time>
      </trkpt>
      <trkpt lat="36.79039" lon="-118.59679">
        <ele>1535.51</ele>
        <time>2024-08-17T16:33:33Z</time>
      </trkpt>
      <trkpt lat="36.79042" lon="-118.59677">
        <ele>1534.87</ele>
        <time>2024-08-17T16:33:36Z</time>
      </trkpt>
      <trkpt lat="36.79045" lon="-118.59675">
        <ele>1534.29</ele>
        <time>2024-08-17T16:33:40Z</time>
      </trkpt>
      <trkpt lat="36.79045" lon="-118.59671">
        <ele>1534.35</ele>
        <time>2024-08-17T16:33:46Z</time>
      </trkpt>
      <trkpt lat="36.79045" lon="-118.59667">
        <ele>1534.41</ele>
        <time>2024-08-17T16:33:49Z</time>
      </trkpt>
      <trkpt lat="36.79046" lon="-118.59663">
        <ele>1534.1</ele>
        <time>2024-08-17T16:33:52Z</time>
      </trkpt>
      <trkpt lat="36.79047" lon="-118.59659">
        <ele>1533.77</ele>
        <time>2024-08-17T16:33:55Z</time>
      </trkpt>
      <trkpt lat="36.79048" lon="-118.59656">
        <ele>1533.48</ele>
        <time>2024-08-17T16:33:58Z</time>
      </trkpt>
      <trkpt lat="36.79049" lon="-118.59652">
        <ele>1533.29</ele>
        <time>2024-08-17T16:34:01Z</time>
      </trkpt>
      <trkpt lat="36.79051" lon="-118.59648">
        <ele>1532.99</ele>
        <time>2024-08-17T16:34:06Z</time>
      </trkpt>
      <trkpt lat="36.79052" lon="-118.59645">
        <ele>1532.9</ele>
        <time>2024-08-17T16:34:09Z</time>
      </trkpt>
      <trkpt lat="36.79053" lon="-118.59642">
        <ele>1532.74</ele>
        <time>2024-08-17T16:34:13Z</time>
      </trkpt>
      <trkpt lat="36.79054" lon="-118.59638">
        <ele>1532.5</ele>
        <time>2024-08-17T16:34:17Z</time>
      </trkpt>
      <trkpt lat="36.79055" lon="-118.59635">
        <ele>1532.18</ele>
        <time>2024-08-17T16:34:22Z</time>
      </trkpt>
      <trkpt lat="36.79056" lon="-118.5963">
        <ele>1531.9</ele>
        <time>2024-08-17T16:34:25Z</time>
      </trkpt>
      <trkpt lat="36.79057" lon="-118.59626">
        <ele>1532.02</ele>
        <time>2024-08-17T16:34:28Z</time>
      </trkpt>
      <trkpt lat="36.79059" lon="-118.59621">
        <ele>1531.84</ele>
        <time>2024-08-17T16:34:31Z</time>
      </trkpt>
      <trkpt lat="36.79061" lon="-118.59618">
        <ele>1531.49</ele>
        <time>2024-08-17T16:34:35Z</time>
      </trkpt>
      <trkpt lat="36.79064" lon="-118.59617">
        <ele>1530.63</ele>
        <time>2024-08-17T16:34:39Z</time>
      </trkpt>
      <trkpt lat="36.79066" lon="-118.59613">
        <ele>1530.41</ele>
        <time>2024-08-17T16:34:42Z</time>
      </trkpt>
      <trkpt lat="36.79067" lon="-118.59608">
        <ele>1530.88</ele>
        <time>2024-08-17T16:34:45Z</time>
      </trkpt>
      <trkpt lat="36.79068" lon="-118.59605">
        <ele>1531.06</ele>
        <time>2024-08-17T16:34:48Z</time>
      </trkpt>
      <trkpt lat="36.79068" lon="-118.596">
        <ele>1531.89</ele>
        <time>2024-08-17T16:34:52Z</time>
      </trkpt>
      <trkpt lat="36.79069" lon="-118.59596">
        <ele>1532.11</ele>
        <time>2024-08-17T16:34:55Z</time>
      </trkpt>
      <trkpt lat="36.7907" lon="-118.59593">
        <ele>1532.25</ele>
        <time>2024-08-17T16:34:57Z</time>
      </trkpt>
      <trkpt lat="36.79071" lon="-118.59589">
        <ele>1532.77</ele>
        <time>2024-08-17T16:34:59Z</time>
      </trkpt>
      <trkpt lat="36.79073" lon="-118.59585">
        <ele>1532.99</ele>
        <time>2024-08-17T16:35:02Z</time>
      </trkpt>
      <trkpt lat="36.79076" lon="-118.59582">
        <ele>1532.87</ele>
        <time>2024-08-17T16:35:05Z</time>
      </trkpt>
      <trkpt lat="36.79079" lon="-118.59581">
        <ele>1532.44</ele>
        <time>2024-08-17T16:35:07Z</time>
      </trkpt>
      <trkpt lat="36.79081" lon="-118.59583">
        <ele>1531.58</ele>
        <time>2024-08-17T16:35:10Z</time>
      </trkpt>
      <trkpt lat="36.79083" lon="-118.59586">
        <ele>1530.5</ele>
        <time>2024-08-17T16:35:13Z</time>
      </trkpt>
      <trkpt lat="36.79085" lon="-118.5959">
        <ele>1529.2</ele>
        <time>2024-08-17T16:35:16Z</time>
      </trkpt>
      <trkpt lat="36.79087" lon="-118.59593">
        <ele>1528.14</ele>
        <time>2024-08-17T16:35:19Z</time>
      </trkpt>
      <trkpt lat="36.7909" lon="-118.59595">
        <ele>1527.23</ele>
        <time>2024-08-17T16:35:22Z</time>
      </trkpt>
      <trkpt lat="36.79091" lon="-118.59598">
        <ele>1526.66</ele>
        <time>2024-08-17T16:35:29Z</time>
      </trkpt>
      <trkpt lat="36.7909" lon="-118.59601">
        <ele>1526.4</ele>
        <time>2024-08-17T16:35:35Z</time>
      </trkpt>
      <trkpt lat="36.79088" lon="-118.59603">
        <ele>1526.25</ele>
        <time>2024-08-17T16:35:54Z</time>
      </trkpt>
      <trkpt lat="36.79091" lon="-118.59603">
        <ele>1525.92</ele>
        <time>2024-08-17T16:36:06Z</time>
      </trkpt>
      <trkpt lat="36.79095" lon="-118.59602">
        <ele>1525.71</ele>
        <time>2024-08-17T16:36:10Z</time>
      </trkpt>
      <trkpt lat="36.79097" lon="-118.59603">
        <ele>1525.34</ele>
        <time>2024-08-17T16:36:13Z</time>
      </trkpt>
      <trkpt lat="36.791" lon="-118.59605">
        <ele>1524.79</ele>
        <time>2024-08-17T16:36:16Z</time>
      </trkpt>
      <trkpt lat="36.79103" lon="-118.59604">
        <ele>1524.77</ele>
        <time>2024-08-17T16:36:20Z</time>
      </trkpt>
      <trkpt lat="36.79106" lon="-118.59603">
        <ele>1524.88</ele>
        <time>2024-08-17T16:36:24Z</time>
      </trkpt>
      <trkpt lat="36.79109" lon="-118.59601">
        <ele>1525.09</ele>
        <time>2024-08-17T16:36:28Z</time>
      </trkpt>
      <trkpt lat="36.79113" lon="-118.59601">
        <ele>1524.89</ele>
        <time>2024-08-17T16:36:32Z</time>
      </trkpt>
      <trkpt lat="36.79115" lon="-118.596">
        <ele>1524.78</ele>
        <time>2024-08-17T16:36:35Z</time>
      </trkpt>
      <trkpt lat="36.79118" lon="-118.59599">
        <ele>1524.56</ele>
        <time>2024-08-17T16:36:38Z</time>
      </trkpt>
      <trkpt lat="36.79122" lon="-118.59599">
        <ele>1524.31</ele>
        <time>2024-08-17T16:36:42Z</time>
      </trkpt>
      <trkpt lat="36.79125" lon="-118.59599">
        <ele>1524.31</ele>
        <time>2024-08-17T16:36:45Z</time>
      </trkpt>
      <trkpt lat="36.79128" lon="-118.59598">
        <ele>1524.42</ele>
        <time>2024-08-17T16:36:49Z</time>
      </trkpt>
      <trkpt lat="36.79131" lon="-118.59597">
        <ele>1524.45</ele>
        <time>2024-08-17T16:36:52Z</time>
      </trkpt>
      <trkpt lat="36.79134" lon="-118.59596">
        <ele>1524.33</ele>
        <time>2024-08-17T16:36:56Z</time>
      </trkpt>
      <trkpt lat="36.79137" lon="-118.59596">
        <ele>1524.13</ele>
        <time>2024-08-17T16:36:59Z</time>
      </trkpt>
      <trkpt lat="36.7914" lon="-118.59595">
        <ele>1523.97</ele>
        <time>2024-08-17T16:37:03Z</time>
      </trkpt>
      <trkpt lat="36.79143" lon="-118.59594">
        <ele>1523.93</ele>
        <time>2024-08-17T16:37:08Z</time>
      </trkpt>
      <trkpt lat="36.79145" lon="-118.59595">
        <ele>1523.83</ele>
        <time>2024-08-17T16:37:15Z</time>
      </trkpt>
      <trkpt lat="36.79148" lon="-118.59596">
        <ele>1523.64</ele>
        <time>2024-08-17T16:37:28Z</time>
      </trkpt>
      <trkpt lat="36.7915" lon="-118.59599">
        <ele>1523.25</ele>
        <time>2024-08-17T16:37:56Z</time>
      </trkpt>
      <trkpt lat="36.79152" lon="-118.59596">
        <ele>1523.37</ele>
        <time>2024-08-17T16:38:06Z</time>
      </trkpt>
      <trkpt lat="36.79155" lon="-118.59595">
        <ele>1523.19</ele>
        <time>2024-08-17T16:38:11Z</time>
      </trkpt>
      <trkpt lat="36.79157" lon="-118.59594">
        <ele>1523.04</ele>
        <time>2024-08-17T16:38:15Z</time>
      </trkpt>
      <trkpt lat="36.7916" lon="-118.59593">
        <ele>1522.72</ele>
        <time>2024-08-17T16:38:19Z</time>
      </trkpt>
      <trkpt lat="36.79163" lon="-118.59591">
        <ele>1522.57</ele>
        <time>2024-08-17T16:38:24Z</time>
      </trkpt>
      <trkpt lat="36.79166" lon="-118.5959">
        <ele>1522.35</ele>
        <time>2024-08-17T16:38:28Z</time>
      </trkpt>
      <trkpt lat="36.79169" lon="-118.59591">
        <ele>1522.13</ele>
        <time>2024-08-17T16:38:44Z</time>
      </trkpt>
      <trkpt lat="36.79173" lon="-118.59591">
        <ele>1522.05</ele>
        <time>2024-08-17T16:38:47Z</time>
      </trkpt>
      <trkpt lat="36.79172" lon="-118.59594">
        <ele>1521.91</ele>
        <time>2024-08-17T16:39:24Z</time>
      </trkpt>
      <trkpt lat="36.79169" lon="-118.59593">
        <ele>1521.99</ele>
        <time>2024-08-17T16:40:07Z</time>
      </trkpt>
      <trkpt lat="36.79166" lon="-118.59596">
        <ele>1522.07</ele>
        <time>2024-08-17T16:40:42Z</time>
      </trkpt>
      <trkpt lat="36.79168" lon="-118.59594">
        <ele>1521.98</ele>
        <time>2024-08-17T16:40:57Z</time>
      </trkpt>
      <trkpt lat="36.7917" lon="-118.59595">
        <ele>1521.91</ele>
        <time>2024-08-17T16:41:17Z</time>
      </trkpt>
      <trkpt lat="36.79169" lon="-118.59598">
        <ele>1521.85</ele>
        <time>2024-08-17T16:41:33Z</time>
      </trkpt>
      <trkpt lat="36.7917" lon="-118.59601">
        <ele>1521.67</ele>
        <time>2024-08-17T16:41:53Z</time>
      </trkpt>
      <trkpt lat="36.79172" lon="-118.59605">
        <ele>1521.28</ele>
        <time>2024-08-17T16:42:10Z</time>
      </trkpt>
      <trkpt lat="36.7917" lon="-118.59602">
        <ele>1521.63</ele>
        <time>2024-08-17T16:42:26Z</time>
      </trkpt>
      <trkpt lat="36.79167" lon="-118.59601">
        <ele>1521.97</ele>
        <time>2024-08-17T16:42:33Z</time>
      </trkpt>
      <trkpt lat="36.79164" lon="-118.596">
        <ele>1522.29</ele>
        <time>2024-08-17T16:42:38Z</time>
      </trkpt>
      <trkpt lat="36.79161" lon="-118.596">
        <ele>1522.61</ele>
        <time>2024-08-17T16:42:43Z</time>
      </trkpt>
      <trkpt lat="36.79158" lon="-118.596">
        <ele>1522.94</ele>
        <time>2024-08-17T16:42:47Z</time>
      </trkpt>
      <trkpt lat="36.79155" lon="-118.59599">
        <ele>1523.08</ele>
        <time>2024-08-17T16:42:52Z</time>
      </trkpt>
      <trkpt lat="36.79152" lon="-118.59599">
        <ele>1523.18</ele>
        <time>2024-08-17T16:42:56Z</time>
      </trkpt>
      <trkpt lat="36.79149" lon="-118.596">
        <ele>1523.18</ele>
        <time>2024-08-17T16:43:00Z</time>
      </trkpt>
      <trkpt lat="36.79147" lon="-118.59602">
        <ele>1523.12</ele>
        <time>2024-08-17T16:43:05Z</time>
      </trkpt>
      <trkpt lat="36.79145" lon="-118.59605">
        <ele>1523.22</ele>
        <time>2024-08-17T16:43:09Z</time>
      </trkpt>
      <trkpt lat="36.79142" lon="-118.59606">
        <ele>1523.37</ele>
        <time>2024-08-17T16:43:12Z</time>
      </trkpt>
      <trkpt lat="36.7914" lon="-118.59606">
        <ele>1523.49</ele>
        <time>2024-08-17T16:43:15Z</time>
      </trkpt>
      <trkpt lat="36.79136" lon="-118.59606">
        <ele>1523.55</ele>
        <time>2024-08-17T16:43:19Z</time>
      </trkpt>
      <trkpt lat="36.79133" lon="-118.59607">
        <ele>1523.44</ele>
        <time>2024-08-17T16:43:23Z</time>
      </trkpt>
      <trkpt lat="36.7913" lon="-118.59607">
        <ele>1523.44</ele>
        <time>2024-08-17T16:43:27Z</time>
      </trkpt>
      <trkpt lat="36.79127" lon="-118.59607">
        <ele>1523.6</ele>
        <time>2024-08-17T16:43:31Z</time>
      </trkpt>
      <trkpt lat="36.79124" lon="-118.59606">
        <ele>1523.82</ele>
        <time>2024-08-17T16:43:34Z</time>
      </trkpt>
      <trkpt lat="36.79121" lon="-118.59606">
        <ele>1523.97</ele>
        <time>2024-08-17T16:43:37Z</time>
      </trkpt>
      <trkpt lat="36.79118" lon="-118.59607">
        <ele>1524.11</ele>
        <time>2024-08-17T16:43:41Z</time>
      </trkpt>
      <trkpt lat="36.79115" lon="-118.59608">
        <ele>1524.19</ele>
        <time>2024-08-17T16:43:45Z</time>
      </trkpt>
      <trkpt lat="36.79112" lon="-118.59608">
        <ele>1524.3</ele>
        <time>2024-08-17T16:43:48Z</time>
      </trkpt>
      <trkpt lat="36.79109" lon="-118.59609">
        <ele>1524.23</ele>
        <time>2024-08-17T16:43:52Z</time>
      </trkpt>
      <trkpt lat="36.79105" lon="-118.59608">
        <ele>1524.34</ele>
        <time>2024-08-17T16:43:56Z</time>
      </trkpt>
      <trkpt lat="36.79102" lon="-118.59608">
        <ele>1524.34</ele>
        <time>2024-08-17T16:43:59Z</time>
      </trkpt>
      <trkpt lat="36.79099" lon="-118.59607">
        <ele>1524.58</ele>
        <time>2024-08-17T16:44:02Z</time>
      </trkpt>
      <trkpt lat="36.79097" lon="-118.59605">
        <ele>1525.01</ele>
        <time>2024-08-17T16:44:05Z</time>
      </trkpt>
      <trkpt lat="36.79094" lon="-118.59603">
        <ele>1525.62</ele>
        <time>2024-08-17T16:44:08Z</time>
      </trkpt>
      <trkpt lat="36.79091" lon="-118.59602">
        <ele>1526.14</ele>
        <time>2024-08-17T16:44:11Z</time>
      </trkpt>
      <trkpt lat="36.79088" lon="-118.596">
        <ele>1526.8</ele>
        <time>2024-08-17T16:44:14Z</time>
      </trkpt>
      <trkpt lat="36.79087" lon="-118.59598">
        <ele>1527.27</ele>
        <time>2024-08-17T16:44:18Z</time>
      </trkpt>
      <trkpt lat="36.79086" lon="-118.59593">
        <ele>1528.35</ele>
        <time>2024-08-17T16:44:22Z</time>
      </trkpt>
      <trkpt lat="36.79083" lon="-118.59592">
        <ele>1529.2</ele>
        <time>2024-08-17T16:44:27Z</time>
      </trkpt>
      <trkpt lat="36.79081" lon="-118.59595">
        <ele>1528.98</ele>
        <time>2024-08-17T16:44:32Z</time>
      </trkpt>
      <trkpt lat="36.79079" lon="-118.59599">
        <ele>1528.55</ele>
        <time>2024-08-17T16:44:37Z</time>
      </trkpt>
      <trkpt lat="36.79077" lon="-118.59603">
        <ele>1528.2</ele>
        <time>2024-08-17T16:44:41Z</time>
      </trkpt>
      <trkpt lat="36.79076" lon="-118.59606">
        <ele>1528.04</ele>
        <time>2024-08-17T16:44:43Z</time>
      </trkpt>
      <trkpt lat="36.79074" lon="-118.59609">
        <ele>1528.25</ele>
        <time>2024-08-17T16:44:46Z</time>
      </trkpt>
      <trkpt lat="36.79072" lon="-118.59613">
        <ele>1528.47</ele>
        <time>2024-08-17T16:44:49Z</time>
      </trkpt>
      <trkpt lat="36.7907" lon="-118.59616">
        <ele>1528.79</ele>
        <time>2024-08-17T16:44:51Z</time>
      </trkpt>
      <trkpt lat="36.79068" lon="-118.59619">
        <ele>1529.12</ele>
        <time>2024-08-17T16:44:54Z</time>
      </trkpt>
      <trkpt lat="36.79065" lon="-118.59622">
        <ele>1529.94</ele>
        <time>2024-08-17T16:44:57Z</time>
      </trkpt>
      <trkpt lat="36.79064" lon="-118.59625">
        <ele>1530.22</ele>
        <time>2024-08-17T16:44:59Z</time>
      </trkpt>
      <trkpt lat="36.79061" lon="-118.59629">
        <ele>1530.85</ele>
        <time>2024-08-17T16:45:02Z</time>
      </trkpt>
      <trkpt lat="36.79059" lon="-118.59632">
        <ele>1531.16</ele>
        <time>2024-08-17T16:45:04Z</time>
      </trkpt>
      <trkpt lat="36.79058" lon="-118.59635">
        <ele>1531.32</ele>
        <time>2024-08-17T16:45:07Z</time>
      </trkpt>
      <trkpt lat="36.79055" lon="-118.59638">
        <ele>1532.18</ele>
        <time>2024-08-17T16:45:12Z</time>
      </trkpt>
      <trkpt lat="36.79054" lon="-118.59641">
        <ele>1532.47</ele>
        <time>2024-08-17T16:45:15Z</time>
      </trkpt>
      <trkpt lat="36.79053" lon="-118.59645">
        <ele>1532.65</ele>
        <time>2024-08-17T16:45:18Z</time>
      </trkpt>
      <trkpt lat="36.79053" lon="-118.59649">
        <ele>1532.49</ele>
        <time>2024-08-17T16:45:22Z</time>
      </trkpt>
      <trkpt lat="36.79051" lon="-118.59653">
        <ele>1532.72</ele>
        <time>2024-08-17T16:45:26Z</time>
      </trkpt>
      <trkpt lat="36.7905" lon="-118.59656">
        <ele>1532.86</ele>
        <time>2024-08-17T16:45:29Z</time>
      </trkpt>
      <trkpt lat="36.79049" lon="-118.5966">
        <ele>1533.12</ele>
        <time>2024-08-17T16:45:33Z</time>
      </trkpt>
      <trkpt lat="36.79049" lon="-118.59663">
        <ele>1533.12</ele>
        <time>2024-08-17T16:45:37Z</time>
      </trkpt>
      <trkpt lat="36.79049" lon="-118.59667">
        <ele>1533.12</ele>
        <time>2024-08-17T16:45:41Z</time>
      </trkpt>
      <trkpt lat="36.79048" lon="-118.5967">
        <ele>1533.45</ele>
        <time>2024-08-17T16:45:44Z</time>
      </trkpt>
      <trkpt lat="36.79045" lon="-118.59672">
        <ele>1534.34</ele>
        <time>2024-08-17T16:45:47Z</time>
      </trkpt>
      <trkpt lat="36.79044" lon="-118.59676">
        <ele>1534.49</ele>
        <time>2024-08-17T16:45:50Z</time>
      </trkpt>
      <trkpt lat="36.79043" lon="-118.59679">
        <ele>1534.5</ele>
        <time>2024-08-17T16:45:52Z</time>
      </trkpt>
      <trkpt lat="36.79041" lon="-118.59682">
        <ele>1534.86</ele>
        <time>2024-08-17T16:45:55Z</time>
      </trkpt>
      <trkpt lat="36.7904" lon="-118.59686">
        <ele>1534.98</ele>
        <time>2024-08-17T16:45:58Z</time>
      </trkpt>
      <trkpt lat="36.79039" lon="-118.59689">
        <ele>1535.04</ele>
        <time>2024-08-17T16:46:01Z</time>
      </trkpt>
      <trkpt lat="36.79036" lon="-118.59692">
        <ele>1535.6</ele>
        <time>2024-08-17T16:46:03Z</time>
      </trkpt>
      <trkpt lat="36.79034" lon="-118.59694">
        <ele>1536.03</ele>
        <time>2024-08-17T16:46:05Z</time>
      </trkpt>
      <trkpt lat="36.79032" lon="-118.59696">
        <ele>1536.63</ele>
        <time>2024-08-17T16:46:07Z</time>
      </trkpt>
      <trkpt lat="36.7903" lon="-118.597">
        <ele>1537.28</ele>
        <time>2024-08-17T16:46:10Z</time>
      </trkpt>
      <trkpt lat="36.79028" lon="-118.59703">
        <ele>1537.93</ele>
        <time>2024-08-17T16:46:13Z</time>
      </trkpt>
      <trkpt lat="36.79026" lon="-118.59706">
        <ele>1538.52</ele>
        <time>2024-08-17T16:46:16Z</time>
      </trkpt>
      <trkpt lat="36.79024" lon="-118.5971">
        <ele>1538.95</ele>
        <time>2024-08-17T16:46:20Z</time>
      </trkpt>
      <trkpt lat="36.79024" lon="-118.59713">
        <ele>1538.63</ele>
        <time>2024-08-17T16:46:23Z</time>
      </trkpt>
      <trkpt lat="36.79023" lon="-118.59717">
        <ele>1538.63</ele>
        <time>2024-08-17T16:46:27Z</time>
      </trkpt>
      <trkpt lat="36.7902" lon="-118.59719">
        <ele>1539.71</ele>
        <time>2024-08-17T16:46:30Z</time>
      </trkpt>
      <trkpt lat="36.79017" lon="-118.59723">
        <ele>1540.57</ele>
        <time>2024-08-17T16:46:34Z</time>
      </trkpt>
      <trkpt lat="36.79016" lon="-118.59727">
        <ele>1540.57</ele>
        <time>2024-08-17T16:46:37Z</time>
      </trkpt>
      <trkpt lat="36.79015" lon="-118.5973">
        <ele>1540.68</ele>
        <time>2024-08-17T16:46:39Z</time>
      </trkpt>
      <trkpt lat="36.79013" lon="-118.59734">
        <ele>1541.11</ele>
        <time>2024-08-17T16:46:42Z</time>
      </trkpt>
      <trkpt lat="36.79013" lon="-118.59738">
        <ele>1540.68</ele>
        <time>2024-08-17T16:46:45Z</time>
      </trkpt>
      <trkpt lat="36.79012" lon="-118.59741">
        <ele>1540.79</ele>
        <time>2024-08-17T16:46:48Z</time>
      </trkpt>
      <trkpt lat="36.79013" lon="-118.59745">
        <ele>1539.92</ele>
        <time>2024-08-17T16:46:51Z</time>
      </trkpt>
      <trkpt lat="36.79013" lon="-118.59749">
        <ele>1539.49</ele>
        <time>2024-08-17T16:46:54Z</time>
      </trkpt>
      <trkpt lat="36.79012" lon="-118.59753">
        <ele>1539.49</ele>
        <time>2024-08-17T16:46:57Z</time>
      </trkpt>
      <trkpt lat="36.79011" lon="-118.59757">
        <ele>1539.49</ele>
        <time>2024-08-17T16:47:00Z</time>
      </trkpt>
      <trkpt lat="36.79011" lon="-118.59762">
        <ele>1538.95</ele>
        <time>2024-08-17T16:47:03Z</time>
      </trkpt>
      <trkpt lat="36.79013" lon="-118.59765">
        <ele>1537.76</ele>
        <time>2024-08-17T16:47:06Z</time>
      </trkpt>
      <trkpt lat="36.79014" lon="-118.59769">
        <ele>1536.9</ele>
        <time>2024-08-17T16:47:10Z</time>
      </trkpt>
      <trkpt lat="36.79012" lon="-118.59773">
        <ele>1537.33</ele>
        <time>2024-08-17T16:47:14Z</time>
      </trkpt>
      <trkpt lat="36.79011" lon="-118.59776">
        <ele>1537.44</ele>
        <time>2024-08-17T16:47:18Z</time>
      </trkpt>
      <trkpt lat="36.79012" lon="-118.5978">
        <ele>1536.58</ele>
        <time>2024-08-17T16:47:22Z</time>
      </trkpt>
      <trkpt lat="36.79013" lon="-118.59783">
        <ele>1535.82</ele>
        <time>2024-08-17T16:47:25Z</time>
      </trkpt>
      <trkpt lat="36.79013" lon="-118.59787">
        <ele>1535.39</ele>
        <time>2024-08-17T16:47:29Z</time>
      </trkpt>
      <trkpt lat="36.79014" lon="-118.5979">
        <ele>1534.31</ele>
        <time>2024-08-17T16:47:32Z</time>
      </trkpt>
      <trkpt lat="36.79015" lon="-118.59795">
        <ele>1532.8</ele>
        <time>2024-08-17T16:47:35Z</time>
      </trkpt>
      <trkpt lat="36.79014" lon="-118.59798">
        <ele>1532.77</ele>
        <time>2024-08-17T16:47:41Z</time>
      </trkpt>
      <trkpt lat="36.79016" lon="-118.59802">
        <ele>1531.47</ele>
        <time>2024-08-17T16:47:58Z</time>
      </trkpt>
      <trkpt lat="36.79017" lon="-118.59806">
        <ele>1530.52</ele>
        <time>2024-08-17T16:48:00Z</time>
      </trkpt>
      <trkpt lat="36.79018" lon="-118.5981">
        <ele>1528.81</ele>
        <time>2024-08-17T16:48:02Z</time>
      </trkpt>
      <trkpt lat="36.79018" lon="-118.59814">
        <ele>1527.54</ele>
        <time>2024-08-17T16:48:05Z</time>
      </trkpt>
      <trkpt lat="36.79018" lon="-118.59818">
        <ele>1526.59</ele>
        <time>2024-08-17T16:48:08Z</time>
      </trkpt>
      <trkpt lat="36.79019" lon="-118.59821">
        <ele>1525.59</ele>
        <time>2024-08-17T16:48:11Z</time>
      </trkpt>
      <trkpt lat="36.79021" lon="-118.59826">
        <ele>1524.47</ele>
        <time>2024-08-17T16:48:14Z</time>
      </trkpt>
      <trkpt lat="36.79022" lon="-118.5983">
        <ele>1523.74</ele>
        <time>2024-08-17T16:48:17Z</time>
      </trkpt>
      <trkpt lat="36.79022" lon="-118.59835">
        <ele>1523.14</ele>
        <time>2024-08-17T16:48:20Z</time>
      </trkpt>
      <trkpt lat="36.79021" lon="-118.59838">
        <ele>1523.1</ele>
        <time>2024-08-17T16:48:22Z</time>
      </trkpt>
      <trkpt lat="36.79018" lon="-118.59841">
        <ele>1523.34</ele>
        <time>2024-08-17T16:48:24Z</time>
      </trkpt>
      <trkpt lat="36.79016" lon="-118.59844">
        <ele>1523.93</ele>
        <time>2024-08-17T16:48:27Z</time>
      </trkpt>
      <trkpt lat="36.79017" lon="-118.59849">
        <ele>1524.07</ele>
        <time>2024-08-17T16:48:30Z</time>
      </trkpt>
      <trkpt lat="36.79019" lon="-118.59853">
        <ele>1524.24</ele>
        <time>2024-08-17T16:48:33Z</time>
      </trkpt>
      <trkpt lat="36.79019" lon="-118.59857">
        <ele>1525.08</ele>
        <time>2024-08-17T16:48:37Z</time>
      </trkpt>
      <trkpt lat="36.7902" lon="-118.59861">
        <ele>1525.82</ele>
        <time>2024-08-17T16:48:41Z</time>
      </trkpt>
      <trkpt lat="36.79023" lon="-118.59862">
        <ele>1525.8</ele>
        <time>2024-08-17T16:48:45Z</time>
      </trkpt>
      <trkpt lat="36.79026" lon="-118.59861">
        <ele>1525.18</ele>
        <time>2024-08-17T16:48:52Z</time>
      </trkpt>
      <trkpt lat="36.79029" lon="-118.59863">
        <ele>1525.59</ele>
        <time>2024-08-17T16:48:54Z</time>
      </trkpt>
      <trkpt lat="36.79031" lon="-118.59865">
        <ele>1526.11</ele>
        <time>2024-08-17T16:48:56Z</time>
      </trkpt>
      <trkpt lat="36.79033" lon="-118.59867">
        <ele>1526.55</ele>
        <time>2024-08-17T16:48:58Z</time>
      </trkpt>
      <trkpt lat="36.79036" lon="-118.59869">
        <ele>1526.8</ele>
        <time>2024-08-17T16:49:01Z</time>
      </trkpt>
      <trkpt lat="36.79039" lon="-118.59871">
        <ele>1526.64</ele>
        <time>2024-08-17T16:49:04Z</time>
      </trkpt>
      <trkpt lat="36.79041" lon="-118.59872">
        <ele>1526.32</ele>
        <time>2024-08-17T16:49:07Z</time>
      </trkpt>
      <trkpt lat="36.79044" lon="-118.59875">
        <ele>1526.0</ele>
        <time>2024-08-17T16:49:10Z</time>
      </trkpt>
      <trkpt lat="36.79047" lon="-118.59877">
        <ele>1525.64</ele>
        <time>2024-08-17T16:49:13Z</time>
      </trkpt>
      <trkpt lat="36.79049" lon="-118.59877">
        <ele>1525.42</ele>
        <time>2024-08-17T16:49:17Z</time>
      </trkpt>
      <trkpt lat="36.79053" lon="-118.59875">
        <ele>1524.78</ele>
        <time>2024-08-17T16:49:20Z</time>
      </trkpt>
      <trkpt lat="36.79056" lon="-118.59876">
        <ele>1524.56</ele>
        <time>2024-08-17T16:49:22Z</time>
      </trkpt>
      <trkpt lat="36.79058" lon="-118.59879">
        <ele>1524.67</ele>
        <time>2024-08-17T16:49:25Z</time>
      </trkpt>
      <trkpt lat="36.79061" lon="-118.59882">
        <ele>1524.67</ele>
        <time>2024-08-17T16:49:27Z</time>
      </trkpt>
      <trkpt lat="36.79066" lon="-118.59888">
        <ele>1524.66</ele>
        <time>2024-08-17T16:49:29Z</time>
      </trkpt>
      <trkpt lat="36.79068" lon="-118.59892">
        <ele>1524.43</ele>
        <time>2024-08-17T16:49:32Z</time>
      </trkpt>
      <trkpt lat="36.79069" lon="-118.59896">
        <ele>1524.44</ele>
        <time>2024-08-17T16:49:35Z</time>
      </trkpt>
      <trkpt lat="36.79071" lon="-118.599">
        <ele>1524.33</ele>
        <time>2024-08-17T16:49:37Z</time>
      </trkpt>
      <trkpt lat="36.79072" lon="-118.59903">
        <ele>1524.22</ele>
        <time>2024-08-17T16:49:39Z</time>
      </trkpt>
      <trkpt lat="36.79074" lon="-118.59907">
        <ele>1524.01</ele>
        <time>2024-08-17T16:49:42Z</time>
      </trkpt>
      <trkpt lat="36.79076" lon="-118.59912">
        <ele>1523.79</ele>
        <time>2024-08-17T16:49:45Z</time>
      </trkpt>
      <trkpt lat="36.79077" lon="-118.59915">
        <ele>1523.68</ele>
        <time>2024-08-17T16:49:47Z</time>
      </trkpt>
      <trkpt lat="36.79079" lon="-118.59919">
        <ele>1523.59</ele>
        <time>2024-08-17T16:49:50Z</time>
      </trkpt>
      <trkpt lat="36.7908" lon="-118.59923">
        <ele>1523.61</ele>
        <time>2024-08-17T16:49:53Z</time>
      </trkpt>
      <trkpt lat="36.79081" lon="-118.59928">
        <ele>1523.5</ele>
        <time>2024-08-17T16:49:57Z</time>
      </trkpt>
      <trkpt lat="36.79081" lon="-118.59931">
        <ele>1523.5</ele>
        <time>2024-08-17T16:49:59Z</time>
      </trkpt>
      <trkpt lat="36.79081" lon="-118.59935">
        <ele>1523.5</ele>
        <time>2024-08-17T16:50:02Z</time>
      </trkpt>
      <trkpt lat="36.79083" lon="-118.59939">
        <ele>1523.47</ele>
        <time>2024-08-17T16:50:06Z</time>
      </trkpt>
      <trkpt lat="36.79084" lon="-118.59944">
        <ele>1523.81</ele>
        <time>2024-08-17T16:50:09Z</time>
      </trkpt>
      <trkpt lat="36.79086" lon="-118.59948">
        <ele>1523.15</ele>
        <time>2024-08-17T16:50:12Z</time>
      </trkpt>
      <trkpt lat="36.79087" lon="-118.59952">
        <ele>1522.72</ele>
        <time>2024-08-17T16:50:15Z</time>
      </trkpt>
      <trkpt lat="36.79088" lon="-118.59955">
        <ele>1522.5</ele>
        <time>2024-08-17T16:50:17Z</time>
      </trkpt>
      <trkpt lat="36.79088" lon="-118.59959">
        <ele>1522.5</ele>
        <time>2024-08-17T16:50:19Z</time>
      </trkpt>
      <trkpt lat="36.79089" lon="-118.59963">
        <ele>1522.39</ele>
        <time>2024-08-17T16:50:22Z</time>
      </trkpt>
      <trkpt lat="36.7909" lon="-118.59967">
        <ele>1522.28</ele>
        <time>2024-08-17T16:50:25Z</time>
      </trkpt>
      <trkpt lat="36.79093" lon="-118.59971">
        <ele>1521.96</ele>
        <time>2024-08-17T16:50:28Z</time>
      </trkpt>
      <trkpt lat="36.79095" lon="-118.59974">
        <ele>1521.74</ele>
        <time>2024-08-17T16:50:31Z</time>
      </trkpt>
      <trkpt lat="36.79096" lon="-118.59978">
        <ele>1521.63</ele>
        <time>2024-08-17T16:50:33Z</time>
      </trkpt>
      <trkpt lat="36.79097" lon="-118.59983">
        <ele>1521.45</ele>
        <time>2024-08-17T16:50:35Z</time>
      </trkpt>
      <trkpt lat="36.79098" lon="-118.59986">
        <ele>1521.13</ele>
        <time>2024-08-17T16:50:38Z</time>
      </trkpt>
      <trkpt lat="36.791" lon="-118.5999">
        <ele>1520.46</ele>
        <time>2024-08-17T16:50:42Z</time>
      </trkpt>
      <trkpt lat="36.791" lon="-118.59995">
        <ele>1520.4</ele>
        <time>2024-08-17T16:50:45Z</time>
      </trkpt>
      <trkpt lat="36.791" lon="-118.59999">
        <ele>1520.4</ele>
        <time>2024-08-17T16:50:48Z</time>
      </trkpt>
      <trkpt lat="36.79101" lon="-118.60003">
        <ele>1520.18</ele>
        <time>2024-08-17T16:50:50Z</time>
      </trkpt>
      <trkpt lat="36.79101" lon="-118.60008">
        <ele>1520.18</ele>
        <time>2024-08-17T16:50:52Z</time>
      </trkpt>
      <trkpt lat="36.79101" lon="-118.60012">
        <ele>1519.89</ele>
        <time>2024-08-17T16:50:54Z</time>
      </trkpt>
      <trkpt lat="36.791" lon="-118.60016">
        <ele>1519.67</ele>
        <time>2024-08-17T16:50:56Z</time>
      </trkpt>
      <trkpt lat="36.79099" lon="-118.60021">
        <ele>1519.43</ele>
        <time>2024-08-17T16:50:59Z</time>
      </trkpt>
      <trkpt lat="36.791" lon="-118.60024">
        <ele>1518.93</ele>
        <time>2024-08-17T16:51:04Z</time>
      </trkpt>
      <trkpt lat="36.79103" lon="-118.60026">
        <ele>1517.94</ele>
        <time>2024-08-17T16:51:10Z</time>
      </trkpt>
      <trkpt lat="36.79105" lon="-118.60028">
        <ele>1517.32</ele>
        <time>2024-08-17T16:51:13Z</time>
      </trkpt>
      <trkpt lat="36.79108" lon="-118.6003">
        <ele>1516.67</ele>
        <time>2024-08-17T16:51:15Z</time>
      </trkpt>
      <trkpt lat="36.79111" lon="-118.60032">
        <ele>1516.02</ele>
        <time>2024-08-17T16:51:17Z</time>
      </trkpt>
      <trkpt lat="36.79113" lon="-118.60033">
        <ele>1515.88</ele>
        <time>2024-08-17T16:51:21Z</time>
      </trkpt>
      <trkpt lat="36.79117" lon="-118.60035">
        <ele>1515.5</ele>
        <time>2024-08-17T16:51:26Z</time>
      </trkpt>
      <trkpt lat="36.79119" lon="-118.60039">
        <ele>1514.94</ele>
        <time>2024-08-17T16:51:31Z</time>
      </trkpt>
      <trkpt lat="36.79122" lon="-118.60041">
        <ele>1514.57</ele>
        <time>2024-08-17T16:51:36Z</time>
      </trkpt>
      <trkpt lat="36.79125" lon="-118.60043">
        <ele>1514.36</ele>
        <time>2024-08-17T16:51:39Z</time>
      </trkpt>
      <trkpt lat="36.79129" lon="-118.60045">
        <ele>1514.14</ele>
        <time>2024-08-17T16:51:41Z</time>
      </trkpt>
      <trkpt lat="36.79132" lon="-118.60046">
        <ele>1514.28</ele>
        <time>2024-08-17T16:51:43Z</time>
      </trkpt>
      <trkpt lat="36.79134" lon="-118.60044">
        <ele>1514.6</ele>
        <time>2024-08-17T16:51:51Z</time>
      </trkpt>
      <trkpt lat="36.79137" lon="-118.60042">
        <ele>1514.89</ele>
        <time>2024-08-17T16:51:54Z</time>
      </trkpt>
      <trkpt lat="36.79141" lon="-118.6004">
        <ele>1515.46</ele>
        <time>2024-08-17T16:51:57Z</time>
      </trkpt>
      <trkpt lat="36.79143" lon="-118.60038">
        <ele>1515.89</ele>
        <time>2024-08-17T16:51:59Z</time>
      </trkpt>
      <trkpt lat="36.79144" lon="-118.60033">
        <ele>1516.3</ele>
        <time>2024-08-17T16:52:02Z</time>
      </trkpt>
      <trkpt lat="36.79144" lon="-118.6003">
        <ele>1516.44</ele>
        <time>2024-08-17T16:52:03Z</time>
      </trkpt>
      <trkpt lat="36.79145" lon="-118.60026">
        <ele>1516.73</ele>
        <time>2024-08-17T16:52:05Z</time>
      </trkpt>
      <trkpt lat="36.79147" lon="-118.60023">
        <ele>1516.94</ele>
        <time>2024-08-17T16:52:08Z</time>
      </trkpt>
      <trkpt lat="36.7915" lon="-118.60021">
        <ele>1517.2</ele>
        <time>2024-08-17T16:52:11Z</time>
      </trkpt>
      <trkpt lat="36.79151" lon="-118.60017">
        <ele>1517.47</ele>
        <time>2024-08-17T16:52:13Z</time>
      </trkpt>
      <trkpt lat="36.79151" lon="-118.60012">
        <ele>1518.01</ele>
        <time>2024-08-17T16:52:15Z</time>
      </trkpt>
      <trkpt lat="36.79152" lon="-118.60008">
        <ele>1518.5</ele>
        <time>2024-08-17T16:52:18Z</time>
      </trkpt>
      <trkpt lat="36.79153" lon="-118.60004">
        <ele>1518.79</ele>
        <time>2024-08-17T16:52:22Z</time>
      </trkpt>
      <trkpt lat="36.79153" lon="-118.6">
        <ele>1519.0</ele>
        <time>2024-08-17T16:52:26Z</time>
      </trkpt>
      <trkpt lat="36.79152" lon="-118.59995">
        <ele>1519.22</ele>
        <time>2024-08-17T16:52:30Z</time>
      </trkpt>
      <trkpt lat="36.79151" lon="-118.59991">
        <ele>1519.3</ele>
        <time>2024-08-17T16:52:33Z</time>
      </trkpt>
      <trkpt lat="36.7915" lon="-118.59988">
        <ele>1519.44</ele>
        <time>2024-08-17T16:52:36Z</time>
      </trkpt>
      <trkpt lat="36.79148" lon="-118.59984">
        <ele>1519.72</ele>
        <time>2024-08-17T16:52:39Z</time>
      </trkpt>
      <trkpt lat="36.79148" lon="-118.5998">
        <ele>1519.99</ele>
        <time>2024-08-17T16:52:41Z</time>
      </trkpt>
      <trkpt lat="36.79147" lon="-118.59976">
        <ele>1519.95</ele>
        <time>2024-08-17T16:52:43Z</time>
      </trkpt>
      <trkpt lat="36.79148" lon="-118.59971">
        <ele>1520.0</ele>
        <time>2024-08-17T16:52:46Z</time>
      </trkpt>
      <trkpt lat="36.79148" lon="-118.59967">
        <ele>1520.0</ele>
        <time>2024-08-17T16:52:49Z</time>
      </trkpt>
      <trkpt lat="36.79149" lon="-118.59964">
        <ele>1520.0</ele>
        <time>2024-08-17T16:52:50Z</time>
      </trkpt>
      <trkpt lat="36.7915" lon="-118.5996">
        <ele>1520.0</ele>
        <time>2024-08-17T16:52:52Z</time>
      </trkpt>
      <trkpt lat="36.79153" lon="-118.59956">
        <ele>1520.0</ele>
        <time>2024-08-17T16:52:54Z</time>
      </trkpt>
      <trkpt lat="36.79155" lon="-118.59953">
        <ele>1520.0</ele>
        <time>2024-08-17T16:52:57Z</time>
      </trkpt>
      <trkpt lat="36.79156" lon="-118.5995">
        <ele>1520.0</ele>
        <time>2024-08-17T16:53:01Z</time>
      </trkpt>
      <trkpt lat="36.79158" lon="-118.59946">
        <ele>1520.0</ele>
        <time>2024-08-17T16:53:04Z</time>
      </trkpt>
      <trkpt lat="36.79159" lon="-118.59943">
        <ele>1520.0</ele>
        <time>2024-08-17T16:53:07Z</time>
      </trkpt>
      <trkpt lat="36.7916" lon="-118.59939">
        <ele>1520.0</ele>
        <time>2024-08-17T16:53:11Z</time>
      </trkpt>
      <trkpt lat="36.7916" lon="-118.59936">
        <ele>1520.0</ele>
        <time>2024-08-17T16:53:14Z</time>
      </trkpt>
      <trkpt lat="36.7916" lon="-118.59932">
        <ele>1520.0</ele>
        <time>2024-08-17T16:53:16Z</time>
      </trkpt>
      <trkpt lat="36.79161" lon="-118.59928">
        <ele>1520.0</ele>
        <time>2024-08-17T16:53:19Z</time>
      </trkpt>
      <trkpt lat="36.79161" lon="-118.59924">
        <ele>1519.87</ele>
        <time>2024-08-17T16:53:22Z</time>
      </trkpt>
      <trkpt lat="36.79163" lon="-118.5992">
        <ele>1519.75</ele>
        <time>2024-08-17T16:53:25Z</time>
      </trkpt>
      <trkpt lat="36.79165" lon="-118.59917">
        <ele>1519.83</ele>
        <time>2024-08-17T16:53:27Z</time>
      </trkpt>
      <trkpt lat="36.79167" lon="-118.59914">
        <ele>1520.03</ele>
        <time>2024-08-17T16:53:29Z</time>
      </trkpt>
      <trkpt lat="36.7917" lon="-118.59909">
        <ele>1520.06</ele>
        <time>2024-08-17T16:53:31Z</time>
      </trkpt>
      <trkpt lat="36.79172" lon="-118.59906">
        <ele>1520.0</ele>
        <time>2024-08-17T16:53:33Z</time>
      </trkpt>
      <trkpt lat="36.79175" lon="-118.59905">
        <ele>1520.0</ele>
        <time>2024-08-17T16:53:36Z</time>
      </trkpt>
      <trkpt lat="36.79179" lon="-118.59903">
        <ele>1520.33</ele>
        <time>2024-08-17T16:53:39Z</time>
      </trkpt>
      <trkpt lat="36.79181" lon="-118.599">
        <ele>1520.55</ele>
        <time>2024-08-17T16:53:41Z</time>
      </trkpt>
      <trkpt lat="36.79185" lon="-118.59898">
        <ele>1520.98</ele>
        <time>2024-08-17T16:53:43Z</time>
      </trkpt>
      <trkpt lat="36.79187" lon="-118.59896">
        <ele>1521.0</ele>
        <time>2024-08-17T16:53:45Z</time>
      </trkpt>
      <trkpt lat="36.7919" lon="-118.59895">
        <ele>1521.0</ele>
        <time>2024-08-17T16:53:47Z</time>
      </trkpt>
      <trkpt lat="36.79193" lon="-118.59892">
        <ele>1521.0</ele>
        <time>2024-08-17T16:53:49Z</time>
      </trkpt>
      <trkpt lat="36.79198" lon="-118.5989">
        <ele>1521.38</ele>
        <time>2024-08-17T16:53:51Z</time>
      </trkpt>
      <trkpt lat="36.79201" lon="-118.59889">
        <ele>1521.71</ele>
        <time>2024-08-17T16:53:53Z</time>
      </trkpt>
      <trkpt lat="36.79205" lon="-118.59888">
        <ele>1522.13</ele>
        <time>2024-08-17T16:53:55Z</time>
      </trkpt>
      <trkpt lat="36.79208" lon="-118.59888">
        <ele>1522.42</ele>
        <time>2024-08-17T16:53:57Z</time>
      </trkpt>
      <trkpt lat="36.79212" lon="-118.59887">
        <ele>1522.71</ele>
        <time>2024-08-17T16:54:00Z</time>
      </trkpt>
      <trkpt lat="36.79215" lon="-118.59886">
        <ele>1522.76</ele>
        <time>2024-08-17T16:54:03Z</time>
      </trkpt>
      <trkpt lat="36.79218" lon="-118.59886">
        <ele>1522.86</ele>
        <time>2024-08-17T16:54:05Z</time>
      </trkpt>
      <trkpt lat="36.79222" lon="-118.59886">
        <ele>1522.99</ele>
        <time>2024-08-17T16:54:07Z</time>
      </trkpt>
      <trkpt lat="36.79225" lon="-118.59885">
        <ele>1523.17</ele>
        <time>2024-08-17T16:54:09Z</time>
      </trkpt>
      <trkpt lat="36.79229" lon="-118.59884">
        <ele>1523.35</ele>
        <time>2024-08-17T16:54:12Z</time>
      </trkpt>
      <trkpt lat="36.79232" lon="-118.59885">
        <ele>1523.6</ele>
        <time>2024-08-17T16:54:15Z</time>
      </trkpt>
      <trkpt lat="36.79235" lon="-118.59886">
        <ele>1523.81</ele>
        <time>2024-08-17T16:54:17Z</time>
      </trkpt>
      <trkpt lat="36.79238" lon="-118.59887">
        <ele>1523.94</ele>
        <time>2024-08-17T16:54:19Z</time>
      </trkpt>
      <trkpt lat="36.79242" lon="-118.59887">
        <ele>1524.0</ele>
        <time>2024-08-17T16:54:21Z</time>
      </trkpt>
      <trkpt lat="36.79245" lon="-118.59887">
        <ele>1524.0</ele>
        <time>2024-08-17T16:54:24Z</time>
      </trkpt>
      <trkpt lat="36.79249" lon="-118.59886">
        <ele>1524.0</ele>
        <time>2024-08-17T16:54:28Z</time>
      </trkpt>
      <trkpt lat="36.79252" lon="-118.59886">
        <ele>1524.22</ele>
        <time>2024-08-17T16:54:30Z</time>
      </trkpt>
      <trkpt lat="36.79255" lon="-118.59885">
        <ele>1524.54</ele>
        <time>2024-08-17T16:54:32Z</time>
      </trkpt>
      <trkpt lat="36.79258" lon="-118.59883">
        <ele>1524.86</ele>
        <time>2024-08-17T16:54:35Z</time>
      </trkpt>
      <trkpt lat="36.79262" lon="-118.59881">
        <ele>1525.0</ele>
        <time>2024-08-17T16:54:38Z</time>
      </trkpt>
      <trkpt lat="36.79265" lon="-118.5988">
        <ele>1525.0</ele>
        <time>2024-08-17T16:54:40Z</time>
      </trkpt>
      <trkpt lat="36.79268" lon="-118.59878">
        <ele>1524.99</ele>
        <time>2024-08-17T16:54:42Z</time>
      </trkpt>
      <trkpt lat="36.79271" lon="-118.59877">
        <ele>1525.0</ele>
        <time>2024-08-17T16:54:44Z</time>
      </trkpt>
      <trkpt lat="36.79274" lon="-118.59876">
        <ele>1525.0</ele>
        <time>2024-08-17T16:54:46Z</time>
      </trkpt>
      <trkpt lat="36.79277" lon="-118.59875">
        <ele>1525.0</ele>
        <time>2024-08-17T16:54:48Z</time>
      </trkpt>
      <trkpt lat="36.7928" lon="-118.59874">
        <ele>1525.09</ele>
        <time>2024-08-17T16:54:50Z</time>
      </trkpt>
      <trkpt lat="36.79284" lon="-118.59873">
        <ele>1525.19</ele>
        <time>2024-08-17T16:54:53Z</time>
      </trkpt>
      <trkpt lat="36.79287" lon="-118.59871">
        <ele>1525.07</ele>
        <time>2024-08-17T16:54:55Z</time>
      </trkpt>
      <trkpt lat="36.7929" lon="-118.59871">
        <ele>1525.37</ele>
        <time>2024-08-17T16:54:58Z</time>
      </trkpt>
      <trkpt lat="36.79294" lon="-118.59871">
        <ele>1525.77</ele>
        <time>2024-08-17T16:55:02Z</time>
      </trkpt>
      <trkpt lat="36.79296" lon="-118.59868">
        <ele>1525.72</ele>
        <time>2024-08-17T16:55:05Z</time>
      </trkpt>
      <trkpt lat="36.79297" lon="-118.59865">
        <ele>1525.46</ele>
        <time>2024-08-17T16:55:08Z</time>
      </trkpt>
      <trkpt lat="36.79298" lon="-118.59862">
        <ele>1525.26</ele>
        <time>2024-08-17T16:55:11Z</time>
      </trkpt>
      <trkpt lat="36.79301" lon="-118.5986">
        <ele>1525.45</ele>
        <time>2024-08-17T16:55:14Z</time>
      </trkpt>
      <trkpt lat="36.79305" lon="-118.59859">
        <ele>1525.73</ele>
        <time>2024-08-17T16:55:17Z</time>
      </trkpt>
      <trkpt lat="36.79308" lon="-118.59857">
        <ele>1525.67</ele>
        <time>2024-08-17T16:55:19Z</time>
      </trkpt>
      <trkpt lat="36.7931" lon="-118.59855">
        <ele>1525.66</ele>
        <time>2024-08-17T16:55:21Z</time>
      </trkpt>
      <trkpt lat="36.79314" lon="-118.59853">
        <ele>1525.92</ele>
        <time>2024-08-17T16:55:23Z</time>
      </trkpt>
      <trkpt lat="36.79317" lon="-118.59851">
        <ele>1526.14</ele>
        <time>2024-08-17T16:55:25Z</time>
      </trkpt>
      <trkpt lat="36.79319" lon="-118.59849">
        <ele>1526.14</ele>
        <time>2024-08-17T16:55:27Z</time>
      </trkpt>
      <trkpt lat="36.79322" lon="-118.59847">
        <ele>1526.25</ele>
        <time>2024-08-17T16:55:29Z</time>
      </trkpt>
      <trkpt lat="36.79324" lon="-118.59844">
        <ele>1526.14</ele>
        <time>2024-08-17T16:55:31Z</time>
      </trkpt>
      <trkpt lat="36.79327" lon="-118.59842">
        <ele>1526.3</ele>
        <time>2024-08-17T16:55:33Z</time>
      </trkpt>
      <trkpt lat="36.79331" lon="-118.59841">
        <ele>1526.62</ele>
        <time>2024-08-17T16:55:35Z</time>
      </trkpt>
      <trkpt lat="36.79335" lon="-118.59839">
        <ele>1526.79</ele>
        <time>2024-08-17T16:55:37Z</time>
      </trkpt>
      <trkpt lat="36.79337" lon="-118.59838">
        <ele>1526.9</ele>
        <time>2024-08-17T16:55:39Z</time>
      </trkpt>
      <trkpt lat="36.7934" lon="-118.59836">
        <ele>1527.01</ele>
        <time>2024-08-17T16:55:41Z</time>
      </trkpt>
      <trkpt lat="36.79344" lon="-118.59835">
        <ele>1527.33</ele>
        <time>2024-08-17T16:55:43Z</time>
      </trkpt>
      <trkpt lat="36.79347" lon="-118.59834">
        <ele>1527.55</ele>
        <time>2024-08-17T16:55:45Z</time>
      </trkpt>
      <trkpt lat="36.7935" lon="-118.59835">
        <ele>1527.98</ele>
        <time>2024-08-17T16:55:47Z</time>
      </trkpt>
      <trkpt lat="36.79354" lon="-118.59835">
        <ele>1528.41</ele>
        <time>2024-08-17T16:55:50Z</time>
      </trkpt>
      <trkpt lat="36.79357" lon="-118.59836">
        <ele>1528.84</ele>
        <time>2024-08-17T16:55:52Z</time>
      </trkpt>
      <trkpt lat="36.7936" lon="-118.59836">
        <ele>1529.17</ele>
        <time>2024-08-17T16:55:54Z</time>
      </trkpt>
      <trkpt lat="36.79364" lon="-118.59837">
        <ele>1529.9</ele>
        <time>2024-08-17T16:55:57Z</time>
      </trkpt>
      <trkpt lat="36.79365" lon="-118.5984">
        <ele>1530.26</ele>
        <time>2024-08-17T16:56:00Z</time>
      </trkpt>
      <trkpt lat="36.79365" lon="-118.59844">
        <ele>1530.48</ele>
        <time>2024-08-17T16:56:03Z</time>
      </trkpt>
      <trkpt lat="36.79367" lon="-118.59841">
        <ele>1530.57</ele>
        <time>2024-08-17T16:56:11Z</time>
      </trkpt>
      <trkpt lat="36.79368" lon="-118.59837">
        <ele>1530.59</ele>
        <time>2024-08-17T16:56:14Z</time>
      </trkpt>
      <trkpt lat="36.7937" lon="-118.59833">
        <ele>1530.89</ele>
        <time>2024-08-17T16:56:17Z</time>
      </trkpt>
      <trkpt lat="36.79371" lon="-118.59829">
        <ele>1530.63</ele>
        <time>2024-08-17T16:56:20Z</time>
      </trkpt>
      <trkpt lat="36.79374" lon="-118.59826">
        <ele>1530.91</ele>
        <time>2024-08-17T16:56:23Z</time>
      </trkpt>
      <trkpt lat="36.79376" lon="-118.59824">
        <ele>1531.21</ele>
        <time>2024-08-17T16:56:28Z</time>
      </trkpt>
      <trkpt lat="36.79378" lon="-118.59829">
        <ele>1531.74</ele>
        <time>2024-08-17T16:56:58Z</time>
      </trkpt>
      <trkpt lat="36.79379" lon="-118.59824">
        <ele>1531.86</ele>
        <time>2024-08-17T16:57:08Z</time>
      </trkpt>
      <trkpt lat="36.79383" lon="-118.59822">
        <ele>1532.22</ele>
        <time>2024-08-17T16:57:10Z</time>
      </trkpt>
      <trkpt lat="36.79385" lon="-118.59826">
        <ele>1532.58</ele>
        <time>2024-08-17T16:57:14Z</time>
      </trkpt>
      <trkpt lat="36.79383" lon="-118.5983">
        <ele>1532.36</ele>
        <time>2024-08-17T16:57:17Z</time>
      </trkpt>
      <trkpt lat="36.79382" lon="-118.59834">
        <ele>1532.27</ele>
        <time>2024-08-17T16:57:20Z</time>
      </trkpt>
      <trkpt lat="36.79381" lon="-118.59837">
        <ele>1532.21</ele>
        <time>2024-08-17T16:57:22Z</time>
      </trkpt>
      <trkpt lat="36.7938" lon="-118.59841">
        <ele>1532.07</ele>
        <time>2024-08-17T16:57:25Z</time>
      </trkpt>
      <trkpt lat="36.79381" lon="-118.59845">
        <ele>1532.52</ele>
        <time>2024-08-17T16:57:28Z</time>
      </trkpt>
      <trkpt lat="36.79379" lon="-118.59848">
        <ele>1532.52</ele>
        <time>2024-08-17T16:57:33Z</time>
      </trkpt>
      <trkpt lat="36.79376" lon="-118.59849">
        <ele>1532.3</ele>
        <time>2024-08-17T16:57:37Z</time>
      </trkpt>
      <trkpt lat="36.79373" lon="-118.59851">
        <ele>1532.19</ele>
        <time>2024-08-17T16:57:43Z</time>
      </trkpt>
      <trkpt lat="36.7937" lon="-118.5985">
        <ele>1531.73</ele>
        <time>2024-08-17T16:57:50Z</time>
      </trkpt>
      <trkpt lat="36.79368" lon="-118.59849">
        <ele>1531.26</ele>
        <time>2024-08-17T16:58:20Z</time>
      </trkpt>
      <trkpt lat="36.7937" lon="-118.59852">
        <ele>1531.92</ele>
        <time>2024-08-17T16:58:30Z</time>
      </trkpt>
      <trkpt lat="36.7937" lon="-118.59849">
        <ele>1531.62</ele>
        <time>2024-08-17T16:59:09Z</time>
      </trkpt>
      <trkpt lat="36.7937" lon="-118.59853">
        <ele>1531.92</ele>
        <time>2024-08-17T16:59:30Z</time>
      </trkpt>
      <trkpt lat="36.79371" lon="-118.5985">
        <ele>1531.87</ele>
        <time>2024-08-17T16:59:35Z</time>
      </trkpt>
    </trkseg>
  </trk>
</gpx>
